{"type":"Feature","geometry":{"type":"MultiPolygon","coordinates":[[[[-114.1881,38.9152],[-114.1881,38.8619],[-114.2252,38.8619],[-114.2252,38.8474],[-114.2133,38.8474],[-114.211,38.8471],[-114.2109,38.8474],[-114.2067,38.8474],[-114.2066,38.8184],[-114.2813,38.8184],[-114.2813,38.8381],[-114.2886,38.8381],[-114.2892,38.8402],[-114.2898,38.8437],[-114.2887,38.8443],[-114.2872,38.8466],[-114.2884,38.8526],[-114.286,38.8562],[-114.3183,38.8815],[-114.3276,38.8815],[-114.3276,38.9033],[-114.3098,38.9033],[-114.3119,38.8903],[-114.3098,38.8901],[-114.3073,38.9058],[-114.3062,38.9098],[-114.3037,38.9172],[-114.3059,38.9176],[-114.3081,38.9105],[-114.3164,38.9105],[-114.3156,38.9129],[-114.3163,38.913],[-114.3171,38.9105],[-114.3276,38.9105],[-114.3277,38.9403],[-114.3374,38.9403],[-114.3374,38.9695],[-114.356,38.9695],[-114.3561,39.013],[-114.3375,39.0275],[-114.3373,39.0637],[-114.2817,39.0637],[-114.2817,39.0647],[-114.2529,39.0647],[-114.2529,39.0358],[-114.2251,39.0358],[-114.2251,39.0213],[-114.2073,39.0213],[-114.2075,39.014],[-114.2074,38.9923],[-114.2066,38.9923],[-114.2066,38.9778],[-114.1699,38.9778],[-114.17,38.9631],[-114.1519,38.9631],[-114.1515,38.9484],[-114.1325,38.9481],[-114.1326,38.9189],[-114.1337,38.9185],[-114.135,38.9184],[-114.1362,38.9185],[-114.1365,38.9183],[-114.1373,38.9184],[-114.1386,38.9182],[-114.1395,38.9183],[-114.14,38.9182],[-114.1425,38.9185],[-114.1432,38.9181],[-114.1441,38.9181],[-114.1451,38.9173],[-114.1461,38.9172],[-114.1476,38.9164],[-114.1481,38.9159],[-114.1489,38.9157],[-114.1505,38.9149],[-114.1508,38.9147],[-114.1512,38.9137],[-114.1524,38.913],[-114.1531,38.9129],[-114.1537,38.913],[-114.1543,38.9127],[-114.155,38.9126],[-114.1572,38.9117],[-114.1615,38.9119],[-114.1644,38.9114],[-114.1672,38.9121],[-114.1696,38.9123],[-114.1709,38.9126],[-114.173,38.9124],[-114.1753,38.9131],[-114.1786,38.9132],[-114.1803,38.913],[-114.1815,38.9125],[-114.1827,38.9124],[-114.1834,38.9131],[-114.1844,38.9134],[-114.1862,38.9148],[-114.1881,38.9152]]]]},"properties":{"park":"great_basin","name":"Great Basin National Park","source":"iNaturalist place","place_id":69699,"source_url":"https://www.inaturalist.org/places/69699"}}