{"type":"Feature","geometry":{"type":"MultiPolygon","coordinates":[[[[-81.1091,37.9746],[-81.1089,37.9763],[-81.1055,37.9736],[-81.0984,37.9732],[-81.0967,37.9691],[-81.0879,37.9666],[-81.0811,37.9711],[-81.0806,37.9751],[-81.0786,37.9734],[-81.0734,37.9767],[-81.0743,37.9718],[-81.0692,37.9709],[-81.0611,37.9661],[-81.0449,37.9658],[-81.0305,37.9632],[-81.0287,37.9658],[-81.0293,37.9702],[-81.032,37.9748],[-81.0339,37.9867],[-81.0285,37.9951],[-81.0269,38.0015],[-81.0277,38.0024],[-81.0293,37.9993],[-81.0328,37.9999],[-81.0388,37.9962],[-81.039,37.9977],[-81.0346,38.0014],[-81.0363,38.0044],[-81.0313,38.0064],[-81.0313,38.0078],[-81.0348,38.0074],[-81.0378,38.0094],[-81.0343,38.01],[-81.032,38.0123],[-81.0313,38.0149],[-81.035,38.0161],[-81.0321,38.0175],[-81.0334,38.0194],[-81.0368,38.0195],[-81.0372,38.0213],[-81.0417,38.0188],[-81.0443,38.0221],[-81.0485,38.0203],[-81.0494,38.0295],[-81.055,38.0293],[-81.0532,38.0308],[-81.056,38.033],[-81.0616,38.0282],[-81.0733,38.0304],[-81.0776,38.0398],[-81.0747,38.0416],[-81.0742,38.0387],[-81.0712,38.0379],[-81.0719,38.0433],[-81.0686,38.0443],[-81.0723,38.0467],[-81.079,38.0401],[-81.0866,38.043],[-81.0871,38.0445],[-81.0846,38.0451],[-81.0941,38.0528],[-81.0962,38.0524],[-81.0966,38.0536],[-81.0917,38.054],[-81.0905,38.0557],[-81.0933,38.0582],[-81.0897,38.0608],[-81.0895,38.0625],[-81.0933,38.0638],[-81.0985,38.0612],[-81.0993,38.0632],[-81.1001,38.0606],[-81.1015,38.0617],[-81.1003,38.0636],[-81.1015,38.0666],[-81.0965,38.0702],[-81.0937,38.0777],[-81.0897,38.0821],[-81.1056,38.0888],[-81.104,38.0905],[-81.1032,38.0968],[-81.1044,38.1005],[-81.1185,38.1084],[-81.1223,38.1143],[-81.1272,38.1164],[-81.1285,38.1151],[-81.127,38.1148],[-81.1274,38.1111],[-81.1299,38.1079],[-81.1356,38.1085],[-81.131,38.1125],[-81.1293,38.1187],[-81.1218,38.1171],[-81.1147,38.1102],[-81.1027,38.1026],[-81.1006,38.0998],[-81.1004,38.0914],[-81.099,38.0921],[-81.0999,38.1019],[-81.1134,38.112],[-81.1068,38.112],[-81.1051,38.1093],[-81.0969,38.1066],[-81.0965,38.1045],[-81.0944,38.1038],[-81.0953,38.1023],[-81.0927,38.0979],[-81.0948,38.0935],[-81.0834,38.0901],[-81.0791,38.0871],[-81.0808,38.0848],[-81.0779,38.0837],[-81.0777,38.0787],[-81.0712,38.0786],[-81.0696,38.0754],[-81.0746,38.0709],[-81.0718,38.0706],[-81.0724,38.068],[-81.0669,38.0667],[-81.0633,38.0623],[-81.0586,38.0647],[-81.0527,38.0602],[-81.0371,38.0554],[-81.0346,38.057],[-81.0353,38.0592],[-81.0308,38.0571],[-81.0327,38.0564],[-81.0325,38.0542],[-81.0241,38.0481],[-81.0237,38.0398],[-81.0201,38.0383],[-81.0201,38.0361],[-81.0179,38.0345],[-81.0151,38.037],[-81.0131,38.0347],[-81.0164,38.0301],[-81.0055,38.0112],[-81.0043,38.0056],[-81.0003,38.0025],[-80.9873,38.0048],[-80.9726,37.9985],[-80.9674,37.9977],[-80.9624,38.0024],[-80.9524,38.0027],[-80.9541,38.0037],[-80.9517,38.008],[-80.9469,38.0091],[-80.9461,38.0041],[-80.9442,38.0029],[-80.9485,38.0016],[-80.9438,37.9916],[-80.9398,37.9896],[-80.9411,37.9873],[-80.9386,37.9824],[-80.9449,37.9782],[-80.9479,37.9782],[-80.9521,37.9741],[-80.9583,37.9733],[-80.964,37.9696],[-80.9697,37.971],[-80.9659,37.9799],[-80.9605,37.9804],[-80.9564,37.9834],[-80.9596,37.986],[-80.9642,37.9855],[-80.9665,37.9875],[-80.978,37.9871],[-81.0061,37.9931],[-80.999,37.9861],[-81.005,37.9815],[-81.0133,37.9848],[-81.0188,37.9828],[-81.0142,37.9694],[-81.0084,37.9684],[-81.0101,37.9661],[-80.997,37.9527],[-81.0149,37.9558],[-81.0149,37.9503],[-81.0206,37.9503],[-81.0206,37.9484],[-81.0149,37.9375],[-81.0253,37.9413],[-81.0197,37.9362],[-81.0275,37.9313],[-81.0306,37.9418],[-81.0285,37.9467],[-81.0305,37.9481],[-81.0398,37.9459],[-81.0375,37.9524],[-81.0396,37.9538],[-81.044,37.9513],[-81.0441,37.9567],[-81.0507,37.9574],[-81.056,37.9565],[-81.0651,37.9589],[-81.0698,37.9573],[-81.0637,37.955],[-81.0623,37.9567],[-81.0631,37.9553],[-81.0617,37.9548],[-81.0609,37.9561],[-81.0571,37.9566],[-81.0561,37.9553],[-81.0549,37.9566],[-81.0563,37.9537],[-81.039,37.9347],[-81.0447,37.924],[-81.0421,37.9221],[-81.0335,37.9211],[-81.0289,37.9185],[-81.0224,37.9183],[-81.0175,37.9198],[-81.01,37.9278],[-81.0025,37.9138],[-81.0049,37.9083],[-80.9984,37.9074],[-80.9969,37.9021],[-81.0036,37.8997],[-81.0076,37.893],[-81.0068,37.8869],[-81.012,37.8874],[-81.012,37.8778],[-80.9943,37.8625],[-80.9893,37.8611],[-80.9959,37.8578],[-80.9945,37.856],[-80.9835,37.8616],[-80.9852,37.8624],[-80.9788,37.8714],[-80.9778,37.8709],[-80.9799,37.8686],[-80.9793,37.866],[-80.9793,37.8685],[-80.9772,37.8705],[-80.9726,37.8682],[-80.9667,37.8693],[-80.9478,37.8788],[-80.9433,37.8786],[-80.9336,37.8719],[-80.9312,37.8753],[-80.9283,37.874],[-80.9243,37.8675],[-80.9259,37.8609],[-80.9309,37.8588],[-80.9294,37.8542],[-80.9334,37.8529],[-80.9276,37.8401],[-80.9308,37.8387],[-80.9278,37.838],[-80.9345,37.8331],[-80.931,37.8291],[-80.9325,37.8256],[-80.9123,37.8342],[-80.9131,37.8369],[-80.9064,37.8395],[-80.9039,37.8388],[-80.902,37.8408],[-80.9012,37.8395],[-80.8925,37.8444],[-80.8945,37.8511],[-80.8934,37.8492],[-80.888,37.8486],[-80.8883,37.8471],[-80.8862,37.8462],[-80.8915,37.8411],[-80.8903,37.841],[-80.8791,37.8449],[-80.8779,37.8433],[-80.8751,37.8435],[-80.878,37.8424],[-80.869,37.842],[-80.8665,37.8457],[-80.8634,37.8461],[-80.8638,37.848],[-80.8617,37.8478],[-80.8584,37.8518],[-80.8562,37.8475],[-80.8599,37.8437],[-80.8604,37.8395],[-80.864,37.8344],[-80.8675,37.8324],[-80.884,37.8306],[-80.897,37.8243],[-80.9,37.8146],[-80.8977,37.8102],[-80.8983,37.802],[-80.9063,37.801],[-80.9066,37.7989],[-80.9045,37.7981],[-80.9089,37.7943],[-80.9056,37.7921],[-80.899,37.7909],[-80.8977,37.7932],[-80.8957,37.7903],[-80.8946,37.7908],[-80.8859,37.7835],[-80.8862,37.7812],[-80.8909,37.7796],[-80.8912,37.7772],[-80.8932,37.7762],[-80.8913,37.7718],[-80.8916,37.768],[-80.8896,37.769],[-80.889,37.7667],[-80.8905,37.7464],[-80.8883,37.7446],[-80.8906,37.7414],[-80.8875,37.7405],[-80.8978,37.7304],[-80.8879,37.7205],[-80.8866,37.7044],[-80.8751,37.6907],[-80.8751,37.6853],[-80.879,37.6805],[-80.8929,37.6743],[-80.8911,37.6772],[-80.8972,37.6817],[-80.8946,37.6821],[-80.8911,37.6873],[-80.8957,37.6876],[-80.9089,37.7007],[-80.9137,37.7034],[-80.9254,37.7042],[-80.9287,37.7058],[-80.9295,37.7096],[-80.9336,37.7122],[-80.9321,37.7173],[-80.9344,37.719],[-80.9319,37.7244],[-80.9364,37.7258],[-80.93,37.729],[-80.9277,37.7332],[-80.9333,37.7408],[-80.9407,37.7411],[-80.9467,37.7445],[-80.9459,37.7487],[-80.9474,37.7517],[-80.9447,37.7583],[-80.9484,37.764],[-80.9449,37.7672],[-80.9434,37.7667],[-80.9385,37.7801],[-80.9426,37.7837],[-80.9489,37.7857],[-80.9514,37.7926],[-80.9464,37.7972],[-80.9481,37.7988],[-80.9451,37.8005],[-80.9448,37.8038],[-80.9403,37.8043],[-80.9513,37.8079],[-80.952,37.8059],[-80.955,37.8054],[-80.9571,37.8073],[-80.9589,37.8064],[-80.9637,37.8112],[-80.961,37.814],[-80.9625,37.818],[-80.9613,37.8183],[-80.9649,37.8216],[-80.9649,37.8233],[-80.9695,37.823],[-80.9723,37.8246],[-80.9853,37.8231],[-80.9854,37.8216],[-80.9937,37.8221],[-80.9954,37.8206],[-80.9978,37.8159],[-80.9967,37.8132],[-80.9925,37.8102],[-80.9999,37.804],[-80.9999,37.7695],[-81.0018,37.7661],[-81.0105,37.76],[-81.0389,37.7599],[-81.0551,37.7722],[-81.0525,37.7757],[-81.0455,37.772],[-81.0457,37.7787],[-81.0413,37.777],[-81.0362,37.7801],[-81.0387,37.7841],[-81.0352,37.795],[-81.0383,37.7965],[-81.0337,37.8031],[-81.0208,37.8112],[-81.0187,37.8179],[-81.02,37.8204],[-81.0401,37.8274],[-81.042,37.824],[-81.0419,37.8175],[-81.0485,37.8248],[-81.0526,37.8216],[-81.0533,37.8182],[-81.0628,37.816],[-81.0681,37.8268],[-81.0724,37.8294],[-81.0815,37.8429],[-81.0969,37.8406],[-81.1205,37.8434],[-81.1177,37.8472],[-81.1162,37.846],[-81.1129,37.8483],[-81.1108,37.8462],[-81.1045,37.8477],[-81.1081,37.8509],[-81.1057,37.8514],[-81.1085,37.854],[-81.1079,37.8577],[-81.1095,37.8596],[-81.1061,37.8607],[-81.1078,37.8631],[-81.1039,37.8633],[-81.1039,37.8764],[-81.0913,37.8753],[-81.0913,37.8767],[-81.0861,37.8772],[-81.0906,37.8847],[-81.0869,37.8877],[-81.0873,37.8894],[-81.0857,37.8895],[-81.0857,37.8931],[-81.0822,37.8946],[-81.0752,37.9029],[-81.0655,37.9051],[-81.0653,37.9269],[-81.0674,37.9302],[-81.0754,37.9282],[-81.0819,37.9294],[-81.09,37.9344],[-81.0906,37.9379],[-81.0938,37.9386],[-81.0966,37.9348],[-81.1094,37.9272],[-81.1176,37.9254],[-81.1225,37.926],[-81.1236,37.9278],[-81.1235,37.9304],[-81.1179,37.9318],[-81.0942,37.9516],[-81.085,37.9548],[-81.0843,37.9569],[-81.1013,37.9641],[-81.1041,37.9677],[-81.1101,37.9678],[-81.1091,37.9746]],[[-81.0674,37.8286],[-81.0655,37.8276],[-81.0649,37.8282],[-81.0667,37.83],[-81.0674,37.8286]]],[[[-81.1561,37.9287],[-81.1543,37.929],[-81.1547,37.9257],[-81.1558,37.9257],[-81.1561,37.9287]]]]},"properties":{"park":"new_river_gorge","name":"New River Gorge National Park and Preserve","source":"iNaturalist place","place_id":95209,"source_url":"https://www.inaturalist.org/places/95209"}}