{"type":"Feature","geometry":{"type":"MultiPolygon","coordinates":[[[[-93.0485,34.5122],[-93.0492,34.5117],[-93.0498,34.512],[-93.0485,34.5122]]],[[[-93.0642,34.5161],[-93.0698,34.515],[-93.0708,34.5151],[-93.0719,34.5154],[-93.0717,34.5157],[-93.0699,34.5153],[-93.069,34.5154],[-93.0673,34.5162],[-93.0652,34.5162],[-93.0642,34.5163],[-93.0642,34.5161]]],[[[-93.0617,34.5163],[-93.0639,34.5162],[-93.064,34.5164],[-93.0621,34.5165],[-93.0617,34.5163]]],[[[-93.0263,34.5483],[-93.0266,34.5439],[-93.0279,34.5429],[-93.0276,34.5425],[-93.0267,34.5416],[-93.027,34.5375],[-93.0225,34.5375],[-93.0227,34.5337],[-93.0183,34.5338],[-93.0187,34.5231],[-93.0279,34.5231],[-93.028,34.5199],[-93.0303,34.5199],[-93.0358,34.5192],[-93.0366,34.5188],[-93.038,34.5177],[-93.0382,34.5186],[-93.0385,34.5187],[-93.0394,34.5177],[-93.0398,34.5172],[-93.0396,34.5168],[-93.04,34.5163],[-93.0407,34.5159],[-93.0421,34.5146],[-93.0431,34.5141],[-93.044,34.5132],[-93.0445,34.5132],[-93.0456,34.5138],[-93.0474,34.5126],[-93.0519,34.5117],[-93.0537,34.5117],[-93.0539,34.5118],[-93.0539,34.513],[-93.0533,34.5161],[-93.0506,34.5177],[-93.0507,34.5178],[-93.052,34.5171],[-93.0523,34.5175],[-93.0519,34.5177],[-93.053,34.5186],[-93.0529,34.519],[-93.0531,34.5192],[-93.0538,34.5187],[-93.0549,34.5196],[-93.0538,34.5204],[-93.053,34.5218],[-93.0516,34.5223],[-93.0513,34.5228],[-93.0498,34.5236],[-93.0498,34.5237],[-93.0488,34.524],[-93.0475,34.5252],[-93.0468,34.5252],[-93.0468,34.5257],[-93.0459,34.5259],[-93.0453,34.5268],[-93.0434,34.5281],[-93.0399,34.5299],[-93.0399,34.5304],[-93.0417,34.5304],[-93.0417,34.5306],[-93.0421,34.5308],[-93.043,34.5308],[-93.0427,34.5312],[-93.0419,34.5318],[-93.0415,34.5323],[-93.041,34.5324],[-93.0414,34.5341],[-93.0452,34.5342],[-93.0451,34.538],[-93.0456,34.5385],[-93.0461,34.5385],[-93.0481,34.5382],[-93.0481,34.538],[-93.0496,34.538],[-93.0497,34.5344],[-93.0553,34.5344],[-93.0558,34.5333],[-93.0561,34.5333],[-93.0559,34.533],[-93.0559,34.5314],[-93.0562,34.5308],[-93.059,34.5308],[-93.0596,34.5302],[-93.0611,34.5293],[-93.0611,34.529],[-93.0606,34.5288],[-93.0613,34.5281],[-93.0612,34.5274],[-93.0619,34.5273],[-93.0625,34.5277],[-93.0628,34.5267],[-93.0644,34.5267],[-93.0651,34.5259],[-93.0676,34.5246],[-93.0679,34.5233],[-93.0694,34.5229],[-93.0718,34.5201],[-93.0718,34.5198],[-93.0741,34.5198],[-93.0741,34.5186],[-93.0751,34.5185],[-93.0744,34.5182],[-93.0749,34.5177],[-93.0743,34.5176],[-93.0746,34.5171],[-93.0741,34.5168],[-93.0743,34.5168],[-93.0743,34.5164],[-93.0763,34.5164],[-93.0762,34.5182],[-93.0775,34.518],[-93.0777,34.5176],[-93.0792,34.5169],[-93.08,34.5168],[-93.0802,34.5164],[-93.0805,34.5164],[-93.0806,34.5162],[-93.0807,34.5153],[-93.0809,34.5153],[-93.0806,34.5146],[-93.0808,34.5144],[-93.0807,34.5139],[-93.0824,34.5135],[-93.0821,34.5124],[-93.081,34.5126],[-93.0808,34.512],[-93.0813,34.5108],[-93.0807,34.511],[-93.0807,34.5092],[-93.0722,34.509],[-93.0722,34.512],[-93.0719,34.5122],[-93.0701,34.5121],[-93.0699,34.5129],[-93.0702,34.5138],[-93.0702,34.5148],[-93.0694,34.5148],[-93.0658,34.5156],[-93.0658,34.515],[-93.0652,34.515],[-93.0652,34.5146],[-93.0662,34.5146],[-93.066,34.5138],[-93.0666,34.5136],[-93.0665,34.5121],[-93.0654,34.512],[-93.0645,34.5117],[-93.0636,34.5119],[-93.0593,34.5153],[-93.0594,34.5153],[-93.0572,34.5171],[-93.0573,34.5172],[-93.0569,34.5175],[-93.0567,34.5173],[-93.0561,34.5179],[-93.0546,34.5168],[-93.0542,34.5161],[-93.0541,34.5155],[-93.0543,34.5144],[-93.0545,34.5144],[-93.0549,34.5139],[-93.0554,34.5118],[-93.0566,34.5111],[-93.0582,34.5104],[-93.058,34.51],[-93.0593,34.5089],[-93.06,34.5085],[-93.0614,34.5072],[-93.0628,34.5071],[-93.0639,34.5067],[-93.0651,34.5056],[-93.0655,34.5054],[-93.0648,34.5049],[-93.066,34.5046],[-93.0662,34.5053],[-93.067,34.5054],[-93.0687,34.505],[-93.0694,34.5044],[-93.0724,34.5037],[-93.0724,34.5045],[-93.0736,34.5046],[-93.0736,34.5037],[-93.0738,34.5037],[-93.0737,34.503],[-93.0739,34.5019],[-93.0767,34.5019],[-93.0767,34.5011],[-93.0807,34.5011],[-93.0807,34.4998],[-93.0843,34.4998],[-93.0844,34.499],[-93.0855,34.4991],[-93.0856,34.4988],[-93.0861,34.4988],[-93.0865,34.4993],[-93.0868,34.4994],[-93.0874,34.4992],[-93.0874,34.4995],[-93.0888,34.4995],[-93.0888,34.4992],[-93.0893,34.4988],[-93.093,34.4989],[-93.093,34.5003],[-93.0948,34.5003],[-93.0949,34.4988],[-93.1044,34.499],[-93.113,34.4989],[-93.1128,34.507],[-93.1129,34.507],[-93.1129,34.5094],[-93.1135,34.5094],[-93.1133,34.512],[-93.1124,34.5138],[-93.1112,34.5154],[-93.1111,34.5165],[-93.1101,34.5165],[-93.1101,34.5186],[-93.1077,34.5201],[-93.1058,34.5201],[-93.1058,34.5207],[-93.103,34.5236],[-93.0848,34.5233],[-93.0847,34.5264],[-93.0834,34.5269],[-93.0761,34.5269],[-93.076,34.5297],[-93.0742,34.5305],[-93.0652,34.5306],[-93.0652,34.5323],[-93.0644,34.5319],[-93.064,34.5315],[-93.0632,34.5312],[-93.0629,34.5345],[-93.0607,34.5345],[-93.0607,34.5362],[-93.0585,34.5362],[-93.058,34.5416],[-93.0538,34.5416],[-93.0535,34.5452],[-93.0444,34.545],[-93.0439,34.5522],[-93.0436,34.5595],[-93.0257,34.5594],[-93.0263,34.5484],[-93.0253,34.5484],[-93.0253,34.5483],[-93.0263,34.5483]]]]},"properties":{"park":"hot_springs","name":"Hot Springs National Park","source":"iNaturalist place","place_id":56706,"source_url":"https://www.inaturalist.org/places/56706"}}