{"type":"FeatureCollection","features":[{"type":"Feature","geometry":{"type":"Polygon","coordinates":[[[-93.04264,34.51613],[-93.04121,34.51753],[-93.04199,34.51932],[-93.0442,34.51971],[-93.04564,34.51831],[-93.04486,34.51652],[-93.04264,34.51613]]]},"properties":{"cell":"89444b00c2fffff","res":9,"coarsened":false,"count":17,"hv":17,"mp":0,"y0":2016,"y1":2024,"sp":[[18,6,6,0,2023,2023],[0,1,1,0,2016,2016],[1,1,1,0,2016,2016],[2,1,1,0,2016,2016],[3,1,1,0,2016,2016],[5,1,1,0,2019,2019],[10,1,1,0,2021,2021],[47,1,1,0,2022,2022],[20,1,1,0,2024,2024],[64,1,1,0,2024,2024],[78,1,1,0,2024,2024],[42,1,1,0,2024,2024]]}},{"type":"Feature","geometry":{"type":"Polygon","coordinates":[[[-93.02971,34.52873],[-93.02828,34.53013],[-93.02906,34.53192],[-93.03127,34.53231],[-93.03271,34.53091],[-93.03193,34.52912],[-93.02971,34.52873]]]},"properties":{"cell":"89444b0080bffff","res":9,"coarsened":false,"count":3,"hv":3,"mp":0,"y0":2016,"y1":2016,"sp":[[4,1,1,0,2016,2016],[5,1,1,0,2016,2016],[9,1,1,0,2016,2016]]}},{"type":"Feature","geometry":{"type":"Polygon","coordinates":[[[-93.03271,34.53091],[-93.03127,34.53231],[-93.03205,34.5341],[-93.03426,34.53449],[-93.0357,34.53309],[-93.03492,34.5313],[-93.03271,34.53091]]]},"properties":{"cell":"89444b0080fffff","res":9,"coarsened":false,"count":3,"hv":3,"mp":0,"y0":2016,"y1":2016,"sp":[[6,1,1,0,2016,2016],[2,1,1,0,2016,2016],[7,1,1,0,2016,2016]]}},{"type":"Feature","geometry":{"type":"Polygon","coordinates":[[[-93.03205,34.5341],[-93.03061,34.5355],[-93.03139,34.53729],[-93.03361,34.53768],[-93.03504,34.53628],[-93.03426,34.53449],[-93.03205,34.5341]]]},"properties":{"cell":"89444b00877ffff","res":9,"coarsened":false,"count":2,"hv":2,"mp":0,"y0":2016,"y1":2017,"sp":[[8,1,1,0,2016,2016],[0,1,1,0,2017,2017]]}},{"type":"Feature","geometry":{"type":"Polygon","coordinates":[[[-93.04199,34.51932],[-93.04055,34.52072],[-93.04133,34.52251],[-93.04354,34.5229],[-93.04498,34.5215],[-93.0442,34.51971],[-93.04199,34.51932]]]},"properties":{"cell":"89444b00897ffff","res":9,"coarsened":false,"count":22,"hv":22,"mp":0,"y0":2016,"y1":2025,"sp":[[1,3,3,0,2016,2023],[10,2,2,0,2016,2021],[0,2,2,0,2016,2019],[8,2,2,0,2016,2023],[34,2,2,0,2021,2025],[11,1,1,0,2016,2016],[3,1,1,0,2016,2016],[9,1,1,0,2016,2016],[12,1,1,0,2016,2016],[4,1,1,0,2016,2016],[5,1,1,0,2016,2016],[45,1,1,0,2021,2021],[15,1,1,0,2022,2022],[59,1,1,0,2024,2024],[68,1,1,0,2025,2025],[39,1,1,0,2025,2025]]}},{"type":"Feature","geometry":{"type":"Polygon","coordinates":[[[-93.0506,34.51092],[-93.04917,34.51232],[-93.04995,34.51411],[-93.05216,34.5145],[-93.0536,34.5131],[-93.05282,34.51131],[-93.0506,34.51092]]]},"properties":{"cell":"89444b00ddbffff","res":9,"coarsened":false,"count":26,"hv":26,"mp":0,"y0":2016,"y1":2026,"sp":[[9,4,4,0,2016,2026],[15,4,4,0,2016,2023],[13,3,3,0,2016,2025],[33,3,3,0,2021,2026],[1,3,3,0,2021,2024],[14,1,1,0,2016,2016],[23,1,1,0,2019,2019],[28,1,1,0,2023,2023],[36,1,1,0,2024,2024],[0,1,1,0,2025,2025],[10,1,1,0,2025,2025],[73,1,1,0,2026,2026],[22,1,1,0,2026,2026],[11,1,1,0,2025,2025]]}},{"type":"Feature","geometry":{"type":"Polygon","coordinates":[[[-93.08946,34.50617],[-93.08802,34.50758],[-93.0888,34.50937],[-93.09102,34.50976],[-93.09245,34.50835],[-93.09167,34.50656],[-93.08946,34.50617]]]},"properties":{"cell":"89444b07683ffff","res":9,"coarsened":false,"count":1,"hv":1,"mp":0,"y0":2016,"y1":2016,"sp":[[16,1,1,0,2016,2016]]}},{"type":"Feature","geometry":{"type":"Polygon","coordinates":[[[-93.05791,34.50889],[-93.05647,34.5103],[-93.05725,34.51209],[-93.05946,34.51248],[-93.0609,34.51108],[-93.06012,34.50928],[-93.05791,34.50889]]]},"properties":{"cell":"89444b02b6fffff","res":9,"coarsened":false,"count":3,"hv":3,"mp":0,"y0":2017,"y1":2023,"sp":[[17,1,1,0,2017,2017],[9,1,1,0,2023,2023],[53,1,1,0,2023,2023]]}},{"type":"Feature","geometry":{"type":"Polygon","coordinates":[[[-93.05725,34.51209],[-93.05581,34.51349],[-93.05659,34.51528],[-93.05881,34.51567],[-93.06024,34.51427],[-93.05946,34.51248],[-93.05725,34.51209]]]},"properties":{"cell":"89444b00dd7ffff","res":9,"coarsened":false,"count":12,"hv":12,"mp":0,"y0":2017,"y1":2026,"sp":[[18,2,2,0,2017,2023],[16,2,2,0,2022,2024],[22,1,1,0,2018,2018],[30,1,1,0,2022,2022],[46,1,1,0,2022,2022],[39,1,1,0,2023,2023],[14,1,1,0,2023,2023],[0,1,1,0,2024,2024],[64,1,1,0,2026,2026],[74,1,1,0,2026,2026]]}},{"type":"Feature","geometry":{"type":"Polygon","coordinates":[[[-93.06886,34.50586],[-93.06742,34.50726],[-93.0682,34.50905],[-93.07042,34.50944],[-93.07185,34.50804],[-93.07108,34.50625],[-93.06886,34.50586]]]},"properties":{"cell":"89444b02b23ffff","res":9,"coarsened":false,"count":15,"hv":15,"mp":0,"y0":2017,"y1":2026,"sp":[[18,5,5,0,2017,2026],[1,1,1,0,2018,2018],[20,1,1,0,2018,2018],[54,1,1,0,2023,2023],[55,1,1,0,2023,2023],[19,1,1,0,2023,2023],[56,1,1,0,2023,2023],[39,1,1,0,2023,2023],[53,1,1,0,2024,2024],[27,1,1,0,2023,2023],[9,1,1,0,2024,2024]]}},{"type":"Feature","geometry":{"type":"Polygon","coordinates":[[[-93.08646,34.50399],[-93.08502,34.5054],[-93.0858,34.50719],[-93.08802,34.50758],[-93.08946,34.50617],[-93.08868,34.50438],[-93.08646,34.50399]]]},"properties":{"cell":"89444b0769bffff","res":9,"coarsened":false,"count":1,"hv":1,"mp":0,"y0":2017,"y1":2017,"sp":[[19,1,1,0,2017,2017]]}},{"type":"Feature","geometry":{"type":"Polygon","coordinates":[[[-93.09011,34.50298],[-93.08868,34.50438],[-93.08946,34.50617],[-93.09167,34.50656],[-93.09311,34.50516],[-93.09233,34.50337],[-93.09011,34.50298]]]},"properties":{"cell":"89444b07693ffff","res":9,"coarsened":false,"count":3,"hv":3,"mp":0,"y0":2017,"y1":2023,"sp":[[20,1,1,0,2017,2017],[38,1,1,0,2023,2023],[40,1,1,0,2023,2023]]}},{"type":"Feature","geometry":{"type":"Polygon","coordinates":[[[-93.08749,34.51575],[-93.08605,34.51715],[-93.08683,34.51894],[-93.08904,34.51933],[-93.09048,34.51793],[-93.0897,34.51614],[-93.08749,34.51575]]]},"properties":{"cell":"89444b07607ffff","res":9,"coarsened":false,"count":1,"hv":1,"mp":0,"y0":2017,"y1":2017,"sp":[[19,1,1,0,2017,2017]]}},{"type":"Feature","geometry":{"type":"Polygon","coordinates":[[[-93.07653,34.51878],[-93.07509,34.52019],[-93.07587,34.52198],[-93.07809,34.52237],[-93.07952,34.52096],[-93.07875,34.51917],[-93.07653,34.51878]]]},"properties":{"cell":"89444b0767bffff","res":9,"coarsened":false,"count":1,"hv":1,"mp":0,"y0":2017,"y1":2017,"sp":[[18,1,1,0,2017,2017]]}},{"type":"Feature","geometry":{"type":"Polygon","coordinates":[[[-93.04037,34.54384],[-93.03894,34.54524],[-93.03971,34.54703],[-93.04193,34.54742],[-93.04337,34.54602],[-93.04259,34.54423],[-93.04037,34.54384]]]},"properties":{"cell":"89444b0094bffff","res":9,"coarsened":false,"count":2,"hv":2,"mp":0,"y0":2017,"y1":2021,"sp":[[21,1,1,0,2017,2017],[42,1,1,0,2021,2021]]}},{"type":"Feature","geometry":{"type":"Polygon","coordinates":[[[-93.06222,34.50469],[-93.06078,34.50609],[-93.06156,34.50788],[-93.06377,34.50827],[-93.06521,34.50687],[-93.06443,34.50508],[-93.06222,34.50469]]]},"properties":{"cell":"89444b02b77ffff","res":9,"coarsened":false,"count":1,"hv":1,"mp":0,"y0":2018,"y1":2018,"sp":[[18,1,1,0,2018,2018]]}},{"type":"Feature","geometry":{"type":"Polygon","coordinates":[[[-93.04995,34.51411],[-93.04851,34.51551],[-93.04929,34.5173],[-93.0515,34.51769],[-93.05294,34.51629],[-93.05216,34.5145],[-93.04995,34.51411]]]},"properties":{"cell":"89444b00dcbffff","res":9,"coarsened":false,"count":52,"hv":52,"mp":0,"y0":2018,"y1":2026,"sp":[[20,9,9,0,2022,2026],[9,5,5,0,2019,2026],[10,5,5,0,2023,2026],[0,3,3,0,2021,2025],[18,3,3,0,2021,2025],[13,3,3,0,2023,2023],[60,3,3,0,2024,2026],[19,2,2,0,2018,2024],[28,2,2,0,2019,2025],[26,2,2,0,2022,2023],[15,2,2,0,2023,2024],[37,1,1,0,2021,2021],[3,1,1,0,2022,2022],[12,1,1,0,2023,2023],[24,1,1,0,2023,2023],[11,1,1,0,2023,2023],[25,1,1,0,2024,2024],[38,1,1,0,2024,2024],[17,1,1,0,2025,2025],[2,1,1,0,2025,2025],[73,1,1,0,2026,2026],[22,1,1,0,2026,2026],[44,1,1,0,2026,2026],[1,1,1,0,2025,2025]]}},{"type":"Feature","geometry":{"type":"Polygon","coordinates":[[[-93.06521,34.50687],[-93.06377,34.50827],[-93.06455,34.51006],[-93.06677,34.51045],[-93.0682,34.50905],[-93.06742,34.50726],[-93.06521,34.50687]]]},"properties":{"cell":"89444b02b2bffff","res":9,"coarsened":false,"count":6,"hv":6,"mp":0,"y0":2018,"y1":2026,"sp":[[18,2,2,0,2023,2026],[20,1,1,0,2018,2018],[2,1,1,0,2021,2021],[0,1,1,0,2024,2024],[14,1,1,0,2024,2024]]}},{"type":"Feature","geometry":{"type":"Polygon","coordinates":[[[-93.04629,34.51512],[-93.04486,34.51652],[-93.04564,34.51831],[-93.04785,34.5187],[-93.04929,34.5173],[-93.04851,34.51551],[-93.04629,34.51512]]]},"properties":{"cell":"89444b00c27ffff","res":9,"coarsened":false,"count":50,"hv":50,"mp":0,"y0":2017,"y1":2026,"sp":[[0,3,3,0,2020,2024],[3,3,3,0,2020,2021],[9,3,3,0,2023,2024],[13,3,3,0,2017,2025],[26,2,2,0,2019,2024],[19,2,2,0,2019,2019],[10,2,2,0,2019,2022],[20,2,2,0,2019,2022],[34,2,2,0,2020,2024],[36,2,2,0,2021,2025],[5,2,2,0,2021,2026],[39,2,2,0,2021,2025],[18,2,2,0,2022,2026],[48,2,2,0,2023,2023],[15,2,2,0,2025,2026],[72,2,2,0,2025,2025],[50,2,2,0,2025,2025],[24,1,1,0,2019,2019],[35,1,1,0,2020,2020],[6,1,1,0,2020,2020],[11,1,1,0,2021,2021],[38,1,1,0,2021,2021],[40,1,1,0,2021,2021],[41,1,1,0,2021,2021],[8,1,1,0,2022,2022],[17,1,1,0,2022,2022],[22,1,1,0,2023,2023],[57,1,1,0,2024,2024],[67,1,1,0,2024,2024]]}},{"type":"Feature","geometry":{"type":"Polygon","coordinates":[[[-93.03702,34.52671],[-93.03558,34.52811],[-93.03636,34.5299],[-93.03857,34.53029],[-93.04001,34.52889],[-93.03923,34.5271],[-93.03702,34.52671]]]},"properties":{"cell":"89444b00817ffff","res":9,"coarsened":false,"count":14,"hv":14,"mp":0,"y0":2019,"y1":2026,"sp":[[18,3,3,0,2024,2026],[21,2,2,0,2023,2026],[26,2,2,0,2025,2026],[14,2,2,0,2024,2024],[25,1,1,0,2019,2019],[37,1,1,0,2023,2023],[57,1,1,0,2023,2023],[20,1,1,0,2025,2025],[75,1,1,0,2026,2026]]}},{"type":"Feature","geometry":{"type":"Polygon","coordinates":[[[-93.04564,34.51831],[-93.0442,34.51971],[-93.04498,34.5215],[-93.04719,34.52189],[-93.04863,34.52049],[-93.04785,34.5187],[-93.04564,34.51831]]]},"properties":{"cell":"89444b00d5bffff","res":9,"coarsened":false,"count":10,"hv":10,"mp":0,"y0":2019,"y1":2026,"sp":[[27,1,1,0,2019,2019],[5,1,1,0,2023,2023],[26,1,1,0,2024,2024],[42,1,1,0,2024,2024],[39,1,1,0,2025,2025],[0,1,1,0,2025,2025],[17,1,1,0,2025,2025],[8,1,1,0,2025,2025],[1,1,1,0,2025,2025],[21,1,1,0,2026,2026]]}},{"type":"Feature","geometry":{"type":"Polygon","coordinates":[[[-93.03402,34.52453],[-93.03259,34.52593],[-93.03337,34.52772],[-93.03558,34.52811],[-93.03702,34.52671],[-93.03624,34.52492],[-93.03402,34.52453]]]},"properties":{"cell":"89444b00813ffff","res":9,"coarsened":false,"count":15,"hv":15,"mp":0,"y0":2019,"y1":2026,"sp":[[9,4,4,0,2019,2026],[22,2,2,0,2021,2026],[2,2,2,0,2022,2024],[20,2,2,0,2025,2025],[30,1,1,0,2020,2020],[3,1,1,0,2024,2024],[1,1,1,0,2024,2024],[71,1,1,0,2025,2025],[79,1,1,0,2024,2024]]}},{"type":"Feature","geometry":{"type":"Polygon","coordinates":[[[-93.0536,34.5131],[-93.05216,34.5145],[-93.05294,34.51629],[-93.05515,34.51668],[-93.05659,34.51528],[-93.05581,34.51349],[-93.0536,34.5131]]]},"properties":{"cell":"89444b00dc3ffff","res":9,"coarsened":false,"count":70,"hv":70,"mp":0,"y0":2019,"y1":2026,"sp":[[0,8,8,0,2021,2026],[9,6,6,0,2019,2026],[33,6,6,0,2022,2023],[22,6,6,0,2025,2026],[28,5,5,0,2019,2024],[20,4,4,0,2020,2025],[2,4,4,0,2022,2022],[10,3,3,0,2021,2024],[13,3,3,0,2025,2025],[44,2,2,0,2021,2022],[16,2,2,0,2022,2022],[26,2,2,0,2025,2026],[37,2,2,0,2025,2025],[15,1,1,0,2021,2021],[45,1,1,0,2022,2022],[48,1,1,0,2023,2023],[4,1,1,0,2023,2023],[11,1,1,0,2024,2024],[61,1,1,0,2024,2024],[1,1,1,0,2024,2024],[63,1,1,0,2024,2024],[18,1,1,0,2026,2026],[47,1,1,0,2025,2025],[40,1,1,0,2025,2025],[68,1,1,0,2025,2025],[49,1,1,0,2025,2025],[39,1,1,0,2025,2025],[5,1,1,0,2025,2025],[46,1,1,0,2025,2025],[52,1,1,0,2023,2023]]}},{"type":"Feature","geometry":{"type":"Polygon","coordinates":[[[-93.03768,34.52352],[-93.03624,34.52492],[-93.03702,34.52671],[-93.03923,34.5271],[-93.04067,34.5257],[-93.03989,34.52391],[-93.03768,34.52352]]]},"properties":{"cell":"89444b0088fffff","res":9,"coarsened":false,"count":49,"hv":49,"mp":0,"y0":2019,"y1":2026,"sp":[[9,4,4,0,2023,2025],[26,4,4,0,2023,2024],[20,4,4,0,2024,2026],[19,3,3,0,2019,2026],[1,3,3,0,2019,2024],[5,3,3,0,2021,2024],[51,3,3,0,2023,2023],[65,3,3,0,2024,2025],[10,3,3,0,2024,2025],[21,2,2,0,2023,2025],[48,2,2,0,2023,2023],[39,2,2,0,2025,2025],[36,1,1,0,2022,2022],[50,1,1,0,2023,2023],[22,1,1,0,2023,2023],[15,1,1,0,2023,2023],[32,1,1,0,2024,2024],[62,1,1,0,2024,2024],[6,1,1,0,2024,2024],[3,1,1,0,2024,2024],[34,1,1,0,2026,2026],[38,1,1,0,2026,2026],[40,1,1,0,2024,2024],[11,1,1,0,2024,2024],[25,1,1,0,2024,2024]]}},{"type":"Feature","geometry":{"type":"Polygon","coordinates":[[[-93.0284,34.53511],[-93.02696,34.53651],[-93.02774,34.5383],[-93.02995,34.53869],[-93.03139,34.53729],[-93.03061,34.5355],[-93.0284,34.53511]]]},"properties":{"cell":"89444b00863ffff","res":9,"coarsened":false,"count":3,"hv":3,"mp":0,"y0":2019,"y1":2026,"sp":[[26,1,1,0,2019,2019],[9,1,1,0,2022,2022],[65,1,1,0,2026,2026]]}},{"type":"Feature","geometry":{"type":"Polygon","coordinates":[[[-93.04929,34.5173],[-93.04785,34.5187],[-93.04863,34.52049],[-93.05085,34.52088],[-93.05228,34.51948],[-93.0515,34.51769],[-93.04929,34.5173]]]},"properties":{"cell":"89444b00d53ffff","res":9,"coarsened":false,"count":9,"hv":9,"mp":0,"y0":2019,"y1":2025,"sp":[[9,3,3,0,2019,2024],[28,1,1,0,2019,2019],[20,1,1,0,2023,2023],[3,1,1,0,2023,2023],[17,1,1,0,2025,2025],[25,1,1,0,2024,2024],[5,1,1,0,2024,2024]]}},{"type":"Feature","geometry":{"type":"Polygon","coordinates":[[[-93.07551,34.50703],[-93.07407,34.50843],[-93.07485,34.51022],[-93.07706,34.51061],[-93.0785,34.50921],[-93.07772,34.50742],[-93.07551,34.50703]]]},"properties":{"cell":"89444b076cbffff","res":9,"coarsened":false,"count":1,"hv":1,"mp":0,"y0":2020,"y1":2020,"sp":[[29,1,1,0,2020,2020]]}},{"type":"Feature","geometry":{"type":"Polygon","coordinates":[[[-93.04133,34.52251],[-93.03989,34.52391],[-93.04067,34.5257],[-93.04288,34.52609],[-93.04432,34.52469],[-93.04354,34.5229],[-93.04133,34.52251]]]},"properties":{"cell":"89444b00887ffff","res":9,"coarsened":false,"count":12,"hv":12,"mp":0,"y0":2020,"y1":2026,"sp":[[18,3,3,0,2020,2023],[26,2,2,0,2023,2026],[39,2,2,0,2023,2024],[21,1,1,0,2021,2021],[14,1,1,0,2021,2021],[3,1,1,0,2022,2022],[45,1,1,0,2023,2023],[19,1,1,0,2025,2025]]}},{"type":"Feature","geometry":{"type":"Polygon","coordinates":[[[-93.0682,34.50905],[-93.06677,34.51045],[-93.06755,34.51224],[-93.06976,34.51263],[-93.0712,34.51123],[-93.07042,34.50944],[-93.0682,34.50905]]]},"properties":{"cell":"89444b02b2fffff","res":9,"coarsened":false,"count":2,"hv":2,"mp":0,"y0":2020,"y1":2023,"sp":[[31,1,1,0,2020,2020],[18,1,1,0,2023,2023]]}},{"type":"Feature","geometry":{"type":"Polygon","coordinates":[[[-93.07587,34.52198],[-93.07444,34.52338],[-93.07522,34.52517],[-93.07743,34.52556],[-93.07887,34.52416],[-93.07809,34.52237],[-93.07587,34.52198]]]},"properties":{"cell":"89444b0766bffff","res":9,"coarsened":false,"count":2,"hv":2,"mp":0,"y0":2020,"y1":2020,"sp":[[26,1,1,0,2020,2020],[18,1,1,0,2020,2020]]}},{"type":"Feature","geometry":{"type":"Polygon","coordinates":[[[-93.03468,34.52134],[-93.03325,34.52274],[-93.03402,34.52453],[-93.03624,34.52492],[-93.03768,34.52352],[-93.0369,34.52173],[-93.03468,34.52134]]]},"properties":{"cell":"89444b0088bffff","res":9,"coarsened":false,"count":13,"hv":13,"mp":0,"y0":2018,"y1":2026,"sp":[[39,2,2,0,2022,2022],[32,1,1,0,2018,2018],[9,1,1,0,2022,2022],[34,1,1,0,2022,2022],[19,1,1,0,2022,2022],[22,1,1,0,2023,2023],[20,1,1,0,2024,2024],[65,1,1,0,2025,2025],[60,1,1,0,2025,2025],[38,1,1,0,2025,2025],[11,1,1,0,2026,2026],[1,1,1,0,2026,2026]]}},{"type":"Feature","geometry":{"type":"Polygon","coordinates":[[[-93.05425,34.50991],[-93.05282,34.51131],[-93.0536,34.5131],[-93.05581,34.51349],[-93.05725,34.51209],[-93.05647,34.5103],[-93.05425,34.50991]]]},"properties":{"cell":"89444b00dd3ffff","res":9,"coarsened":false,"count":11,"hv":11,"mp":0,"y0":2020,"y1":2025,"sp":[[13,3,3,0,2023,2024],[28,3,3,0,2023,2025],[33,1,1,0,2020,2020],[24,1,1,0,2022,2022],[45,1,1,0,2022,2022],[0,1,1,0,2024,2024],[29,1,1,0,2024,2024]]}},{"type":"Feature","geometry":{"type":"Polygon","coordinates":[[[-93.05228,34.51948],[-93.05085,34.52088],[-93.05162,34.52267],[-93.05384,34.52306],[-93.05528,34.52166],[-93.0545,34.51987],[-93.05228,34.51948]]]},"properties":{"cell":"89444b00d57ffff","res":9,"coarsened":false,"count":1,"hv":1,"mp":0,"y0":2021,"y1":2021,"sp":[[10,1,1,0,2021,2021]]}},{"type":"Feature","geometry":{"type":"Polygon","coordinates":[[[-93.05133,34.54081],[-93.04989,34.54221],[-93.05067,34.544],[-93.05289,34.54439],[-93.05432,34.54299],[-93.05354,34.5412],[-93.05133,34.54081]]]},"properties":{"cell":"89444b0091bffff","res":9,"coarsened":false,"count":1,"hv":1,"mp":0,"y0":2021,"y1":2021,"sp":[[25,1,1,0,2021,2021]]}},{"type":"Feature","geometry":{"type":"Polygon","coordinates":[[[-93.09545,34.51053],[-93.09401,34.51194],[-93.09479,34.51373],[-93.09701,34.51411],[-93.09844,34.51271],[-93.09766,34.51092],[-93.09545,34.51053]]]},"properties":{"cell":"89444b076b3ffff","res":9,"coarsened":false,"count":5,"hv":5,"mp":0,"y0":2021,"y1":2025,"sp":[[5,1,1,0,2021,2021],[37,1,1,0,2023,2023],[39,1,1,0,2023,2023],[18,1,1,0,2023,2023],[62,1,1,0,2025,2025]]}},{"type":"Feature","geometry":{"type":"Polygon","coordinates":[[[-93.06126,34.52602],[-93.05983,34.52742],[-93.06061,34.52921],[-93.06282,34.5296],[-93.06426,34.5282],[-93.06348,34.52641],[-93.06126,34.52602]]]},"properties":{"cell":"89444b00d3bffff","res":9,"coarsened":false,"count":4,"hv":4,"mp":0,"y0":2021,"y1":2024,"sp":[[3,1,1,0,2021,2021],[5,1,1,0,2021,2021],[18,1,1,0,2023,2023],[40,1,1,0,2024,2024]]}},{"type":"Feature","geometry":{"type":"Polygon","coordinates":[[[-93.04498,34.5215],[-93.04354,34.5229],[-93.04432,34.52469],[-93.04654,34.52508],[-93.04797,34.52368],[-93.04719,34.52189],[-93.04498,34.5215]]]},"properties":{"cell":"89444b00d4bffff","res":9,"coarsened":false,"count":5,"hv":5,"mp":0,"y0":2021,"y1":2026,"sp":[[43,1,1,0,2021,2021],[6,1,1,0,2022,2022],[70,1,1,0,2025,2025],[18,1,1,0,2026,2026],[45,1,1,0,2026,2026]]}},{"type":"Feature","geometry":{"type":"Polygon","coordinates":[[[-93.04863,34.52049],[-93.04719,34.52189],[-93.04797,34.52368],[-93.05019,34.52407],[-93.05162,34.52267],[-93.05085,34.52088],[-93.04863,34.52049]]]},"properties":{"cell":"89444b00d43ffff","res":9,"coarsened":false,"count":5,"hv":5,"mp":0,"y0":2021,"y1":2024,"sp":[[3,1,1,0,2021,2021],[20,1,1,0,2022,2022],[36,1,1,0,2022,2022],[5,1,1,0,2023,2023],[8,1,1,0,2024,2024]]}},{"type":"Feature","geometry":{"type":"Polygon","coordinates":[[[-93.06755,34.51224],[-93.06611,34.51365],[-93.06689,34.51544],[-93.0691,34.51583],[-93.07054,34.51442],[-93.06976,34.51263],[-93.06755,34.51224]]]},"properties":{"cell":"89444b00d97ffff","res":9,"coarsened":false,"count":5,"hv":5,"mp":0,"y0":2021,"y1":2025,"sp":[[16,2,2,0,2021,2021],[18,1,1,0,2023,2023],[32,1,1,0,2024,2024],[17,1,1,0,2025,2025]]}},{"type":"Feature","geometry":{"type":"Polygon","coordinates":[[[-93.03833,34.52033],[-93.0369,34.52173],[-93.03768,34.52352],[-93.03989,34.52391],[-93.04133,34.52251],[-93.04055,34.52072],[-93.03833,34.52033]]]},"properties":{"cell":"89444b00883ffff","res":9,"coarsened":false,"count":6,"hv":6,"mp":0,"y0":2021,"y1":2024,"sp":[[20,1,1,0,2021,2021],[19,1,1,0,2024,2024],[42,1,1,0,2024,2024],[1,1,1,0,2024,2024],[66,1,1,0,2024,2024],[39,1,1,0,2024,2024]]}},{"type":"Feature","geometry":{"type":"Polygon","coordinates":[[[-93.0433,34.51294],[-93.04186,34.51434],[-93.04264,34.51613],[-93.04486,34.51652],[-93.04629,34.51512],[-93.04552,34.51333],[-93.0433,34.51294]]]},"properties":{"cell":"89444b00c23ffff","res":9,"coarsened":false,"count":2,"hv":2,"mp":0,"y0":2021,"y1":2025,"sp":[[19,1,1,0,2021,2021],[35,1,1,0,2025,2025]]}},{"type":"Feature","geometry":{"type":"Polygon","coordinates":[[[-93.04695,34.51193],[-93.04552,34.51333],[-93.04629,34.51512],[-93.04851,34.51551],[-93.04995,34.51411],[-93.04917,34.51232],[-93.04695,34.51193]]]},"properties":{"cell":"89444b00c37ffff","res":9,"coarsened":false,"count":3,"hv":3,"mp":0,"y0":2021,"y1":2025,"sp":[[9,1,1,0,2021,2021],[37,1,1,0,2021,2021],[13,1,1,0,2025,2025]]}},{"type":"Feature","geometry":{"type":"Polygon","coordinates":[[[-93.04067,34.5257],[-93.03923,34.5271],[-93.04001,34.52889],[-93.04223,34.52928],[-93.04366,34.52788],[-93.04288,34.52609],[-93.04067,34.5257]]]},"properties":{"cell":"89444b008bbffff","res":9,"coarsened":false,"count":10,"hv":10,"mp":0,"y0":2020,"y1":2025,"sp":[[20,2,2,0,2024,2025],[3,1,1,0,2020,2020],[37,1,1,0,2023,2023],[43,1,1,0,2023,2023],[50,1,1,0,2023,2023],[18,1,1,0,2024,2024],[26,1,1,0,2024,2024],[14,1,1,0,2025,2025],[15,1,1,0,2025,2025]]}},{"type":"Feature","geometry":{"type":"Polygon","coordinates":[[[-93.03169,34.51916],[-93.03025,34.52056],[-93.03103,34.52235],[-93.03325,34.52274],[-93.03468,34.52134],[-93.0339,34.51955],[-93.03169,34.51916]]]},"properties":{"cell":"89444b008d7ffff","res":9,"coarsened":false,"count":1,"hv":1,"mp":0,"y0":2022,"y1":2022,"sp":[[16,1,1,0,2022,2022]]}},{"type":"Feature","geometry":{"type":"Polygon","coordinates":[[[-93.06024,34.51427],[-93.05881,34.51567],[-93.05959,34.51746],[-93.0618,34.51785],[-93.06324,34.51645],[-93.06246,34.51466],[-93.06024,34.51427]]]},"properties":{"cell":"89444b00d8bffff","res":9,"coarsened":false,"count":2,"hv":2,"mp":0,"y0":2022,"y1":2022,"sp":[[9,2,2,0,2022,2022]]}},{"type":"Feature","geometry":{"type":"Polygon","coordinates":[[[-93.03373,34.54266],[-93.03229,34.54406],[-93.03307,34.54585],[-93.03528,34.54625],[-93.03672,34.54485],[-93.03594,34.54305],[-93.03373,34.54266]]]},"properties":{"cell":"89444b00b83ffff","res":9,"coarsened":false,"count":2,"hv":2,"mp":0,"y0":2023,"y1":2023,"sp":[[5,1,1,0,2023,2023],[8,1,1,0,2023,2023]]}},{"type":"Feature","geometry":{"type":"Polygon","coordinates":[[[-93.03672,34.54485],[-93.03528,34.54625],[-93.03606,34.54804],[-93.03828,34.54843],[-93.03971,34.54703],[-93.03894,34.54524],[-93.03672,34.54485]]]},"properties":{"cell":"89444b00b87ffff","res":9,"coarsened":false,"count":5,"hv":5,"mp":0,"y0":2023,"y1":2023,"sp":[[49,3,3,0,2023,2023],[35,1,1,0,2023,2023],[5,1,1,0,2023,2023]]}},{"type":"Feature","geometry":{"type":"Polygon","coordinates":[[[-93.07054,34.51442],[-93.0691,34.51583],[-93.06988,34.51762],[-93.0721,34.51801],[-93.07353,34.5166],[-93.07276,34.51481],[-93.07054,34.51442]]]},"properties":{"cell":"89444b0764bffff","res":9,"coarsened":false,"count":1,"hv":1,"mp":0,"y0":2023,"y1":2023,"sp":[[52,1,1,0,2023,2023]]}},{"type":"Feature","geometry":{"type":"Polygon","coordinates":[[[-93.06426,34.5282],[-93.06282,34.5296],[-93.0636,34.53139],[-93.06582,34.53178],[-93.06725,34.53038],[-93.06647,34.52859],[-93.06426,34.5282]]]},"properties":{"cell":"89444b00d23ffff","res":9,"coarsened":false,"count":4,"hv":4,"mp":0,"y0":2023,"y1":2023,"sp":[[11,1,1,0,2023,2023],[0,1,1,0,2023,2023],[3,1,1,0,2023,2023],[21,1,1,0,2023,2023]]}},{"type":"Feature","geometry":{"type":"Polygon","coordinates":[[[-93.06156,34.50788],[-93.06012,34.50928],[-93.0609,34.51108],[-93.06312,34.51146],[-93.06455,34.51006],[-93.06377,34.50827],[-93.06156,34.50788]]]},"properties":{"cell":"89444b02b67ffff","res":9,"coarsened":false,"count":3,"hv":3,"mp":0,"y0":2023,"y1":2024,"sp":[[1,1,1,0,2023,2023],[26,1,1,0,2023,2023],[16,1,1,0,2024,2024]]}},{"type":"Feature","geometry":{"type":"Polygon","coordinates":[[[-93.07251,34.50485],[-93.07108,34.50625],[-93.07185,34.50804],[-93.07407,34.50843],[-93.07551,34.50703],[-93.07473,34.50524],[-93.07251,34.50485]]]},"properties":{"cell":"89444b02b37ffff","res":9,"coarsened":false,"count":5,"hv":5,"mp":0,"y0":2023,"y1":2026,"sp":[[26,1,1,0,2023,2023],[43,1,1,0,2023,2023],[11,1,1,0,2024,2024],[7,1,1,0,2025,2025],[64,1,1,0,2026,2026]]}},{"type":"Feature","geometry":{"type":"Polygon","coordinates":[[[-93.07981,34.50283],[-93.07838,34.50423],[-93.07916,34.50602],[-93.08137,34.50641],[-93.08281,34.50501],[-93.08203,34.50322],[-93.07981,34.50283]]]},"properties":{"cell":"89444b076d3ffff","res":9,"coarsened":false,"count":1,"hv":1,"mp":0,"y0":2023,"y1":2023,"sp":[[25,1,1,0,2023,2023]]}},{"type":"Feature","geometry":{"type":"Polygon","coordinates":[[[-93.08347,34.50181],[-93.08203,34.50322],[-93.08281,34.50501],[-93.08502,34.5054],[-93.08646,34.50399],[-93.08568,34.5022],[-93.08347,34.50181]]]},"properties":{"cell":"89444b0296fffff","res":9,"coarsened":false,"count":1,"hv":1,"mp":0,"y0":2023,"y1":2023,"sp":[[19,1,1,0,2023,2023]]}},{"type":"Feature","geometry":{"type":"Polygon","coordinates":[[[-93.0991,34.50952],[-93.09766,34.51092],[-93.09844,34.51271],[-93.10066,34.5131],[-93.10209,34.5117],[-93.10131,34.50991],[-93.0991,34.50952]]]},"properties":{"cell":"89444b0744fffff","res":9,"coarsened":false,"count":1,"hv":1,"mp":0,"y0":2023,"y1":2023,"sp":[[27,1,1,0,2023,2023]]}},{"type":"Feature","geometry":{"type":"Polygon","coordinates":[[[-93.09179,34.51155],[-93.09036,34.51295],[-93.09114,34.51474],[-93.09335,34.51513],[-93.09479,34.51373],[-93.09401,34.51194],[-93.09179,34.51155]]]},"properties":{"cell":"89444b076bbffff","res":9,"coarsened":false,"count":1,"hv":1,"mp":0,"y0":2023,"y1":2023,"sp":[[39,1,1,0,2023,2023]]}},{"type":"Feature","geometry":{"type":"Polygon","coordinates":[[[-93.08383,34.51676],[-93.0824,34.51816],[-93.08318,34.51995],[-93.08539,34.52034],[-93.08683,34.51894],[-93.08605,34.51715],[-93.08383,34.51676]]]},"properties":{"cell":"89444b0760fffff","res":9,"coarsened":false,"count":2,"hv":2,"mp":0,"y0":2023,"y1":2023,"sp":[[34,1,1,0,2023,2023],[39,1,1,0,2023,2023]]}},{"type":"Feature","geometry":{"type":"Polygon","coordinates":[[[-93.08018,34.51777],[-93.07875,34.51917],[-93.07952,34.52096],[-93.08174,34.52135],[-93.08318,34.51995],[-93.0824,34.51816],[-93.08018,34.51777]]]},"properties":{"cell":"89444b07673ffff","res":9,"coarsened":false,"count":1,"hv":1,"mp":0,"y0":2023,"y1":2023,"sp":[[26,1,1,0,2023,2023]]}},{"type":"Feature","geometry":{"type":"Polygon","coordinates":[[[-93.06857,34.524],[-93.06713,34.5254],[-93.06791,34.52719],[-93.07013,34.52758],[-93.07156,34.52618],[-93.07078,34.52439],[-93.06857,34.524]]]},"properties":{"cell":"89444b00dafffff","res":9,"coarsened":false,"count":4,"hv":4,"mp":0,"y0":2023,"y1":2026,"sp":[[38,1,1,0,2023,2023],[18,1,1,0,2024,2024],[15,1,1,0,2026,2026],[76,1,1,0,2026,2026]]}},{"type":"Feature","geometry":{"type":"Polygon","coordinates":[[[-93.03504,34.53628],[-93.03361,34.53768],[-93.03438,34.53947],[-93.0366,34.53986],[-93.03804,34.53846],[-93.03726,34.53667],[-93.03504,34.53628]]]},"properties":{"cell":"89444b0082bffff","res":9,"coarsened":false,"count":9,"hv":9,"mp":0,"y0":2023,"y1":2025,"sp":[[58,2,2,0,2024,2024],[12,2,2,0,2024,2024],[69,2,2,0,2025,2025],[32,1,1,0,2023,2023],[15,1,1,0,2024,2024],[45,1,1,0,2024,2024]]}},{"type":"Feature","geometry":{"type":"Polygon","coordinates":[[[-93.05294,34.51629],[-93.0515,34.51769],[-93.05228,34.51948],[-93.0545,34.51987],[-93.05593,34.51847],[-93.05515,34.51668],[-93.05294,34.51629]]]},"properties":{"cell":"89444b00dcfffff","res":9,"coarsened":false,"count":1,"hv":1,"mp":0,"y0":2024,"y1":2024,"sp":[[25,1,1,0,2024,2024]]}},{"type":"Feature","geometry":{"type":"Polygon","coordinates":[[[-93.07616,34.50384],[-93.07473,34.50524],[-93.07551,34.50703],[-93.07772,34.50742],[-93.07916,34.50602],[-93.07838,34.50423],[-93.07616,34.50384]]]},"properties":{"cell":"89444b076dbffff","res":9,"coarsened":false,"count":1,"hv":1,"mp":0,"y0":2024,"y1":2024,"sp":[[18,1,1,0,2024,2024]]}},{"type":"Feature","geometry":{"type":"Polygon","coordinates":[[[-93.03139,34.53729],[-93.02995,34.53869],[-93.03073,34.54048],[-93.03295,34.54087],[-93.03438,34.53947],[-93.03361,34.53768],[-93.03139,34.53729]]]},"properties":{"cell":"89444b00867ffff","res":9,"coarsened":false,"count":1,"hv":1,"mp":0,"y0":2024,"y1":2024,"sp":[[20,1,1,0,2024,2024]]}},{"type":"Feature","geometry":{"type":"Polygon","coordinates":[[[-93.07222,34.52299],[-93.07078,34.52439],[-93.07156,34.52618],[-93.07378,34.52657],[-93.07522,34.52517],[-93.07444,34.52338],[-93.07222,34.52299]]]},"properties":{"cell":"89444b00da7ffff","res":9,"coarsened":false,"count":4,"hv":4,"mp":0,"y0":2024,"y1":2025,"sp":[[39,2,2,0,2024,2024],[25,1,1,0,2024,2024],[5,1,1,0,2025,2025]]}},{"type":"Feature","geometry":{"type":"Polygon","coordinates":[[[-93.0609,34.51108],[-93.05946,34.51248],[-93.06024,34.51427],[-93.06246,34.51466],[-93.06389,34.51326],[-93.06312,34.51146],[-93.0609,34.51108]]]},"properties":{"cell":"89444b00d9bffff","res":9,"coarsened":false,"count":5,"hv":5,"mp":0,"y0":2024,"y1":2026,"sp":[[18,4,4,0,2024,2026],[20,1,1,0,2025,2025]]}},{"type":"Feature","geometry":{"type":"Polygon","coordinates":[[[-93.03899,34.51714],[-93.03756,34.51854],[-93.03833,34.52033],[-93.04055,34.52072],[-93.04199,34.51932],[-93.04121,34.51753],[-93.03899,34.51714]]]},"properties":{"cell":"89444b00893ffff","res":9,"coarsened":false,"count":3,"hv":3,"mp":0,"y0":2024,"y1":2024,"sp":[[26,1,1,0,2024,2024],[63,1,1,0,2024,2024],[39,1,1,0,2024,2024]]}},{"type":"Feature","geometry":{"type":"Polygon","coordinates":[[[-93.04432,34.52469],[-93.04288,34.52609],[-93.04366,34.52788],[-93.04588,34.52827],[-93.04731,34.52687],[-93.04654,34.52508],[-93.04432,34.52469]]]},"properties":{"cell":"89444b008b3ffff","res":9,"coarsened":false,"count":1,"hv":1,"mp":0,"y0":2024,"y1":2024,"sp":[[18,1,1,0,2024,2024]]}},{"type":"Feature","geometry":{"type":"Polygon","coordinates":[[[-93.09479,34.51373],[-93.09335,34.51513],[-93.09413,34.51692],[-93.09635,34.51731],[-93.09779,34.51591],[-93.09701,34.51411],[-93.09479,34.51373]]]},"properties":{"cell":"89444b076a3ffff","res":9,"coarsened":false,"count":2,"hv":2,"mp":0,"y0":2024,"y1":2024,"sp":[[20,2,2,0,2024,2024]]}},{"type":"Feature","geometry":{"type":"Polygon","coordinates":[[[-93.10809,34.51606],[-93.10665,34.51746],[-93.10743,34.51925],[-93.10965,34.51964],[-93.11108,34.51824],[-93.1103,34.51645],[-93.10809,34.51606]]]},"properties":{"cell":"89444b07467ffff","res":9,"coarsened":false,"count":1,"hv":1,"mp":0,"y0":2024,"y1":2024,"sp":[[12,1,1,0,2024,2024]]}},{"type":"Feature","geometry":{"type":"Polygon","coordinates":[[[-93.08515,34.51038],[-93.08371,34.51178],[-93.08449,34.51357],[-93.08671,34.51396],[-93.08814,34.51256],[-93.08736,34.51077],[-93.08515,34.51038]]]},"properties":{"cell":"89444b07613ffff","res":9,"coarsened":false,"count":1,"hv":1,"mp":0,"y0":2025,"y1":2025,"sp":[[68,1,1,0,2025,2025]]}},{"type":"Feature","geometry":{"type":"Polygon","coordinates":[[[-93.09976,34.50633],[-93.09832,34.50773],[-93.0991,34.50952],[-93.10131,34.50991],[-93.10275,34.50851],[-93.10197,34.50672],[-93.09976,34.50633]]]},"properties":{"cell":"89444b07443ffff","res":9,"coarsened":false,"count":1,"hv":1,"mp":0,"y0":2025,"y1":2025,"sp":[[25,1,1,0,2025,2025]]}},{"type":"Feature","geometry":{"type":"Polygon","coordinates":[[[-93.0354,34.55123],[-93.03397,34.55263],[-93.03475,34.55442],[-93.03696,34.55481],[-93.0384,34.55341],[-93.03762,34.55162],[-93.0354,34.55123]]]},"properties":{"cell":"89444b00babffff","res":9,"coarsened":false,"count":1,"hv":1,"mp":0,"y0":2025,"y1":2025,"sp":[[39,1,1,0,2025,2025]]}},{"type":"Feature","geometry":{"type":"Polygon","coordinates":[[[-93.09742,34.50096],[-93.09598,34.50236],[-93.09676,34.50415],[-93.09898,34.50454],[-93.10041,34.50314],[-93.09963,34.50135],[-93.09742,34.50096]]]},"properties":{"cell":"89444b02927ffff","res":9,"coarsened":false,"count":1,"hv":1,"mp":0,"y0":2025,"y1":2025,"sp":[[18,1,1,0,2025,2025]]}},{"type":"Feature","geometry":{"type":"Polygon","coordinates":[[[-93.03636,34.5299],[-93.03492,34.5313],[-93.0357,34.53309],[-93.03792,34.53348],[-93.03935,34.53208],[-93.03857,34.53029],[-93.03636,34.5299]]]},"properties":{"cell":"89444b00807ffff","res":9,"coarsened":false,"count":3,"hv":3,"mp":0,"y0":2024,"y1":2026,"sp":[[75,1,1,0,2026,2026],[39,1,1,0,2024,2024],[27,1,1,0,2024,2024]]}},{"type":"Feature","geometry":{"type":"Polygon","coordinates":[[[-93.06455,34.51006],[-93.06312,34.51146],[-93.06389,34.51326],[-93.06611,34.51365],[-93.06755,34.51224],[-93.06677,34.51045],[-93.06455,34.51006]]]},"properties":{"cell":"89444b00d93ffff","res":9,"coarsened":false,"count":1,"hv":1,"mp":0,"y0":2026,"y1":2026,"sp":[[18,1,1,0,2026,2026]]}},{"type":"Feature","geometry":{"type":"Polygon","coordinates":[[[-93.05199,34.53761],[-93.05055,34.53902],[-93.05133,34.54081],[-93.05354,34.5412],[-93.05498,34.5398],[-93.0542,34.538],[-93.05199,34.53761]]]},"properties":{"cell":"89444b009c7ffff","res":9,"coarsened":false,"count":1,"hv":1,"mp":0,"y0":2026,"y1":2026,"sp":[[20,1,1,0,2026,2026]]}},{"type":"Feature","geometry":{"type":"Polygon","coordinates":[[[-93.08917,34.52431],[-93.08773,34.52571],[-93.08851,34.5275],[-93.09073,34.52789],[-93.09216,34.52649],[-93.09138,34.5247],[-93.08917,34.52431]]]},"properties":{"cell":"89444b0762fffff","res":9,"coarsened":false,"count":1,"hv":1,"mp":0,"y0":2025,"y1":2025,"sp":[[25,1,1,0,2025,2025]]}},{"type":"Feature","geometry":{"type":"Polygon","coordinates":[[[-93.05097,34.52586],[-93.04953,34.52726],[-93.05031,34.52905],[-93.05252,34.52944],[-93.05396,34.52804],[-93.05318,34.52625],[-93.05097,34.52586]]]},"properties":{"cell":"89444b00d7bffff","res":9,"coarsened":false,"count":1,"hv":1,"mp":0,"y0":2025,"y1":2025,"sp":[[72,1,1,0,2025,2025]]}},{"type":"Feature","geometry":{"type":"Polygon","coordinates":[[[-93.09245,34.50835],[-93.09102,34.50976],[-93.09179,34.51155],[-93.09401,34.51194],[-93.09545,34.51053],[-93.09467,34.50874],[-93.09245,34.50835]]]},"properties":{"cell":"89444b07687ffff","res":9,"coarsened":false,"count":1,"hv":1,"mp":0,"y0":2025,"y1":2025,"sp":[[77,1,1,0,2025,2025]]}},{"type":"Feature","geometry":{"type":"Polygon","coordinates":[[[-93.03965,34.51395],[-93.03821,34.51535],[-93.03899,34.51714],[-93.04121,34.51753],[-93.04264,34.51613],[-93.04186,34.51434],[-93.03965,34.51395]]]},"properties":{"cell":"89444b00c2bffff","res":9,"coarsened":false,"count":2,"hv":2,"mp":0,"y0":2024,"y1":2024,"sp":[[3,1,1,0,2024,2024],[0,1,1,0,2024,2024]]}},{"type":"Feature","geometry":{"type":"Polygon","coordinates":[[[-93.04761,34.50874],[-93.04617,34.51014],[-93.04695,34.51193],[-93.04917,34.51232],[-93.0506,34.51092],[-93.04983,34.50913],[-93.04761,34.50874]]]},"properties":{"cell":"89444b00cafffff","res":9,"coarsened":false,"count":7,"hv":7,"mp":0,"y0":2024,"y1":2024,"sp":[[80,1,1,0,2024,2024],[28,1,1,0,2024,2024],[11,1,1,0,2024,2024],[14,1,1,0,2024,2024],[0,1,1,0,2024,2024],[9,1,1,0,2024,2024],[81,1,1,0,2024,2024]]}},{"type":"Feature","geometry":{"type":"Polygon","coordinates":[[[-93.05126,34.50773],[-93.04983,34.50913],[-93.0506,34.51092],[-93.05282,34.51131],[-93.05425,34.50991],[-93.05348,34.50811],[-93.05126,34.50773]]]},"properties":{"cell":"89444b00ca7ffff","res":9,"coarsened":false,"count":1,"hv":1,"mp":0,"y0":2024,"y1":2024,"sp":[[15,1,1,0,2024,2024]]}},{"type":"Feature","geometry":{"type":"Polygon","coordinates":[[[-93.05258,34.50134],[-93.05114,34.50274],[-93.05192,34.50453],[-93.05413,34.50492],[-93.05557,34.50352],[-93.05479,34.50173],[-93.05258,34.50134]]]},"properties":{"cell":"89444b02b4fffff","res":9,"coarsened":false,"count":25,"hv":25,"mp":0,"y0":null,"y1":null,"sp":[[82,2,2,0,null,null],[27,1,1,0,null,null],[0,1,1,0,null,null],[83,1,1,0,null,null],[11,1,1,0,null,null],[17,1,1,0,null,null],[84,1,1,0,null,null],[85,1,1,0,null,null],[86,1,1,0,null,null],[28,1,1,0,null,null],[71,1,1,0,null,null],[66,1,1,0,null,null],[68,1,1,0,null,null],[87,1,1,0,null,null],[88,1,1,0,null,null],[45,1,1,0,null,null],[42,1,1,0,null,null],[89,1,1,0,null,null],[90,1,1,0,null,null],[91,1,1,0,null,null],[92,1,1,0,null,null],[62,1,1,0,null,null],[22,1,1,0,null,null],[5,1,1,0,null,null]]}}],"park":"hot_springs","h3_res":9,"species_index":[{"n":"Cardinalis cardinalis","c":"Northern Cardinal","k":"Aves"},{"n":"Thryothorus ludovicianus","c":"Carolina Wren","k":"Aves"},{"n":"Zonotrichia albicollis","c":"White-throated Sparrow","k":"Aves"},{"n":"Baeolophus bicolor","c":"Tufted Titmouse","k":"Aves"},{"n":"Corthylio calendula","c":"Ruby-crowned Kinglet","k":"Aves"},{"n":"Poecile carolinensis","c":"Carolina Chickadee","k":"Aves"},{"n":"Regulus satrapa","c":"Golden-crowned Kinglet","k":"Aves"},{"n":"Setophaga coronata","c":"Yellow-rumped Warbler","k":"Aves"},{"n":"Junco hyemalis","c":"Dark-eyed Junco","k":"Aves"},{"n":"Turdus migratorius","c":"American Robin","k":"Aves"},{"n":"Sciurus carolinensis","c":"Eastern Gray Squirrel","k":"Mammalia"},{"n":"Cyanocitta cristata","c":"Blue Jay","k":"Aves"},{"n":"Sayornis phoebe","c":"Eastern Phoebe","k":"Aves"},{"n":"Mimus polyglottos","c":"Northern Mockingbird","k":"Aves"},{"n":"Corvus brachyrhynchos","c":"American Crow","k":"Aves"},{"n":"Cathartes aura","c":"Turkey Vulture","k":"Aves"},{"n":"Dasypus mexicanus","c":"Mexican Long-nosed Armadillo","k":"Mammalia"},{"n":"Dryocopus pileatus","c":"Pileated Woodpecker","k":"Aves"},{"n":"Odocoileus virginianus","c":"White-tailed Deer","k":"Mammalia"},{"n":"Vireo olivaceus","c":"Red-eyed Vireo","k":"Aves"},{"n":"Tamias striatus","c":"Eastern Chipmunk","k":"Mammalia"},{"n":"Passerina cyanea","c":"Indigo Bunting","k":"Aves"},{"n":"Toxostoma rufum","c":"Brown Thrasher","k":"Aves"},{"n":"Megascops asio","c":"Eastern Screech-Owl","k":"Aves"},{"n":"Colaptes auratus","c":"Northern Flicker","k":"Aves"},{"n":"Setophaga pinus","c":"Pine Warbler","k":"Aves"},{"n":"Piranga rubra","c":"Summer Tanager","k":"Aves"},{"n":"Zenaida macroura","c":"Mourning Dove","k":"Aves"},{"n":"Passer domesticus","c":"House Sparrow","k":"Aves"},{"n":"Sciurus niger","c":"Eastern Fox Squirrel","k":"Mammalia"},{"n":"Setophaga citrina","c":"Hooded Warbler","k":"Aves"},{"n":"Rattus norvegicus","c":"Brown Rat","k":"Mammalia"},{"n":"Parkesia motacilla","c":"Louisiana Waterthrush","k":"Aves"},{"n":"Marmota monax","c":"Groundhog","k":"Mammalia"},{"n":"Sitta carolinensis","c":"White-breasted Nuthatch","k":"Aves"},{"n":"Sitta canadensis","c":"Red-breasted Nuthatch","k":"Aves"},{"n":"Sphyrapicus varius","c":"Yellow-bellied Sapsucker","k":"Aves"},{"n":"Vireo griseus","c":"White-eyed Vireo","k":"Aves"},{"n":"Vireo flavifrons","c":"Yellow-throated Vireo","k":"Aves"},{"n":"Mniotilta varia","c":"Black-and-white Warbler","k":"Aves"},{"n":"Polioptila caerulea","c":"Blue-gray Gnatcatcher","k":"Aves"},{"n":"Blarina carolinensis","c":"Southern Short-tailed Shrew","k":"Mammalia"},{"n":"Dryobates pubescens","c":"Downy Woodpecker","k":"Aves"},{"n":"Piranga olivacea","c":"Scarlet Tanager","k":"Aves"},{"n":"Dumetella carolinensis","c":"Gray Catbird","k":"Aves"},{"n":"Melanerpes carolinus","c":"Red-bellied Woodpecker","k":"Aves"},{"n":"Archilochus colubris","c":"Ruby-throated Hummingbird","k":"Aves"},{"n":"Buteo jamaicensis","c":"Red-tailed Hawk","k":"Aves"},{"n":"Bombycilla cedrorum","c":"Cedar Waxwing","k":"Aves"},{"n":"Haemorhous purpureus","c":"Purple Finch","k":"Aves"},{"n":"Ictinia mississippiensis","c":"Mississippi Kite","k":"Aves"},{"n":"Leiothlypis peregrina","c":"Tennessee Warbler","k":"Aves"},{"n":"Ardea herodias","c":"Great Blue Heron","k":"Aves"},{"n":"Myiarchus crinitus","c":"Great Crested Flycatcher","k":"Aves"},{"n":"Setophaga castanea","c":"Bay-breasted Warbler","k":"Aves"},{"n":"Setophaga fusca","c":"Blackburnian Warbler","k":"Aves"},{"n":"Setophaga pensylvanica","c":"Chestnut-sided Warbler","k":"Aves"},{"n":"Coragyps atratus","c":"Black Vulture","k":"Aves"},{"n":"Branta canadensis","c":"Canada Goose","k":"Aves"},{"n":"Buteo platypterus","c":"Broad-winged Hawk","k":"Aves"},{"n":"Hylocichla mustelina","c":"Wood Thrush","k":"Aves"},{"n":"Setophaga magnolia","c":"Magnolia Warbler","k":"Aves"},{"n":"Coccyzus americanus","c":"Yellow-billed Cuckoo","k":"Aves"},{"n":"Ursus americanus","c":"American Black Bear","k":"Mammalia"},{"n":"Procyon lotor","c":"Common Raccoon","k":"Mammalia"},{"n":"Spizella passerina","c":"Chipping Sparrow","k":"Aves"},{"n":"Catharus guttatus","c":"Hermit Thrush","k":"Aves"},{"n":"Aeronautes saxatalis","c":"White-throated Swift","k":"Aves"},{"n":"Sialia sialis","c":"Eastern Bluebird","k":"Aves"},{"n":"Spatula discors","c":"Blue-winged Teal","k":"Aves"},{"n":"Setophaga virens","c":"Black-throated Green Warbler","k":"Aves"},{"n":"Molothrus ater","c":"Brown-headed Cowbird","k":"Aves"},{"n":"Columba livia","c":"Feral Pigeon","k":"Aves"},{"n":"Vulpes vulpes","c":"Red Fox","k":"Mammalia"},{"n":"Felis catus","c":"Domestic Cat","k":"Mammalia"},{"n":"Geococcyx californianus","c":"Greater Roadrunner","k":"Aves"},{"n":"Nyctanassa violacea","c":"Yellow-crowned Night Heron","k":"Aves"},{"n":"Melospiza melodia","c":"Song Sparrow","k":"Aves"},{"n":"Buteo lineatus","c":"Red-shouldered Hawk","k":"Aves"},{"n":"Setophaga americana","c":"Northern Parula","k":"Aves"},{"n":"Agelaius phoeniceus","c":"Red-winged Blackbird","k":"Aves"},{"n":"Sturnella magna","c":"Eastern Meadowlark","k":"Aves"},{"n":"Troglodytes aedon","c":"House Wren","k":"Aves"},{"n":"Tachycineta bicolor","c":"Tree Swallow","k":"Aves"},{"n":"Melanerpes erythrocephalus","c":"Red-headed Woodpecker","k":"Aves"},{"n":"Thryomanes bewickii","c":"Bewick's Wren","k":"Aves"},{"n":"Megaceryle alcyon","c":"Belted Kingfisher","k":"Aves"},{"n":"Anas platyrhynchos","c":"Mallard","k":"Aves"},{"n":"Helmitheros vermivorum","c":"Worm-eating Warbler","k":"Aves"},{"n":"Bartramia longicauda","c":"Upland Sandpiper","k":"Aves"},{"n":"Chordeiles minor","c":"Common Nighthawk","k":"Aves"},{"n":"Mareca americana","c":"American Wigeon","k":"Aves"},{"n":"Antrostomus Bonaparte, 1838","c":"Whip-poor-will","k":"Aves"}],"entry":["species_index","count","human_verified","model_predicted","first_year","last_year"],"suppressed":{"excluded":{},"coarsened":{}},"merged_names":{"Junco hyemalis hyemalis":"Junco hyemalis","Columba livia domestica":"Columba livia"}}