{"type":"Feature","geometry":{"type":"MultiPolygon","coordinates":[[[[-64.7942,18.3331],[-64.7949,18.3336],[-64.8024,18.3336],[-64.8024,18.3563],[-64.776,18.3675],[-64.7426,18.3772],[-64.6885,18.3647],[-64.6774,18.3508],[-64.6792,18.348],[-64.679,18.3477],[-64.6794,18.3471],[-64.6793,18.3467],[-64.6791,18.3467],[-64.6792,18.3464],[-64.6797,18.3465],[-64.6797,18.3462],[-64.6803,18.3467],[-64.6813,18.3468],[-64.6815,18.3466],[-64.6817,18.3458],[-64.6822,18.3455],[-64.6822,18.3453],[-64.6825,18.3451],[-64.683,18.3455],[-64.6829,18.3469],[-64.6834,18.3472],[-64.6845,18.3473],[-64.6856,18.3471],[-64.6865,18.3468],[-64.6869,18.3463],[-64.6871,18.3454],[-64.6875,18.3448],[-64.6877,18.3433],[-64.6904,18.3418],[-64.6908,18.3412],[-64.6908,18.3407],[-64.6906,18.3402],[-64.6906,18.34],[-64.691,18.3397],[-64.691,18.3394],[-64.6914,18.3395],[-64.6921,18.3391],[-64.6928,18.3398],[-64.6927,18.3403],[-64.6926,18.3409],[-64.6915,18.3417],[-64.6915,18.3424],[-64.692,18.3432],[-64.6925,18.3436],[-64.693,18.3437],[-64.693,18.3439],[-64.6936,18.3441],[-64.6938,18.3446],[-64.6926,18.3459],[-64.6925,18.3453],[-64.6919,18.3454],[-64.6909,18.3451],[-64.6907,18.3452],[-64.6907,18.3455],[-64.6911,18.3456],[-64.6914,18.3463],[-64.6913,18.3468],[-64.6904,18.3479],[-64.6892,18.3484],[-64.6889,18.3491],[-64.6886,18.3494],[-64.6884,18.3502],[-64.6886,18.3506],[-64.6889,18.3506],[-64.6892,18.35],[-64.6903,18.349],[-64.6912,18.3487],[-64.6927,18.3478],[-64.6931,18.3477],[-64.6934,18.3488],[-64.6933,18.3494],[-64.6927,18.3494],[-64.6919,18.3498],[-64.691,18.3498],[-64.6906,18.3505],[-64.6902,18.351],[-64.6903,18.3512],[-64.6912,18.3512],[-64.6912,18.3518],[-64.6914,18.352],[-64.6921,18.3518],[-64.6925,18.3515],[-64.6932,18.3514],[-64.6934,18.3515],[-64.6938,18.3524],[-64.6937,18.3527],[-64.6933,18.353],[-64.6929,18.3538],[-64.6913,18.3541],[-64.6912,18.355],[-64.6906,18.3559],[-64.6908,18.3563],[-64.6919,18.3563],[-64.6943,18.3558],[-64.6945,18.3555],[-64.6945,18.355],[-64.6949,18.3541],[-64.696,18.3541],[-64.6974,18.3538],[-64.6986,18.3531],[-64.6991,18.3511],[-64.6993,18.351],[-64.6998,18.3533],[-64.7004,18.3543],[-64.7003,18.3543],[-64.6999,18.354],[-64.6995,18.3544],[-64.6992,18.3552],[-64.6995,18.3556],[-64.7004,18.3553],[-64.7011,18.3555],[-64.7018,18.3554],[-64.7024,18.355],[-64.704,18.3541],[-64.7043,18.3531],[-64.7043,18.3521],[-64.7039,18.3518],[-64.7036,18.3512],[-64.7039,18.351],[-64.7039,18.3506],[-64.7045,18.3498],[-64.7045,18.3494],[-64.7052,18.3482],[-64.7052,18.3475],[-64.7045,18.3467],[-64.7034,18.3467],[-64.7032,18.346],[-64.7021,18.3455],[-64.702,18.345],[-64.7022,18.3446],[-64.702,18.3443],[-64.7022,18.3442],[-64.7025,18.3433],[-64.7025,18.3423],[-64.7028,18.3423],[-64.7038,18.3418],[-64.7052,18.3408],[-64.7052,18.3405],[-64.7055,18.3407],[-64.7057,18.3405],[-64.7058,18.3408],[-64.7063,18.3409],[-64.7068,18.3406],[-64.707,18.3402],[-64.7086,18.3412],[-64.7086,18.3423],[-64.7085,18.3432],[-64.7089,18.3436],[-64.7089,18.3442],[-64.7088,18.3443],[-64.7089,18.3446],[-64.7088,18.345],[-64.7091,18.3457],[-64.7096,18.3461],[-64.7091,18.3473],[-64.7084,18.3472],[-64.7079,18.3474],[-64.707,18.3482],[-64.7069,18.3484],[-64.7071,18.3482],[-64.7071,18.3486],[-64.7064,18.3514],[-64.7094,18.3538],[-64.7186,18.3519],[-64.7191,18.3533],[-64.7239,18.3524],[-64.7311,18.3503],[-64.7317,18.3459],[-64.729,18.3441],[-64.7212,18.3429],[-64.7163,18.3374],[-64.7143,18.3334],[-64.7096,18.3293],[-64.7057,18.3226],[-64.7059,18.3169],[-64.7055,18.3167],[-64.706,18.3159],[-64.706,18.3145],[-64.7068,18.3134],[-64.7069,18.3112],[-64.7026,18.3121],[-64.703,18.3127],[-64.7026,18.313],[-64.7022,18.3141],[-64.7014,18.3139],[-64.7011,18.3133],[-64.7006,18.313],[-64.7001,18.3129],[-64.6997,18.3131],[-64.6995,18.313],[-64.6995,18.3128],[-64.6993,18.3126],[-64.6996,18.3124],[-64.7001,18.3125],[-64.7007,18.3124],[-64.7017,18.3134],[-64.702,18.3128],[-64.7018,18.3126],[-64.7021,18.3122],[-64.6968,18.3113],[-64.6968,18.2966],[-64.7037,18.2966],[-64.7329,18.3113],[-64.7635,18.3113],[-64.7635,18.3188],[-64.7623,18.3186],[-64.7587,18.3198],[-64.76,18.3261],[-64.7608,18.327],[-64.7642,18.329],[-64.769,18.326],[-64.7694,18.3274],[-64.7684,18.3288],[-64.7681,18.3298],[-64.7707,18.3298],[-64.7711,18.3311],[-64.771,18.3314],[-64.7708,18.3317],[-64.7702,18.3318],[-64.7708,18.3328],[-64.7713,18.3328],[-64.7721,18.3318],[-64.7725,18.3321],[-64.7716,18.3334],[-64.7727,18.3336],[-64.7729,18.3343],[-64.7728,18.3347],[-64.7732,18.3347],[-64.7728,18.3348],[-64.7724,18.3354],[-64.7724,18.3361],[-64.7727,18.3368],[-64.7722,18.3373],[-64.7724,18.3379],[-64.7729,18.3377],[-64.7765,18.3375],[-64.7765,18.3368],[-64.7776,18.3365],[-64.7812,18.336],[-64.7843,18.3359],[-64.7845,18.336],[-64.7875,18.3364],[-64.7887,18.3332],[-64.7918,18.333],[-64.7942,18.3331]]]]},"properties":{"park":"virgin_islands","name":"Virgin Islands National Park","source":"iNaturalist place","place_id":95336,"source_url":"https://www.inaturalist.org/places/95336"}}