{"type":"Feature","geometry":{"type":"Polygon","coordinates":[[[-80.4213,25.145],[-80.4228,25.1268],[-80.4425,25.1287],[-80.4744,25.0818],[-80.5158,25.0582],[-80.5171,25.0272],[-80.5703,24.9933],[-80.8352,24.85],[-80.8872,24.8717],[-81.1617,25.1568],[-81.2049,25.2269],[-81.1759,25.333],[-81.1966,25.4373],[-81.2606,25.5675],[-81.3674,25.6915],[-81.518,25.8315],[-81.4844,25.8471],[-81.4559,25.8895],[-81.4053,25.8899],[-81.397,25.8326],[-81.3595,25.8329],[-81.3591,25.8629],[-81.2625,25.8619],[-81.2602,25.8039],[-81.2127,25.804],[-81.1803,25.759],[-81.1641,25.7592],[-81.1639,25.7294],[-81.1165,25.7299],[-81.1164,25.7152],[-81.1002,25.7153],[-81.0997,25.6859],[-81.0507,25.6501],[-81.0497,25.6127],[-80.8573,25.6158],[-80.857,25.7608],[-80.4982,25.7608],[-80.4987,25.669],[-80.5478,25.6407],[-80.5432,25.5866],[-80.5678,25.5796],[-80.5749,25.5496],[-80.5748,25.5058],[-80.5598,25.4948],[-80.5742,25.4627],[-80.5901,25.462],[-80.5903,25.4185],[-80.5741,25.4184],[-80.5748,25.2865],[-80.4447,25.2877],[-80.4309,25.2218],[-80.3887,25.182],[-80.4213,25.145]]]},"properties":{"park":"everglades","name":"Everglades National Park","source":"iNaturalist place","place_id":53957,"source_url":"https://www.inaturalist.org/places/53957"}}