{"type":"Feature","geometry":{"type":"MultiPolygon","coordinates":[[[[-78.4374,38.4354],[-78.4351,38.437],[-78.4342,38.4361],[-78.4329,38.4286],[-78.4338,38.4205],[-78.4375,38.4216],[-78.444,38.4179],[-78.4429,38.4075],[-78.4489,38.4091],[-78.451,38.4047],[-78.4518,38.4065],[-78.4569,38.4068],[-78.458,38.4011],[-78.4608,38.4],[-78.4598,38.3955],[-78.4632,38.3959],[-78.4663,38.3932],[-78.4691,38.3935],[-78.4721,38.3989],[-78.4751,38.3963],[-78.4743,38.3932],[-78.4788,38.3917],[-78.4808,38.3877],[-78.4853,38.3881],[-78.4887,38.3857],[-78.4994,38.3972],[-78.5018,38.3943],[-78.5036,38.3891],[-78.5015,38.3859],[-78.4975,38.3855],[-78.4938,38.3825],[-78.4928,38.376],[-78.5055,38.368],[-78.5025,38.3588],[-78.4981,38.3588],[-78.4958,38.3652],[-78.4863,38.3672],[-78.4798,38.3653],[-78.4803,38.3626],[-78.4769,38.3601],[-78.4929,38.355],[-78.4899,38.3534],[-78.4938,38.3498],[-78.5001,38.3453],[-78.5104,38.3421],[-78.5097,38.3406],[-78.5134,38.3385],[-78.5144,38.3294],[-78.5321,38.3312],[-78.5352,38.3342],[-78.5408,38.335],[-78.5458,38.3286],[-78.5539,38.3285],[-78.5548,38.3247],[-78.5593,38.3275],[-78.5624,38.3224],[-78.5729,38.3216],[-78.5765,38.323],[-78.5826,38.3207],[-78.5835,38.3182],[-78.5875,38.3153],[-78.5908,38.3189],[-78.5955,38.3141],[-78.5925,38.3097],[-78.5888,38.3114],[-78.5869,38.3103],[-78.5884,38.3057],[-78.5998,38.3027],[-78.6021,38.3033],[-78.602,38.3054],[-78.6094,38.3046],[-78.6063,38.2931],[-78.6131,38.2907],[-78.6134,38.2932],[-78.6149,38.2934],[-78.6181,38.2913],[-78.6217,38.2879],[-78.6237,38.281],[-78.6307,38.2784],[-78.6262,38.2765],[-78.6408,38.2744],[-78.6448,38.2764],[-78.6448,38.2781],[-78.6479,38.2783],[-78.6487,38.277],[-78.6499,38.2738],[-78.6483,38.2728],[-78.637,38.2706],[-78.6355,38.2684],[-78.625,38.2648],[-78.6346,38.2539],[-78.6361,38.2503],[-78.6337,38.248],[-78.6386,38.2408],[-78.6413,38.2402],[-78.6419,38.2423],[-78.6486,38.2439],[-78.6495,38.242],[-78.6515,38.242],[-78.654,38.2448],[-78.6562,38.2404],[-78.6625,38.2393],[-78.6614,38.2339],[-78.6768,38.2317],[-78.68,38.2332],[-78.6832,38.2305],[-78.6863,38.2226],[-78.6921,38.2202],[-78.6928,38.2183],[-78.6899,38.2169],[-78.6979,38.2064],[-78.699,38.1999],[-78.703,38.2001],[-78.7083,38.1973],[-78.705,38.1961],[-78.7109,38.1937],[-78.7134,38.1936],[-78.7148,38.1952],[-78.7112,38.1974],[-78.7146,38.1995],[-78.7137,38.2016],[-78.7156,38.2033],[-78.7109,38.2077],[-78.7108,38.2106],[-78.7123,38.2114],[-78.712,38.2194],[-78.7172,38.2236],[-78.726,38.2185],[-78.7254,38.2135],[-78.7219,38.2131],[-78.7207,38.2111],[-78.7268,38.2031],[-78.7272,38.2005],[-78.7354,38.202],[-78.7416,38.1877],[-78.7376,38.1845],[-78.7317,38.184],[-78.7317,38.1773],[-78.7351,38.1682],[-78.7367,38.1583],[-78.7367,38.1525],[-78.733,38.1499],[-78.738,38.1453],[-78.7397,38.1393],[-78.7478,38.14],[-78.7473,38.1434],[-78.757,38.1367],[-78.7573,38.135],[-78.7554,38.1341],[-78.7673,38.119],[-78.7593,38.1142],[-78.7579,38.1095],[-78.7556,38.1088],[-78.7597,38.1051],[-78.7699,38.1044],[-78.77,38.1027],[-78.7742,38.0996],[-78.7712,38.0959],[-78.7722,38.0954],[-78.7751,38.0949],[-78.7815,38.0971],[-78.7795,38.0947],[-78.7824,38.0907],[-78.7877,38.0889],[-78.7935,38.0816],[-78.8008,38.0781],[-78.7932,38.0741],[-78.7884,38.0694],[-78.7911,38.0664],[-78.7913,38.0624],[-78.7935,38.0614],[-78.8011,38.0626],[-78.8082,38.0571],[-78.8217,38.0613],[-78.8384,38.0519],[-78.8516,38.0409],[-78.843,38.0503],[-78.8283,38.058],[-78.8294,38.0627],[-78.8313,38.063],[-78.8301,38.0648],[-78.8362,38.067],[-78.8279,38.0667],[-78.8282,38.0631],[-78.8221,38.0679],[-78.8147,38.0697],[-78.8166,38.0749],[-78.8037,38.073],[-78.8009,38.0703],[-78.8171,38.0656],[-78.8165,38.064],[-78.8201,38.0621],[-78.8092,38.058],[-78.796,38.0662],[-78.793,38.063],[-78.7925,38.0664],[-78.7899,38.0686],[-78.7905,38.0704],[-78.8028,38.0772],[-78.7993,38.0803],[-78.8074,38.0801],[-78.8089,38.0822],[-78.8073,38.0836],[-78.802,38.0833],[-78.7963,38.0896],[-78.7903,38.0884],[-78.7886,38.0904],[-78.7837,38.0915],[-78.7829,38.0933],[-78.7834,38.095],[-78.786,38.0938],[-78.7931,38.096],[-78.7978,38.0942],[-78.8237,38.0999],[-78.829,38.1016],[-78.8332,38.1081],[-78.8285,38.108],[-78.8268,38.1121],[-78.8214,38.1174],[-78.8205,38.1275],[-78.8124,38.1382],[-78.8078,38.1375],[-78.7918,38.1551],[-78.8102,38.1572],[-78.8137,38.1676],[-78.7945,38.1906],[-78.8075,38.1983],[-78.7934,38.1993],[-78.7863,38.2226],[-78.7897,38.2269],[-78.7852,38.2288],[-78.7848,38.2326],[-78.7946,38.2379],[-78.7984,38.2308],[-78.8083,38.2303],[-78.8062,38.2345],[-78.8106,38.2358],[-78.811,38.2391],[-78.8069,38.2454],[-78.8107,38.2464],[-78.809,38.253],[-78.7895,38.2448],[-78.7846,38.2539],[-78.7843,38.2593],[-78.7874,38.26],[-78.786,38.263],[-78.776,38.2585],[-78.7725,38.2583],[-78.7683,38.2605],[-78.7655,38.2704],[-78.7572,38.2792],[-78.758,38.2808],[-78.7503,38.289],[-78.7506,38.2906],[-78.7441,38.2918],[-78.7349,38.2978],[-78.7376,38.3047],[-78.7316,38.3061],[-78.7309,38.313],[-78.729,38.3117],[-78.7251,38.3128],[-78.7174,38.3027],[-78.7097,38.306],[-78.7079,38.3078],[-78.7101,38.3121],[-78.7052,38.3133],[-78.712,38.3208],[-78.7103,38.3215],[-78.7084,38.3195],[-78.7044,38.3203],[-78.7023,38.3183],[-78.6964,38.3208],[-78.6951,38.3191],[-78.6731,38.3322],[-78.6609,38.3503],[-78.6526,38.3529],[-78.6523,38.3545],[-78.6545,38.3557],[-78.6513,38.3563],[-78.6427,38.3524],[-78.6401,38.3542],[-78.6388,38.356],[-78.6391,38.3621],[-78.6352,38.3627],[-78.6353,38.367],[-78.6272,38.3769],[-78.6239,38.3688],[-78.6209,38.3735],[-78.6113,38.3709],[-78.6028,38.3712],[-78.6236,38.3797],[-78.6223,38.3817],[-78.6097,38.388],[-78.6046,38.3935],[-78.5989,38.3948],[-78.5969,38.3795],[-78.5909,38.3649],[-78.5933,38.3625],[-78.6053,38.3572],[-78.6221,38.3593],[-78.6164,38.3461],[-78.6209,38.347],[-78.6239,38.3441],[-78.6311,38.3418],[-78.63,38.3356],[-78.627,38.3344],[-78.6334,38.328],[-78.6334,38.3184],[-78.6287,38.3165],[-78.6202,38.3181],[-78.6192,38.3195],[-78.6106,38.3195],[-78.6109,38.3275],[-78.6068,38.3273],[-78.6054,38.3252],[-78.6012,38.3293],[-78.5999,38.3358],[-78.5853,38.3363],[-78.5873,38.3383],[-78.5851,38.3445],[-78.5797,38.3417],[-78.58,38.3387],[-78.5758,38.3395],[-78.5742,38.3374],[-78.5589,38.3442],[-78.5709,38.3471],[-78.572,38.3488],[-78.5702,38.3557],[-78.5752,38.3557],[-78.5782,38.3584],[-78.5808,38.357],[-78.5852,38.3624],[-78.5813,38.3658],[-78.5769,38.3661],[-78.5788,38.3684],[-78.5776,38.3713],[-78.5739,38.3729],[-78.5711,38.3788],[-78.5506,38.3741],[-78.5471,38.3794],[-78.5479,38.3815],[-78.5374,38.3781],[-78.5306,38.3794],[-78.5283,38.3835],[-78.5329,38.3864],[-78.5306,38.3922],[-78.5398,38.3963],[-78.5338,38.4027],[-78.5344,38.4045],[-78.5316,38.4052],[-78.5281,38.4022],[-78.5235,38.4065],[-78.5297,38.4106],[-78.5275,38.4138],[-78.5306,38.4134],[-78.5349,38.41],[-78.5406,38.409],[-78.5483,38.4118],[-78.5552,38.4174],[-78.551,38.4208],[-78.5533,38.4226],[-78.5463,38.4256],[-78.5403,38.426],[-78.534,38.4355],[-78.5293,38.4362],[-78.5245,38.433],[-78.5195,38.4199],[-78.5122,38.4149],[-78.5047,38.4164],[-78.5014,38.4155],[-78.5005,38.4239],[-78.5033,38.4257],[-78.4991,38.4276],[-78.4994,38.4321],[-78.4949,38.4308],[-78.4929,38.4334],[-78.4945,38.4374],[-78.4938,38.4423],[-78.4982,38.4427],[-78.4969,38.4481],[-78.491,38.4454],[-78.4883,38.4484],[-78.4887,38.4502],[-78.4833,38.4519],[-78.4808,38.4565],[-78.4843,38.4597],[-78.4844,38.4628],[-78.4927,38.46],[-78.4978,38.4618],[-78.5017,38.4661],[-78.4976,38.4679],[-78.492,38.479],[-78.4872,38.477],[-78.4821,38.4784],[-78.4871,38.4833],[-78.4859,38.485],[-78.5008,38.4856],[-78.5005,38.4875],[-78.5052,38.4903],[-78.507,38.4952],[-78.5133,38.4943],[-78.5141,38.496],[-78.5249,38.4935],[-78.5283,38.4957],[-78.5321,38.4835],[-78.5368,38.4817],[-78.5392,38.4773],[-78.5459,38.4755],[-78.5499,38.4694],[-78.5503,38.4845],[-78.5619,38.5045],[-78.5685,38.5058],[-78.5695,38.5101],[-78.5684,38.513],[-78.578,38.5303],[-78.5773,38.5324],[-78.5713,38.5285],[-78.5686,38.529],[-78.5639,38.5236],[-78.5445,38.5188],[-78.5307,38.5122],[-78.5248,38.5112],[-78.5214,38.5073],[-78.5172,38.5087],[-78.5059,38.5069],[-78.5046,38.5083],[-78.4931,38.5006],[-78.4821,38.5024],[-78.4799,38.5042],[-78.4744,38.496],[-78.4652,38.4939],[-78.4624,38.4959],[-78.465,38.4977],[-78.4585,38.5089],[-78.4599,38.5138],[-78.464,38.5144],[-78.4698,38.5123],[-78.4737,38.515],[-78.473,38.5188],[-78.4691,38.5183],[-78.46,38.5237],[-78.4543,38.5247],[-78.452,38.5318],[-78.4431,38.5443],[-78.4347,38.544],[-78.433,38.5488],[-78.4364,38.5499],[-78.4361,38.5539],[-78.4322,38.5528],[-78.4299,38.5567],[-78.4255,38.5555],[-78.4251,38.5606],[-78.4213,38.5631],[-78.4167,38.5635],[-78.4227,38.5721],[-78.4204,38.5752],[-78.419,38.5761],[-78.4161,38.5701],[-78.4076,38.5665],[-78.4057,38.573],[-78.4008,38.5779],[-78.3999,38.5828],[-78.4042,38.5883],[-78.4021,38.5965],[-78.4001,38.5982],[-78.4037,38.6044],[-78.4025,38.6086],[-78.3926,38.6168],[-78.3895,38.6156],[-78.38,38.6161],[-78.3787,38.6173],[-78.3799,38.6208],[-78.3754,38.617],[-78.3714,38.6177],[-78.373,38.6284],[-78.3644,38.6278],[-78.3631,38.6339],[-78.3617,38.6343],[-78.3603,38.6326],[-78.3544,38.6339],[-78.3495,38.6319],[-78.3454,38.6348],[-78.3479,38.6374],[-78.3402,38.6386],[-78.3413,38.6424],[-78.3332,38.6477],[-78.3402,38.6488],[-78.3403,38.6501],[-78.3438,38.6495],[-78.3456,38.6511],[-78.3478,38.6488],[-78.3514,38.6509],[-78.3567,38.6513],[-78.3615,38.6552],[-78.3605,38.6561],[-78.3621,38.6585],[-78.3526,38.6649],[-78.3473,38.6625],[-78.3418,38.6624],[-78.3378,38.6667],[-78.3411,38.6693],[-78.3434,38.6675],[-78.3477,38.6713],[-78.3483,38.6745],[-78.3434,38.6745],[-78.3393,38.6786],[-78.343,38.6814],[-78.3381,38.6832],[-78.3354,38.6866],[-78.331,38.6854],[-78.328,38.6872],[-78.3326,38.6924],[-78.3262,38.6932],[-78.3279,38.695],[-78.3464,38.6971],[-78.3643,38.6825],[-78.3666,38.6813],[-78.3672,38.6827],[-78.3706,38.6832],[-78.3747,38.6781],[-78.378,38.6791],[-78.3762,38.6845],[-78.3855,38.6853],[-78.386,38.6827],[-78.3989,38.6918],[-78.3914,38.6957],[-78.3991,38.7118],[-78.3906,38.7177],[-78.391,38.7198],[-78.3876,38.7192],[-78.3895,38.7075],[-78.3806,38.7106],[-78.3824,38.7202],[-78.3781,38.7217],[-78.3664,38.7314],[-78.3582,38.743],[-78.3543,38.7457],[-78.3509,38.7442],[-78.3481,38.7554],[-78.3441,38.756],[-78.3416,38.7541],[-78.3398,38.7567],[-78.3385,38.7543],[-78.3371,38.7554],[-78.3331,38.7546],[-78.3273,38.7588],[-78.3268,38.7615],[-78.3305,38.764],[-78.3269,38.7665],[-78.3343,38.7726],[-78.3389,38.7696],[-78.3433,38.7694],[-78.3531,38.7735],[-78.3576,38.7736],[-78.3524,38.7802],[-78.3562,38.7822],[-78.3485,38.7909],[-78.3488,38.7936],[-78.3375,38.798],[-78.334,38.7972],[-78.336,38.8009],[-78.3333,38.8063],[-78.3323,38.8134],[-78.3257,38.8143],[-78.3255,38.816],[-78.3198,38.8205],[-78.3127,38.8138],[-78.3188,38.7991],[-78.3095,38.7972],[-78.3035,38.7994],[-78.2986,38.802],[-78.2959,38.808],[-78.2912,38.8112],[-78.2874,38.8073],[-78.2805,38.8048],[-78.2718,38.807],[-78.2688,38.8051],[-78.2697,38.798],[-78.2752,38.7835],[-78.2723,38.7836],[-78.2725,38.781],[-78.2663,38.7764],[-78.2675,38.7741],[-78.2598,38.7709],[-78.2549,38.7749],[-78.2553,38.7774],[-78.247,38.7824],[-78.2437,38.7822],[-78.2428,38.7794],[-78.2383,38.7791],[-78.2373,38.786],[-78.2284,38.7865],[-78.228,38.7815],[-78.2143,38.782],[-78.2059,38.79],[-78.2043,38.7941],[-78.1962,38.7952],[-78.1918,38.8022],[-78.191,38.8065],[-78.1964,38.8076],[-78.1963,38.8092],[-78.1985,38.8107],[-78.2015,38.8109],[-78.2022,38.8145],[-78.1984,38.8217],[-78.2052,38.8219],[-78.2027,38.8261],[-78.2121,38.8356],[-78.2113,38.8672],[-78.2085,38.8719],[-78.2169,38.8768],[-78.2161,38.8809],[-78.2141,38.8819],[-78.215,38.8837],[-78.2055,38.8894],[-78.209,38.8946],[-78.2022,38.8997],[-78.2004,38.8999],[-78.1977,38.8961],[-78.1957,38.8978],[-78.1947,38.9028],[-78.1998,38.9045],[-78.2025,38.9028],[-78.2053,38.9043],[-78.2019,38.91],[-78.1902,38.9062],[-78.1909,38.9011],[-78.1878,38.8974],[-78.1896,38.8931],[-78.1829,38.8921],[-78.1804,38.8945],[-78.1805,38.8971],[-78.1704,38.8878],[-78.1775,38.878],[-78.1919,38.8774],[-78.1967,38.8678],[-78.197,38.8639],[-78.1945,38.8631],[-78.197,38.8614],[-78.1974,38.8508],[-78.1895,38.8466],[-78.1901,38.845],[-78.1885,38.8439],[-78.1843,38.848],[-78.1772,38.847],[-78.1742,38.848],[-78.1684,38.8428],[-78.153,38.8513],[-78.1501,38.8468],[-78.156,38.8426],[-78.1547,38.8383],[-78.1573,38.8234],[-78.1614,38.8232],[-78.1609,38.8161],[-78.1535,38.8141],[-78.1542,38.8066],[-78.1509,38.8057],[-78.1561,38.8016],[-78.1586,38.7939],[-78.1658,38.7941],[-78.1731,38.7856],[-78.1699,38.785],[-78.1696,38.7792],[-78.1625,38.7769],[-78.1614,38.7743],[-78.163,38.7707],[-78.1579,38.7702],[-78.1633,38.7646],[-78.163,38.761],[-78.1642,38.7604],[-78.1602,38.7578],[-78.1643,38.7568],[-78.1643,38.7553],[-78.1558,38.7513],[-78.1592,38.7477],[-78.1648,38.7476],[-78.1699,38.7441],[-78.1792,38.7416],[-78.1811,38.7461],[-78.186,38.747],[-78.1842,38.7512],[-78.1899,38.7517],[-78.1851,38.7572],[-78.1858,38.7587],[-78.1948,38.7595],[-78.2006,38.7584],[-78.1993,38.7564],[-78.201,38.7555],[-78.2002,38.7539],[-78.2137,38.7494],[-78.2177,38.752],[-78.2221,38.7513],[-78.224,38.7491],[-78.2294,38.7499],[-78.2299,38.7488],[-78.235,38.7549],[-78.2526,38.7495],[-78.257,38.7465],[-78.2544,38.7428],[-78.2541,38.7379],[-78.2599,38.7353],[-78.2573,38.733],[-78.26,38.7284],[-78.2594,38.726],[-78.251,38.7241],[-78.2424,38.7128],[-78.2426,38.7092],[-78.2516,38.7005],[-78.2528,38.702],[-78.2626,38.7024],[-78.2729,38.7001],[-78.271,38.6964],[-78.2737,38.693],[-78.2798,38.6948],[-78.2815,38.6924],[-78.2759,38.6855],[-78.2685,38.6921],[-78.2639,38.6855],[-78.2656,38.6792],[-78.2643,38.6736],[-78.262,38.6715],[-78.2591,38.6713],[-78.258,38.6739],[-78.2547,38.6753],[-78.2478,38.6737],[-78.2456,38.6686],[-78.2462,38.6658],[-78.2551,38.6669],[-78.2571,38.6685],[-78.2618,38.6668],[-78.2642,38.6611],[-78.2671,38.6623],[-78.2717,38.6543],[-78.2703,38.6508],[-78.2583,38.6465],[-78.2525,38.6487],[-78.2502,38.6474],[-78.2548,38.6358],[-78.2588,38.635],[-78.2583,38.6337],[-78.2612,38.6319],[-78.2568,38.6297],[-78.2614,38.6277],[-78.2613,38.6158],[-78.264,38.615],[-78.2673,38.61],[-78.2723,38.6067],[-78.269,38.6006],[-78.272,38.598],[-78.2688,38.5959],[-78.2694,38.595],[-78.2875,38.5842],[-78.2943,38.5773],[-78.2963,38.5788],[-78.3007,38.576],[-78.2994,38.5665],[-78.2923,38.5654],[-78.2809,38.5547],[-78.2841,38.5402],[-78.2821,38.5373],[-78.3005,38.5312],[-78.2964,38.5276],[-78.2957,38.5239],[-78.2957,38.5223],[-78.2997,38.5183],[-78.3038,38.5174],[-78.309,38.5252],[-78.3141,38.5247],[-78.3147,38.5181],[-78.3101,38.5153],[-78.3168,38.5074],[-78.3216,38.5072],[-78.3284,38.5106],[-78.3326,38.5108],[-78.3357,38.5123],[-78.336,38.5141],[-78.3404,38.5142],[-78.3429,38.511],[-78.339,38.5279],[-78.3403,38.5314],[-78.3469,38.5314],[-78.3472,38.5328],[-78.3465,38.5373],[-78.3423,38.538],[-78.3384,38.5419],[-78.3434,38.5452],[-78.3428,38.5495],[-78.3452,38.5497],[-78.3496,38.5402],[-78.3582,38.5363],[-78.3576,38.5329],[-78.3537,38.5309],[-78.3555,38.5221],[-78.3527,38.5133],[-78.3598,38.516],[-78.3655,38.5159],[-78.3691,38.5101],[-78.3743,38.5118],[-78.3716,38.5077],[-78.3751,38.5055],[-78.3913,38.5048],[-78.4005,38.5012],[-78.4035,38.5043],[-78.4033,38.5064],[-78.4075,38.5095],[-78.408,38.5028],[-78.4059,38.5018],[-78.4039,38.4921],[-78.4066,38.4875],[-78.4203,38.4794],[-78.414,38.4761],[-78.4095,38.4667],[-78.3953,38.4618],[-78.392,38.4642],[-78.388,38.4627],[-78.3831,38.4709],[-78.3835,38.4738],[-78.3864,38.4762],[-78.3854,38.4797],[-78.377,38.4781],[-78.373,38.4742],[-78.3711,38.4767],[-78.3671,38.4764],[-78.3596,38.46],[-78.3601,38.454],[-78.3543,38.4497],[-78.3571,38.4457],[-78.3656,38.444],[-78.3673,38.4413],[-78.367,38.4376],[-78.3741,38.4367],[-78.3779,38.4396],[-78.3838,38.44],[-78.387,38.4431],[-78.3912,38.4431],[-78.3967,38.4475],[-78.3977,38.4507],[-78.4118,38.4477],[-78.4304,38.4723],[-78.4341,38.4703],[-78.4393,38.4629],[-78.443,38.4658],[-78.4419,38.4588],[-78.4438,38.4511],[-78.4381,38.4472],[-78.4361,38.4438],[-78.4364,38.4394],[-78.4453,38.4374],[-78.4438,38.4334],[-78.4512,38.4335],[-78.4634,38.4289],[-78.4518,38.425],[-78.448,38.4269],[-78.4414,38.4265],[-78.4346,38.4293],[-78.4372,38.4303],[-78.4374,38.4354]]],[[[-78.3756,38.6571],[-78.3806,38.6594],[-78.3783,38.6669],[-78.3745,38.67],[-78.3724,38.6692],[-78.3704,38.6707],[-78.3679,38.6676],[-78.3658,38.6684],[-78.3651,38.667],[-78.3672,38.6662],[-78.3655,38.6645],[-78.3684,38.662],[-78.3707,38.6622],[-78.3695,38.6598],[-78.3756,38.6571]]]]},"properties":{"park":"shenandoah","name":"Shenandoah National Park","source":"iNaturalist place","place_id":9012,"source_url":"https://www.inaturalist.org/places/9012"}}