{"type":"Feature","geometry":{"type":"Polygon","coordinates":[[[-109.8974,34.8371],[-109.9342,34.837],[-109.9467,34.8438],[-109.9685,34.8502],[-109.9686,34.9096],[-109.9509,34.9097],[-109.951,34.9659],[-109.9335,34.9678],[-109.9335,34.9643],[-109.9315,34.9644],[-109.9205,34.9673],[-109.9157,34.9642],[-109.9157,34.968],[-109.8979,34.968],[-109.8979,34.9638],[-109.8918,34.9622],[-109.8885,34.9661],[-109.8799,34.9646],[-109.8799,34.9679],[-109.8619,34.9679],[-109.8619,34.9637],[-109.8542,34.9659],[-109.8493,34.965],[-109.8437,34.9663],[-109.8439,34.9709],[-109.8259,34.9763],[-109.8259,34.9751],[-109.823,34.9751],[-109.8229,34.9723],[-109.8214,34.9724],[-109.8214,34.9771],[-109.8202,34.9759],[-109.8202,34.9778],[-109.8122,34.9789],[-109.8075,34.9812],[-109.807,35.0403],[-109.8802,35.0405],[-109.8802,35.0333],[-109.8846,35.0333],[-109.8846,35.026],[-109.8802,35.026],[-109.8801,35.0115],[-109.9157,35.0115],[-109.9157,35.0695],[-109.9246,35.0695],[-109.9246,35.084],[-109.9156,35.084],[-109.914,35.1703],[-109.6854,35.1697],[-109.686,35.1397],[-109.6836,35.1255],[-109.7353,35.1283],[-109.7363,35.083],[-109.7545,35.0836],[-109.7546,35.0665],[-109.7638,35.0662],[-109.7634,35.062],[-109.7718,35.0614],[-109.7714,35.0541],[-109.7901,35.0543],[-109.7895,35.0399],[-109.7369,35.0398],[-109.7366,35.0754],[-109.7187,35.0807],[-109.7189,35.0757],[-109.7144,35.0757],[-109.7147,35.0685],[-109.6606,35.0684],[-109.6606,35.0719],[-109.6561,35.0719],[-109.656,35.0755],[-109.6515,35.0754],[-109.6514,35.0827],[-109.5945,35.0824],[-109.5945,35.0535],[-109.5767,35.0535],[-109.5768,35.0391],[-109.5945,35.0392],[-109.5957,34.9228],[-109.667,34.9236],[-109.6673,34.9089],[-109.7203,34.9094],[-109.7204,34.8948],[-109.7377,34.8949],[-109.7385,34.822],[-109.781,34.8223],[-109.7811,34.7796],[-109.8514,34.7787],[-109.8516,34.7933],[-109.8959,34.7932],[-109.8974,34.8371]]]},"properties":{"park":"petrified_forest","name":"Petrified Forest National Park","source":"iNaturalist place","place_id":57573,"source_url":"https://www.inaturalist.org/places/57573"}}