{"type":"Feature","geometry":{"type":"MultiPolygon","coordinates":[[[[-144.0041,62.7135],[-143.896,62.6838],[-143.5638,62.6838],[-143.5483,62.6512],[-143.4321,62.6227],[-143.1737,62.6505],[-143.0819,62.6113],[-142.9163,62.6125],[-142.858,62.5635],[-142.6876,62.5339],[-142.6884,62.5105],[-141.5196,62.5106],[-141.4179,62.4493],[-141.2882,62.4274],[-141.0015,62.4239],[-141.002,60.3064],[-140.5204,60.2198],[-140.4582,60.3081],[-139.9811,60.182],[-139.693,60.3352],[-139.0748,60.3525],[-139.1988,60.0883],[-139.0612,59.9997],[-139.4885,59.9997],[-139.5242,60.0415],[-139.5507,60.0557],[-139.6093,60.0091],[-139.6153,59.949],[-139.7198,59.9238],[-139.8125,59.8191],[-140.2954,59.6944],[-140.8796,59.737],[-141.04,59.7838],[-141.0401,60.045],[-141.3034,60.045],[-141.3296,60.0585],[-141.1588,60.1192],[-141.1533,60.1718],[-141.1888,60.1238],[-141.2686,60.098],[-141.3525,60.0855],[-141.3903,60.1562],[-141.4391,60.1329],[-141.5907,60.1734],[-141.4487,60.0864],[-141.5523,60.1004],[-141.5246,60.0759],[-141.4868,60.0657],[-141.4168,60.0644],[-141.3715,60.0331],[-141.4047,60.0059],[-141.5453,60.0169],[-141.5455,60.045],[-141.9065,60.045],[-141.9065,60.1316],[-141.9644,60.1316],[-141.9826,60.2394],[-142.0349,60.2655],[-142.1035,60.2585],[-142.101,60.285],[-142.1576,60.3022],[-142.1469,60.3584],[-142.2245,60.3662],[-142.3311,60.4496],[-142.2808,60.484],[-142.6442,60.5348],[-143.2103,60.5087],[-143.4259,60.6174],[-143.4176,60.6513],[-143.465,60.6827],[-143.6971,60.6519],[-143.7217,60.6894],[-143.6968,60.707],[-143.7886,60.7134],[-143.7617,60.7985],[-143.9388,60.8009],[-143.9986,60.827],[-144.0626,60.8057],[-144.1784,60.863],[-144.2495,60.8617],[-144.3501,60.9023],[-144.4362,60.8951],[-144.4354,60.8709],[-144.5013,60.8387],[-144.6725,60.8999],[-144.8025,61.1029],[-144.9028,61.1586],[-144.8324,61.2161],[-144.8393,61.2626],[-144.811,61.3071],[-144.4689,61.4117],[-144.4544,61.4707],[-144.4065,61.4972],[-144.3939,61.5727],[-144.4609,61.6264],[-144.6,61.6438],[-144.7852,61.7421],[-145.0681,61.8147],[-145.2605,61.9163],[-145.3269,61.9881],[-145.3273,62.0211],[-145.3792,62.0288],[-145.3929,62.0782],[-145.435,62.0888],[-145.3908,62.0977],[-145.4101,62.13],[-145.3821,62.1762],[-145.3989,62.2295],[-145.3263,62.2909],[-145.1966,62.3113],[-145.1076,62.3822],[-144.9517,62.4046],[-144.8175,62.4571],[-144.768,62.531],[-144.618,62.5651],[-144.5242,62.6343],[-144.4443,62.6371],[-144.3783,62.7041],[-144.0041,62.7135]]],[[[-139.538,60.0445],[-139.5393,60.045],[-139.5381,60.0466],[-139.538,60.0445]]],[[[-139.5403,60.0475],[-139.5394,60.0469],[-139.5399,60.0444],[-139.5417,60.0452],[-139.5403,60.0475]]],[[[-139.5419,60.0457],[-139.5475,60.0454],[-139.5494,60.054],[-139.5405,60.0497],[-139.5419,60.0457]]],[[[-141.3402,60.0864],[-141.3412,60.087],[-141.3399,60.0872],[-141.3402,60.0864]]],[[[-141.344,60.0846],[-141.3446,60.0833],[-141.3464,60.084],[-141.3462,60.0846],[-141.344,60.0846]]],[[[-141.4809,60.0715],[-141.48,60.0707],[-141.4845,60.0714],[-141.4823,60.0726],[-141.4809,60.0715]]]]},"properties":{"park":"wrangell_st_elias","name":"Wrangell-St. Elias National Park","source":"iNaturalist place","place_id":72658,"source_url":"https://www.inaturalist.org/places/72658"}}