{"type":"Feature","geometry":{"type":"MultiPolygon","coordinates":[[[[-108.4047,37.3345],[-108.3983,37.3344],[-108.3984,37.3308],[-108.3986,37.3308],[-108.3987,37.2979],[-108.3989,37.2906],[-108.3896,37.2906],[-108.3897,37.2833],[-108.3711,37.2835],[-108.3711,37.2687],[-108.3611,37.2688],[-108.3591,37.2681],[-108.3606,37.2653],[-108.3599,37.2629],[-108.358,37.2612],[-108.3579,37.2586],[-108.3586,37.2581],[-108.3569,37.2563],[-108.3573,37.2552],[-108.3565,37.2543],[-108.3569,37.25],[-108.3556,37.25],[-108.3554,37.2488],[-108.3548,37.2475],[-108.3553,37.2454],[-108.3531,37.2435],[-108.3524,37.2403],[-108.3532,37.2388],[-108.3506,37.2368],[-108.3495,37.2384],[-108.3482,37.2375],[-108.3481,37.2357],[-108.347,37.2347],[-108.3457,37.2308],[-108.3446,37.2313],[-108.3439,37.2308],[-108.3451,37.2296],[-108.3435,37.2274],[-108.3446,37.2262],[-108.3443,37.2246],[-108.3451,37.2244],[-108.3446,37.2236],[-108.3446,37.224],[-108.3431,37.2214],[-108.3415,37.2216],[-108.3415,37.2207],[-108.342,37.2198],[-108.3411,37.2202],[-108.3404,37.22],[-108.3403,37.2197],[-108.3406,37.2187],[-108.3413,37.2181],[-108.3411,37.2177],[-108.3401,37.2178],[-108.3401,37.2175],[-108.3396,37.2166],[-108.3396,37.216],[-108.4184,37.2162],[-108.4456,37.2161],[-108.4456,37.1564],[-108.5449,37.1565],[-108.5449,37.2157],[-108.5547,37.2156],[-108.5546,37.2829],[-108.5365,37.2832],[-108.5091,37.2832],[-108.509,37.2906],[-108.4996,37.2905],[-108.4632,37.2906],[-108.454,37.2905],[-108.4539,37.2979],[-108.4448,37.2977],[-108.4445,37.3123],[-108.4262,37.3127],[-108.4262,37.349],[-108.4215,37.349],[-108.4215,37.3505],[-108.4161,37.3466],[-108.4135,37.3436],[-108.4117,37.3421],[-108.411,37.3416],[-108.4102,37.3416],[-108.4076,37.3406],[-108.4076,37.3403],[-108.4058,37.3396],[-108.4058,37.3392],[-108.4076,37.3393],[-108.4076,37.339],[-108.403,37.338],[-108.4047,37.3345]]]]},"properties":{"park":"mesa_verde","name":"Mesa Verde National Park","source":"iNaturalist place","place_id":69108,"source_url":"https://www.inaturalist.org/places/69108"}}