{"type":"Feature","geometry":{"type":"MultiPolygon","coordinates":[[[[-150.6965,59.417],[-150.6125,59.393],[-150.6051,59.384],[-150.6312,59.391],[-150.6096,59.368],[-150.6193,59.3514],[-150.6448,59.3505],[-150.6813,59.3043],[-150.7206,59.2889],[-150.7321,59.2941],[-150.7001,59.3037],[-150.6962,59.3094],[-150.7754,59.3069],[-150.7486,59.322],[-150.7727,59.332],[-150.736,59.3322],[-150.7328,59.3458],[-150.7476,59.3497],[-150.6917,59.3741],[-150.7043,59.3839],[-150.6872,59.391],[-150.6845,59.395],[-150.7106,59.4009],[-150.6965,59.417]]],[[[-149.7657,60.3038],[-149.6958,60.2816],[-149.6365,60.222],[-149.5948,60.2112],[-149.5757,60.1788],[-149.5331,60.1754],[-149.5319,59.9242],[-149.5679,59.9007],[-149.5519,59.8932],[-149.5553,59.8785],[-149.5846,59.8749],[-149.5738,59.8505],[-149.5936,59.8544],[-149.6262,59.8181],[-149.5957,59.8077],[-149.5899,59.7668],[-149.556,59.7802],[-149.5344,59.778],[-149.5547,59.7734],[-149.535,59.758],[-149.566,59.7513],[-149.5391,59.7437],[-149.5469,59.73],[-149.5165,59.7354],[-149.5304,59.7242],[-149.5251,59.7058],[-149.5521,59.7146],[-149.5436,59.728],[-149.5836,59.7182],[-149.5724,59.7314],[-149.5894,59.7495],[-149.6148,59.727],[-149.6419,59.7389],[-149.6079,59.745],[-149.6173,59.7566],[-149.5726,59.7583],[-149.6109,59.7648],[-149.6024,59.7881],[-149.6434,59.7611],[-149.6552,59.778],[-149.6073,59.7992],[-149.658,59.7933],[-149.664,59.8024],[-149.6453,59.8079],[-149.6692,59.8122],[-149.6424,59.8167],[-149.6701,59.8265],[-149.6367,59.8302],[-149.6692,59.8473],[-149.6293,59.8561],[-149.6376,59.8661],[-149.6167,59.8807],[-149.6685,59.8693],[-149.658,59.8918],[-149.6349,59.896],[-149.6644,59.907],[-149.6543,59.9132],[-149.6799,59.9471],[-149.7211,59.9563],[-149.7457,59.9424],[-149.7162,59.8851],[-149.7233,59.8802],[-149.7383,59.8788],[-149.7407,59.8795],[-149.7364,59.898],[-149.7542,59.8834],[-149.7414,59.8781],[-149.7531,59.8641],[-149.7454,59.8257],[-149.7612,59.8217],[-149.8015,59.8515],[-149.8737,59.8521],[-149.76,59.7929],[-149.7909,59.7862],[-149.7671,59.7729],[-149.7854,59.7669],[-149.7788,59.7567],[-149.7641,59.7657],[-149.7557,59.764],[-149.7699,59.7438],[-149.7304,59.7196],[-149.7501,59.6947],[-149.7229,59.6951],[-149.7645,59.6867],[-149.7397,59.6387],[-149.7812,59.6504],[-149.7653,59.6642],[-149.7944,59.6574],[-149.7813,59.6794],[-149.8106,59.6783],[-149.7948,59.6872],[-149.8254,59.6835],[-149.7662,59.7053],[-149.7919,59.7145],[-149.8335,59.7029],[-149.8116,59.7182],[-149.84,59.7149],[-149.8437,59.7392],[-149.8867,59.7401],[-149.9074,59.7695],[-149.9829,59.7752],[-150.0424,59.8093],[-150.0712,59.8476],[-150.0599,59.8078],[-150.0801,59.7579],[-150.0478,59.7718],[-149.9678,59.7504],[-149.9584,59.7365],[-149.9775,59.7198],[-149.925,59.7147],[-149.9345,59.7261],[-149.9281,59.7295],[-149.9202,59.711],[-149.921,59.6914],[-149.9507,59.6547],[-150.0135,59.6612],[-149.9968,59.6397],[-150.0332,59.6128],[-150.0582,59.6616],[-150.0833,59.6643],[-150.1242,59.6927],[-150.1397,59.692],[-150.0871,59.6498],[-150.0983,59.6135],[-150.1143,59.6029],[-150.1371,59.6288],[-150.1626,59.6228],[-150.1669,59.6188],[-150.0839,59.5783],[-150.1617,59.5602],[-150.1863,59.571],[-150.1789,59.5844],[-150.2127,59.5785],[-150.1749,59.5385],[-150.2113,59.5198],[-150.2128,59.5427],[-150.2231,59.5284],[-150.2653,59.5336],[-150.2357,59.5036],[-150.2509,59.4853],[-150.2945,59.4978],[-150.2938,59.4753],[-150.3171,59.4882],[-150.3152,59.4686],[-150.4041,59.4614],[-150.3398,59.4804],[-150.3785,59.5005],[-150.3181,59.5065],[-150.3671,59.5154],[-150.3522,59.5305],[-150.2905,59.5093],[-150.3072,59.5297],[-150.3502,59.5365],[-150.2886,59.581],[-150.3168,59.5931],[-150.2623,59.6291],[-150.2845,59.6428],[-150.2202,59.7146],[-150.2147,59.7377],[-150.2307,59.7453],[-150.308,59.6567],[-150.3177,59.6253],[-150.3704,59.5779],[-150.3832,59.5675],[-150.3905,59.5683],[-150.3965,59.5613],[-150.4083,59.5594],[-150.3962,59.5744],[-150.4261,59.5825],[-150.4126,59.5508],[-150.4791,59.4589],[-150.5227,59.4736],[-150.4871,59.4881],[-150.4775,59.5287],[-150.511,59.4952],[-150.5566,59.5051],[-150.5215,59.522],[-150.5704,59.5297],[-150.4855,59.5818],[-150.5094,59.5868],[-150.496,59.6038],[-150.5205,59.607],[-150.5606,59.5957],[-150.6042,59.5388],[-150.6447,59.5517],[-150.6644,59.541],[-150.5803,59.4921],[-150.5846,59.4671],[-150.6603,59.4709],[-150.5845,59.4501],[-150.6051,59.4233],[-150.6632,59.417],[-150.6925,59.4282],[-150.6951,59.4499],[-150.7204,59.4544],[-150.6987,59.4443],[-150.706,59.4298],[-150.7386,59.4222],[-150.7675,59.3759],[-150.8151,59.3609],[-150.7635,59.4083],[-150.7781,59.4328],[-150.9765,59.4328],[-150.9767,59.4761],[-150.8633,59.4761],[-150.8634,59.505],[-150.835,59.505],[-150.8353,59.5773],[-150.8068,59.5773],[-150.8069,59.6351],[-150.7214,59.6351],[-150.7214,59.6784],[-150.6655,59.6784],[-150.6655,59.6928],[-150.3496,59.6919],[-150.3274,59.8573],[-150.069,59.978],[-150.1518,60.1037],[-149.7866,60.1869],[-149.8054,60.2831],[-149.7657,60.3038]]]]},"properties":{"park":"kenai_fjords","name":"Kenai Fjords National Park","source":"iNaturalist place","place_id":95258,"source_url":"https://www.inaturalist.org/places/95258"}}