{"type":"Feature","geometry":{"type":"MultiPolygon","coordinates":[[[[-87.4425,41.5111],[-87.4424,41.5075],[-87.4448,41.5075],[-87.4449,41.5146],[-87.43,41.5193],[-87.43,41.5148],[-87.4356,41.5148],[-87.4372,41.5112],[-87.4425,41.5111]]],[[[-87.4428,41.5193],[-87.4399,41.5193],[-87.4399,41.5174],[-87.4427,41.5165],[-87.4428,41.5193]]],[[[-87.2415,41.5891],[-87.2414,41.587],[-87.2603,41.5815],[-87.2605,41.5887],[-87.2415,41.5914],[-87.2415,41.5891]]],[[[-87.2927,41.5263],[-87.2903,41.5254],[-87.2903,41.5238],[-87.2831,41.5238],[-87.2831,41.5255],[-87.281,41.5255],[-87.2798,41.5238],[-87.2693,41.5235],[-87.2801,41.5235],[-87.2806,41.5219],[-87.283,41.5218],[-87.283,41.5182],[-87.3033,41.5164],[-87.3068,41.5178],[-87.2974,41.5177],[-87.2975,41.5236],[-87.3164,41.5236],[-87.2975,41.5238],[-87.2974,41.5264],[-87.2927,41.5263]]],[[[-87.4429,41.5227],[-87.4428,41.5193],[-87.4523,41.5193],[-87.4523,41.5148],[-87.4617,41.5148],[-87.4617,41.5173],[-87.4569,41.5173],[-87.457,41.5198],[-87.4617,41.5199],[-87.4617,41.5263],[-87.4542,41.5263],[-87.4429,41.5227]]],[[[-87.4521,41.53],[-87.4423,41.5301],[-87.4424,41.524],[-87.4521,41.5264],[-87.4521,41.53]]],[[[-87.1473,41.6016],[-87.1441,41.6021],[-87.1441,41.6012],[-87.1473,41.6016]]],[[[-86.8386,41.6223],[-86.8388,41.6188],[-86.8366,41.6182],[-86.8377,41.6174],[-86.8369,41.6133],[-86.8518,41.6087],[-86.8517,41.6121],[-86.8568,41.612],[-86.8567,41.6153],[-86.8517,41.6153],[-86.8511,41.6219],[-86.8432,41.622],[-86.8432,41.6239],[-86.8397,41.624],[-86.8386,41.6223]]],[[[-86.9533,41.6339],[-86.9515,41.6339],[-86.9516,41.6223],[-86.9806,41.6223],[-86.9806,41.6296],[-86.9662,41.6296],[-86.9662,41.6339],[-86.9533,41.6339]]],[[[-86.9179,41.7171],[-86.9165,41.7163],[-86.9262,41.7069],[-86.9246,41.7064],[-86.9246,41.7008],[-86.9957,41.6688],[-86.9951,41.6636],[-86.9933,41.6636],[-86.9939,41.666],[-86.9903,41.666],[-86.9904,41.6694],[-86.9866,41.6694],[-86.9855,41.6722],[-86.976,41.6733],[-86.9765,41.6702],[-86.9941,41.6601],[-86.9966,41.6601],[-87.004,41.6544],[-87.004,41.6557],[-87.0072,41.6527],[-87.0082,41.6533],[-87.0102,41.6506],[-87.0096,41.6514],[-87.0144,41.6514],[-87.0144,41.6488],[-87.0133,41.6488],[-87.022,41.6442],[-87.024,41.6442],[-87.024,41.6479],[-87.0289,41.6478],[-87.0288,41.6442],[-87.0385,41.6442],[-87.0385,41.6419],[-87.0481,41.6421],[-87.0481,41.6393],[-87.058,41.6405],[-87.0596,41.6387],[-87.0585,41.637],[-87.0637,41.637],[-87.0627,41.6401],[-87.0658,41.6405],[-87.0868,41.6343],[-87.0868,41.6296],[-87.0771,41.6295],[-87.0771,41.6276],[-87.0868,41.6237],[-87.0926,41.6167],[-87.1144,41.6177],[-87.1207,41.6157],[-87.1244,41.6173],[-87.1244,41.6157],[-87.1389,41.6126],[-87.1444,41.6104],[-87.1473,41.607],[-87.1504,41.607],[-87.1476,41.6067],[-87.1472,41.6049],[-87.1441,41.6051],[-87.1441,41.6029],[-87.1502,41.6021],[-87.1513,41.6096],[-87.1541,41.6092],[-87.1541,41.6113],[-87.1545,41.6103],[-87.1698,41.6104],[-87.1698,41.6114],[-87.1663,41.6114],[-87.1663,41.613],[-87.1504,41.6117],[-87.1456,41.613],[-87.1451,41.6153],[-87.1413,41.6144],[-87.1337,41.6173],[-87.1304,41.6177],[-87.1303,41.615],[-87.1294,41.6179],[-87.1216,41.6201],[-87.1179,41.6186],[-87.1131,41.6225],[-87.1063,41.6225],[-87.1063,41.6276],[-87.0964,41.6279],[-87.0964,41.6318],[-87.1104,41.6278],[-87.1102,41.629],[-87.0916,41.6349],[-87.0962,41.634],[-87.0975,41.6363],[-87.0994,41.6356],[-87.1052,41.6391],[-87.121,41.6392],[-87.1218,41.647],[-87.088,41.6552],[-87.0096,41.6818],[-86.9561,41.7037],[-86.9233,41.7138],[-86.9239,41.7155],[-86.9179,41.7171]]],[[[-87.225,41.5963],[-87.222,41.595],[-87.2365,41.5956],[-87.2366,41.5982],[-87.225,41.5963]]],[[[-87.251,41.5991],[-87.2494,41.599],[-87.2494,41.5973],[-87.2509,41.5977],[-87.251,41.5991]]],[[[-87.3008,41.6016],[-87.2957,41.6012],[-87.2957,41.5966],[-87.3066,41.599],[-87.3008,41.598],[-87.3025,41.5992],[-87.3008,41.6016]]],[[[-87.1766,41.6315],[-87.1768,41.6224],[-87.1751,41.6224],[-87.1769,41.6223],[-87.1769,41.6232],[-87.1821,41.6232],[-87.1831,41.6217],[-87.1819,41.6193],[-87.1894,41.6171],[-87.1886,41.6146],[-87.1905,41.6146],[-87.1909,41.6088],[-87.1991,41.6059],[-87.1991,41.6073],[-87.2074,41.6074],[-87.2074,41.603],[-87.2114,41.6016],[-87.2123,41.606],[-87.222,41.6039],[-87.2219,41.6016],[-87.2321,41.6017],[-87.2321,41.5977],[-87.2399,41.5988],[-87.2399,41.5957],[-87.2404,41.5988],[-87.251,41.5995],[-87.251,41.6019],[-87.2532,41.6019],[-87.2532,41.6048],[-87.2786,41.6051],[-87.2786,41.6002],[-87.3353,41.6054],[-87.3098,41.6051],[-87.3025,41.6078],[-87.2824,41.6077],[-87.2938,41.608],[-87.2824,41.6091],[-87.2825,41.6175],[-87.2889,41.6175],[-87.289,41.6201],[-87.2731,41.6209],[-87.271,41.621],[-87.2707,41.6109],[-87.2694,41.6106],[-87.2704,41.6077],[-87.2456,41.6078],[-87.2414,41.6091],[-87.2414,41.6123],[-87.233,41.6139],[-87.233,41.6118],[-87.2301,41.6127],[-87.2299,41.6152],[-87.2256,41.6147],[-87.2233,41.6163],[-87.2223,41.6254],[-87.1765,41.6337],[-87.1766,41.6315]]]]},"properties":{"park":"indiana_dunes","name":"Indiana Dunes National Park","source":"iNaturalist place","place_id":95241,"source_url":"https://www.inaturalist.org/places/95241"}}