{"type":"Feature","geometry":{"type":"MultiPolygon","coordinates":[[[[-152.9419,68.4822],[-152.9419,68.3957],[-152.7858,68.3957],[-152.7856,68.3524],[-152.5121,68.3524],[-152.473,68.3668],[-152.473,68.3957],[-152.2386,68.3957],[-152.235,68.2803],[-151.0803,68.2658],[-151.0803,68.3091],[-151.0054,68.3091],[-151.0057,68.3524],[-150.8494,68.3524],[-150.8494,68.3091],[-150.3875,68.3091],[-150.3875,68.3524],[-150.1284,68.3524],[-150.1284,68.439],[-149.6274,68.439],[-149.6139,68.4124],[-149.6353,68.3986],[-149.5289,68.3227],[-149.5908,68.2691],[-149.7125,68.248],[-149.7608,68.1883],[-149.9032,68.1091],[-149.7744,68.0339],[-149.8539,67.9898],[-149.875,67.9093],[-149.9395,67.9083],[-149.889,67.8739],[-149.9103,67.8195],[-149.9728,67.7869],[-149.944,67.7511],[-149.8591,67.7413],[-149.8614,67.7101],[-149.8191,67.6913],[-149.8649,67.6423],[-149.8705,67.5689],[-149.9649,67.5012],[-150.1578,67.5353],[-150.2819,67.5081],[-150.2822,67.4422],[-150.2569,67.429],[-150.2918,67.4202],[-150.2814,67.3876],[-150.3896,67.344],[-150.3629,67.2925],[-150.5405,67.2353],[-150.5666,67.1905],[-150.5513,67.1726],[-150.4533,67.1664],[-150.5327,67.1293],[-150.5511,67.0768],[-150.6329,67.0835],[-150.7906,67.044],[-151.1108,67.0522],[-151.1718,67.0239],[-151.1766,67.288],[-151.0035,67.288],[-151.0035,67.3746],[-151.2275,67.3746],[-151.2276,67.5478],[-151.4516,67.5478],[-151.4516,67.6344],[-151.6756,67.6343],[-151.6756,67.5478],[-153.0028,67.5478],[-153.0028,67.4612],[-152.9085,67.4612],[-152.9079,67.3313],[-153.3008,67.3424],[-153.3004,67.2558],[-153.6344,67.2558],[-153.6343,67.1692],[-153.8182,67.1692],[-153.8178,67.0826],[-153.9265,67.0826],[-153.9265,66.9094],[-154.366,66.9094],[-154.366,66.8228],[-154.427,66.8228],[-154.427,66.6497],[-155.7273,66.6496],[-155.7273,66.8228],[-155.9044,66.8228],[-155.9044,66.9094],[-155.6846,66.9094],[-155.6846,66.996],[-155.4648,66.996],[-155.4648,66.9094],[-154.8055,66.9094],[-154.8056,67.1692],[-154.7489,67.1692],[-154.7489,67.2558],[-155.9121,67.2557],[-155.9637,67.2851],[-156.1033,67.2861],[-156.1765,67.3523],[-156.171,67.3951],[-156.2071,67.4289],[-156.292,67.4198],[-156.3695,67.448],[-156.3793,67.4822],[-156.3494,67.516],[-156.3791,67.5393],[-156.8953,67.4866],[-156.9307,67.5337],[-156.902,67.5783],[-156.9477,67.589],[-156.9427,67.6184],[-156.9994,67.6161],[-156.9768,67.6494],[-156.8926,67.6777],[-156.8278,67.6435],[-156.7295,67.6371],[-156.6462,67.7213],[-156.572,67.7521],[-156.5592,67.7842],[-156.6539,67.7995],[-156.4864,67.9034],[-156.4749,67.968],[-156.3129,67.9979],[-156.0242,67.9859],[-155.8741,68.028],[-155.7853,68.0171],[-155.7456,67.9763],[-155.6201,67.966],[-155.6171,68.3662],[-155.2669,68.3662],[-155.2669,68.3235],[-154.6265,68.3235],[-154.7048,68.3596],[-154.7006,68.3884],[-154.5972,68.3596],[-153.6453,68.3812],[-153.6453,68.4389],[-153.5285,68.439],[-153.5288,68.4822],[-152.9419,68.4822]]],[[[-152.7195,68.6554],[-152.7075,68.6121],[-152.473,68.6121],[-152.473,68.4823],[-152.8647,68.4822],[-152.865,68.5255],[-152.942,68.5255],[-152.942,68.5688],[-153.0603,68.5688],[-153.0608,68.6554],[-152.7195,68.6554]]]]},"properties":{"park":"gates_of_the_arctic","name":"Gates of the Arctic National Park","source":"iNaturalist place","place_id":69111,"source_url":"https://www.inaturalist.org/places/69111"}}