{"type":"Feature","geometry":{"type":"MultiPolygon","coordinates":[[[[-121.6056,40.3482],[-121.6009,40.3482],[-121.6024,40.3476],[-121.603,40.3472],[-121.6029,40.3469],[-121.6038,40.3466],[-121.6056,40.3465],[-121.6056,40.3445],[-121.6153,40.3445],[-121.6152,40.3463],[-121.6137,40.3464],[-121.6137,40.3482],[-121.6201,40.3482],[-121.62,40.3519],[-121.6056,40.3518],[-121.6056,40.3482]]],[[[-121.3536,40.585],[-121.2846,40.5848],[-121.2846,40.5701],[-121.2751,40.5701],[-121.2751,40.5556],[-121.2753,40.5416],[-121.2658,40.541],[-121.2468,40.541],[-121.2472,40.5046],[-121.2474,40.4973],[-121.2513,40.4973],[-121.2514,40.4678],[-121.2513,40.4234],[-121.308,40.4233],[-121.3269,40.4238],[-121.3271,40.4272],[-121.3412,40.4274],[-121.3413,40.4347],[-121.3484,40.4348],[-121.3484,40.4365],[-121.3509,40.4365],[-121.3509,40.4383],[-121.3545,40.4382],[-121.3545,40.4347],[-121.3606,40.4348],[-121.3607,40.4277],[-121.3651,40.4278],[-121.3651,40.4171],[-121.3637,40.4091],[-121.3921,40.4093],[-121.4397,40.4092],[-121.4397,40.4238],[-121.4777,40.4238],[-121.4778,40.4165],[-121.4825,40.4165],[-121.4824,40.4238],[-121.5153,40.4235],[-121.5248,40.4239],[-121.5341,40.4238],[-121.5437,40.4235],[-121.5721,40.4235],[-121.5718,40.4855],[-121.5567,40.4854],[-121.5583,40.5],[-121.5583,40.5144],[-121.5774,40.5145],[-121.5774,40.5508],[-121.5585,40.5506],[-121.5585,40.5579],[-121.5395,40.5581],[-121.5394,40.5652],[-121.5346,40.5652],[-121.5345,40.5724],[-121.5203,40.5725],[-121.5203,40.5652],[-121.5067,40.5653],[-121.5064,40.5644],[-121.5066,40.5638],[-121.5073,40.5633],[-121.5074,40.5626],[-121.5074,40.5623],[-121.5065,40.5615],[-121.5045,40.5609],[-121.5034,40.5613],[-121.5026,40.5613],[-121.5004,40.5604],[-121.4994,40.5596],[-121.4998,40.5579],[-121.5003,40.5569],[-121.5004,40.5561],[-121.5002,40.5553],[-121.4995,40.5544],[-121.4918,40.5544],[-121.4917,40.5508],[-121.4872,40.5508],[-121.4874,40.5436],[-121.4635,40.5437],[-121.4635,40.5556],[-121.4564,40.556],[-121.447,40.556],[-121.447,40.5632],[-121.4182,40.5632],[-121.3995,40.5629],[-121.3706,40.5633],[-121.3705,40.585],[-121.3536,40.585]]]]},"properties":{"park":"lassen_volcanic","name":"Lassen Volcanic National Park","source":"iNaturalist place","place_id":4509,"source_url":"https://www.inaturalist.org/places/4509"}}