{"type":"Feature","geometry":{"type":"MultiPolygon","coordinates":[[[[-155.2232,19.2605],[-155.2329,19.2626],[-155.2341,19.2664],[-155.2426,19.2687],[-155.2497,19.2678],[-155.2552,19.2705],[-155.2585,19.2692],[-155.2612,19.2713],[-155.2762,19.2652],[-155.2791,19.2667],[-155.2875,19.2636],[-155.2937,19.2633],[-155.3012,19.2587],[-155.3162,19.2424],[-155.3315,19.2364],[-155.3385,19.2311],[-155.3465,19.2148],[-155.3576,19.206],[-155.3714,19.2004],[-155.388,19.1981],[-155.3944,19.1944],[-155.3972,19.1903],[-155.4269,19.2085],[-155.4212,19.2183],[-155.4191,19.2428],[-155.4152,19.2572],[-155.4063,19.2755],[-155.3906,19.322],[-155.3834,19.3581],[-155.3698,19.3703],[-155.3514,19.3953],[-155.3414,19.4037],[-155.3343,19.4127],[-155.3331,19.417],[-155.3199,19.4296],[-155.4176,19.4604],[-155.5788,19.4312],[-155.5189,19.3475],[-155.5172,19.3417],[-155.5279,19.3238],[-155.5585,19.2849],[-155.5768,19.2662],[-155.6302,19.2179],[-155.6355,19.2154],[-155.6376,19.2103],[-155.6556,19.1961],[-155.6551,19.1939],[-155.6845,19.1761],[-155.6819,19.1717],[-155.6641,19.0741],[-155.6668,19.0708],[-155.6728,19.0675],[-155.6729,19.0596],[-155.6746,19.0583],[-155.6902,19.0591],[-155.7036,19.0663],[-155.715,19.0638],[-155.7475,19.0752],[-155.7196,19.1297],[-155.7219,19.1361],[-155.7184,19.143],[-155.771,19.1672],[-155.7618,19.183],[-155.7725,19.1819],[-155.7724,19.1867],[-155.7778,19.2068],[-155.7755,19.2127],[-155.78,19.228],[-155.7787,19.2283],[-155.779,19.2303],[-155.8007,19.2524],[-155.7463,19.2606],[-155.7423,19.3292],[-155.7486,19.4083],[-155.6389,19.4479],[-155.5962,19.5243],[-155.5555,19.5038],[-155.4815,19.5476],[-155.4293,19.5352],[-155.3846,19.5017],[-155.3229,19.4472],[-155.2936,19.4542],[-155.2802,19.4337],[-155.269,19.4376],[-155.2552,19.4339],[-155.249,19.4244],[-155.2427,19.4219],[-155.2394,19.4228],[-155.2393,19.4208],[-155.2333,19.4156],[-155.238,19.4133],[-155.2293,19.3976],[-155.1342,19.38],[-155.1218,19.3987],[-155.0585,19.3679],[-155.0482,19.3535],[-155.0454,19.3283],[-155.0326,19.3321],[-155.0241,19.3298],[-155.0216,19.3362],[-155.0159,19.3286],[-155.0383,19.3213],[-155.0459,19.3173],[-155.0497,19.3133],[-155.058,19.3137],[-155.0623,19.3114],[-155.0708,19.3113],[-155.0749,19.3065],[-155.0791,19.3054],[-155.083,19.3007],[-155.0853,19.3012],[-155.0879,19.2979],[-155.1013,19.2932],[-155.1134,19.2857],[-155.1229,19.2774],[-155.1314,19.2731],[-155.1409,19.2737],[-155.1575,19.2647],[-155.17,19.266],[-155.1744,19.264],[-155.1847,19.2633],[-155.189,19.261],[-155.1926,19.2558],[-155.1936,19.2575],[-155.1968,19.2581],[-155.207,19.2561],[-155.2232,19.2605]]],[[[-155.2185,19.4707],[-155.2444,19.4562],[-155.243,19.454],[-155.2539,19.4478],[-155.2586,19.4553],[-155.2486,19.4633],[-155.2747,19.5051],[-155.2246,19.5331],[-155.1984,19.4907],[-155.2041,19.4826],[-155.2017,19.4801],[-155.2185,19.4707]]]]},"properties":{"park":"hawaii_volcanoes","name":"Hawaii Volcanoes National Park","source":"iNaturalist place","place_id":7222,"source_url":"https://www.inaturalist.org/places/7222"}}