{"type":"Feature","geometry":{"type":"Polygon","coordinates":[[[-102.8499,29.3562],[-102.8614,29.3521],[-102.8799,29.3538],[-102.8845,29.348],[-102.8802,29.3389],[-102.8851,29.3253],[-102.8847,29.3214],[-102.8885,29.3153],[-102.8876,29.3121],[-102.8905,29.3096],[-102.8933,29.3094],[-102.8934,29.3076],[-102.8905,29.3027],[-102.8884,29.2934],[-102.8904,29.2886],[-102.8967,29.2851],[-102.8991,29.2809],[-102.903,29.2797],[-102.9035,29.2768],[-102.8997,29.2692],[-102.9068,29.2617],[-102.9065,29.259],[-102.9027,29.2541],[-102.8973,29.2543],[-102.8881,29.2459],[-102.881,29.2463],[-102.8715,29.2414],[-102.8718,29.2332],[-102.8669,29.227],[-102.8678,29.2241],[-102.8775,29.2173],[-102.8789,29.214],[-102.8967,29.2085],[-102.8989,29.209],[-102.9091,29.22],[-102.9125,29.2195],[-102.9156,29.2172],[-102.9165,29.2146],[-102.9131,29.2071],[-102.9147,29.2003],[-102.9184,29.1993],[-102.9181,29.1916],[-102.9329,29.1946],[-102.9387,29.1891],[-102.9453,29.1892],[-102.948,29.1814],[-102.9514,29.1777],[-102.9511,29.1741],[-102.9572,29.1788],[-102.9787,29.1866],[-102.9863,29.1833],[-102.9902,29.1836],[-102.9971,29.1783],[-102.9984,29.1741],[-102.9963,29.1615],[-103.0031,29.1497],[-103.0089,29.1482],[-103.0095,29.1391],[-103.0149,29.1366],[-103.0137,29.1333],[-103.0167,29.1254],[-103.0228,29.1227],[-103.0297,29.1157],[-103.037,29.1144],[-103.0327,29.1048],[-103.034,29.1017],[-103.0415,29.0964],[-103.0455,29.0956],[-103.0548,29.101],[-103.0645,29.0917],[-103.0695,29.0937],[-103.0765,29.092],[-103.0801,29.0877],[-103.0769,29.0794],[-103.0775,29.0758],[-103.0875,29.0677],[-103.0862,29.0541],[-103.0902,29.0536],[-103.0916,29.055],[-103.0929,29.0648],[-103.0965,29.0644],[-103.0975,29.0611],[-103.101,29.0608],[-103.1009,29.0512],[-103.1063,29.0424],[-103.1069,29.0389],[-103.1043,29.0331],[-103.0986,29.0276],[-103.1034,29.0168],[-103.109,29.0134],[-103.1178,29.0003],[-103.1148,28.987],[-103.1166,28.9847],[-103.1235,28.9846],[-103.1274,28.9824],[-103.1325,28.9842],[-103.1366,28.9833],[-103.1464,28.9771],[-103.1512,28.9758],[-103.1541,28.9719],[-103.1608,28.974],[-103.1646,28.9724],[-103.1664,28.974],[-103.1665,28.9791],[-103.1752,28.9811],[-103.1791,28.978],[-103.1834,28.9828],[-103.2023,28.9871],[-103.215,28.988],[-103.2204,28.9838],[-103.2282,28.9918],[-103.2408,28.982],[-103.2509,28.9806],[-103.2531,28.9817],[-103.2532,28.9864],[-103.2685,28.9963],[-103.2708,28.9878],[-103.2744,28.9823],[-103.28,28.9775],[-103.2848,28.9775],[-103.2868,28.98],[-103.2861,28.9827],[-103.2828,28.9838],[-103.2823,28.9902],[-103.2862,29.0],[-103.297,29.0068],[-103.3089,29.0037],[-103.3146,29.0077],[-103.3167,29.0112],[-103.3089,29.0182],[-103.3072,29.0232],[-103.3084,29.0249],[-103.3141,29.0262],[-103.3259,29.0169],[-103.3341,29.017],[-103.3389,29.0202],[-103.3422,29.028],[-103.3345,29.0283],[-103.3285,29.0322],[-103.3275,29.0347],[-103.3288,29.0412],[-103.3317,29.0435],[-103.3409,29.0442],[-103.3454,29.0469],[-103.3488,29.0428],[-103.3482,29.0392],[-103.3513,29.0286],[-103.356,29.0213],[-103.3602,29.0188],[-103.3758,29.0238],[-103.3839,29.0245],[-103.3863,29.0225],[-103.388,29.0246],[-103.3884,29.0322],[-103.3913,29.0349],[-103.4006,29.0313],[-103.4036,29.0328],[-103.4047,29.0393],[-103.4149,29.038],[-103.4227,29.0428],[-103.4281,29.0423],[-103.4335,29.044],[-103.4301,29.0499],[-103.4347,29.0551],[-103.4351,29.0577],[-103.4439,29.0601],[-103.4504,29.066],[-103.4502,29.0727],[-103.4609,29.0728],[-103.4609,29.0689],[-103.4639,29.066],[-103.4717,29.0667],[-103.4741,29.07],[-103.4714,29.0755],[-103.4706,29.0851],[-103.4763,29.0877],[-103.4782,29.0915],[-103.4847,29.0947],[-103.4955,29.1093],[-103.5035,29.1077],[-103.5053,29.1118],[-103.5022,29.1144],[-103.502,29.1181],[-103.5169,29.1215],[-103.5249,29.121],[-103.5249,29.137],[-103.5394,29.1452],[-103.5476,29.1433],[-103.5506,29.1442],[-103.5529,29.1485],[-103.5506,29.1552],[-103.5546,29.1588],[-103.5604,29.155],[-103.5734,29.1537],[-103.5872,29.1499],[-103.5933,29.1501],[-103.5964,29.1521],[-103.6114,29.1655],[-103.6283,29.1633],[-103.6338,29.1587],[-103.6405,29.1613],[-103.6513,29.1568],[-103.6522,29.1587],[-103.651,29.161],[-103.6575,29.1698],[-103.6649,29.171],[-103.6693,29.1737],[-103.6782,29.1741],[-103.6894,29.1787],[-103.698,29.1775],[-103.7005,29.1789],[-103.7035,29.184],[-103.7062,29.1852],[-103.7122,29.1849],[-103.7167,29.1809],[-103.7192,29.1813],[-103.7243,29.1917],[-103.7292,29.1932],[-103.7299,29.197],[-103.7373,29.202],[-103.7428,29.2094],[-103.7434,29.2148],[-103.7412,29.2193],[-103.7432,29.2222],[-103.7508,29.2197],[-103.758,29.2212],[-103.758,29.2234],[-103.7549,29.2266],[-103.7588,29.2332],[-103.7632,29.233],[-103.7686,29.2282],[-103.7704,29.2207],[-103.7723,29.2197],[-103.7772,29.2205],[-103.7783,29.2241],[-103.7822,29.2276],[-103.7818,29.2429],[-103.7704,29.243],[-103.7709,29.2559],[-103.7625,29.2562],[-103.7624,29.2509],[-103.7479,29.2521],[-103.7474,29.2472],[-103.6826,29.2472],[-103.6826,29.2486],[-103.6629,29.2488],[-103.6682,29.2428],[-103.6294,29.2157],[-103.6195,29.2272],[-103.6066,29.2182],[-103.5962,29.2295],[-103.5844,29.2209],[-103.5521,29.2537],[-103.5498,29.2521],[-103.5499,29.2581],[-103.539,29.2583],[-103.5401,29.3014],[-103.5061,29.3017],[-103.5077,29.3456],[-103.458,29.3467],[-103.4582,29.3757],[-103.4415,29.3762],[-103.4417,29.3911],[-103.4259,29.3909],[-103.4262,29.4053],[-103.3932,29.4059],[-103.3934,29.4205],[-103.2924,29.4237],[-103.294,29.467],[-103.2576,29.4687],[-103.2581,29.4713],[-103.2557,29.4753],[-103.2547,29.4922],[-103.2566,29.4948],[-103.2567,29.5004],[-103.2543,29.5022],[-103.2541,29.5059],[-103.2647,29.5116],[-103.2733,29.5119],[-103.2849,29.518],[-103.2916,29.5237],[-103.3178,29.5302],[-103.3179,29.5323],[-103.3344,29.5319],[-103.3376,29.5855],[-103.3403,29.587],[-103.3423,29.6044],[-103.3458,29.6168],[-103.341,29.6186],[-103.3385,29.6173],[-103.3386,29.6222],[-103.3222,29.6222],[-103.3222,29.6291],[-103.3055,29.6294],[-103.3068,29.6945],[-103.2414,29.6951],[-103.241,29.6803],[-103.2248,29.6804],[-103.2244,29.6658],[-103.1906,29.6659],[-103.19,29.6512],[-103.1816,29.6512],[-103.1819,29.6659],[-103.1737,29.6659],[-103.1741,29.6805],[-103.1577,29.6809],[-103.1568,29.6663],[-103.1404,29.6668],[-103.1398,29.6522],[-103.1234,29.6525],[-103.122,29.6389],[-103.1061,29.6384],[-103.1055,29.6216],[-103.0889,29.6223],[-103.0886,29.6074],[-103.0571,29.6086],[-103.0568,29.594],[-103.0401,29.5945],[-103.0376,29.5362],[-103.021,29.5371],[-103.0201,29.5224],[-103.0035,29.523],[-102.9997,29.4531],[-102.983,29.4534],[-102.9824,29.4244],[-102.9492,29.425],[-102.9489,29.4104],[-102.9156,29.4115],[-102.9152,29.397],[-102.8655,29.3981],[-102.8648,29.3841],[-102.8699,29.384],[-102.8696,29.3765],[-102.8434,29.3765],[-102.8456,29.3745],[-102.846,29.3655],[-102.84,29.36],[-102.8499,29.3562]]]},"properties":{"park":"big_bend","name":"Big Bend National Park","source":"iNaturalist place","place_id":55071,"source_url":"https://www.inaturalist.org/places/55071"}}