{"type":"Feature","geometry":{"type":"MultiPolygon","coordinates":[[[[-119.0358,33.4481],[-119.0566,33.4573],[-119.0675,33.4864],[-119.0246,33.5051],[-119.008,33.4731],[-119.0358,33.4481]]],[[[-120.473,34.0292],[-120.4613,34.0508],[-120.3693,34.0933],[-120.2866,34.0291],[-120.3015,34.0045],[-120.3604,33.9971],[-120.4578,34.0129],[-120.473,34.0292]]],[[[-119.2668,34.2481],[-119.2671,34.2492],[-119.2656,34.2487],[-119.2668,34.2481]]],[[[-120.2707,34.0009],[-120.2435,34.0253],[-120.1794,34.0238],[-120.1519,34.0407],[-120.0947,34.0368],[-120.0417,34.053],[-120.0238,34.0408],[-120.0258,34.0056],[-119.9626,33.9926],[-119.9481,33.9398],[-120.1242,33.8782],[-120.1946,33.9132],[-120.2707,34.0009]]],[[[-119.3397,34.0238],[-119.3443,34.0028],[-119.3902,33.9858],[-119.4464,33.995],[-119.4639,34.0123],[-119.4356,34.0329],[-119.3397,34.0238]]],[[[-119.95,34.0593],[-119.9339,34.0888],[-119.9123,34.0945],[-119.81,34.0704],[-119.7538,34.0752],[-119.6329,34.0316],[-119.6067,34.0627],[-119.5598,34.0722],[-119.5004,34.0333],[-119.5528,33.98],[-119.6497,33.9708],[-119.7179,33.9429],[-119.819,33.9432],[-119.889,33.9688],[-119.9072,34.0049],[-119.8994,34.0243],[-119.95,34.0593]]]]},"properties":{"park":"channel_islands","name":"Channel Islands National Park","source":"iNaturalist place","place_id":3157,"source_url":"https://www.inaturalist.org/places/3157"}}