{"type":"Feature","geometry":{"type":"Polygon","coordinates":[[[-122.0306,43.0888],[-122.0046,43.0878],[-121.9998,43.0674],[-121.9998,42.9856],[-121.9923,42.9856],[-121.9924,42.9802],[-121.9781,42.9797],[-121.9848,42.972],[-121.9799,42.9417],[-121.9661,42.9217],[-121.971,42.9217],[-121.9711,42.919],[-121.976,42.919],[-121.9997,42.8934],[-121.9958,42.8898],[-121.9908,42.8789],[-121.9909,42.8753],[-121.9859,42.8753],[-121.986,42.8571],[-121.9662,42.8493],[-121.9662,42.8441],[-121.9843,42.8479],[-121.9929,42.8475],[-121.9996,42.8498],[-121.9995,42.8011],[-122.073,42.8011],[-122.068,42.794],[-122.0576,42.7724],[-122.0575,42.7687],[-122.0657,42.7686],[-122.0796,42.7803],[-122.0797,42.8011],[-122.267,42.8012],[-122.2667,42.8385],[-122.2831,42.8525],[-122.2891,42.8602],[-122.2869,42.8679],[-122.2891,42.8715],[-122.2885,42.8751],[-122.2914,42.8774],[-122.2889,42.8807],[-122.2888,42.8962],[-122.2839,42.8962],[-122.2826,42.9544],[-122.2728,42.9544],[-122.2728,42.9761],[-122.3024,42.9761],[-122.3025,42.9862],[-122.2879,42.9901],[-122.2772,42.9955],[-122.2731,42.9998],[-122.2729,43.003],[-122.2669,43.0112],[-122.2668,43.0678],[-122.2531,43.0677],[-122.2531,43.0762],[-122.2234,43.0761],[-122.2233,43.0814],[-122.2044,43.0839],[-122.198,43.0888],[-122.0306,43.0888]]]},"properties":{"park":"crater_lake","name":"Crater Lake National Park","source":"iNaturalist place","place_id":52923,"source_url":"https://www.inaturalist.org/places/52923"}}