{"type":"Feature","geometry":{"type":"MultiPolygon","coordinates":[[[[-118.935,36.7207],[-118.9215,36.7207],[-118.9187,36.7186],[-118.916,36.7215],[-118.909,36.7214],[-118.9058,36.7174],[-118.9025,36.716],[-118.8973,36.7193],[-118.8954,36.7146],[-118.8914,36.7136],[-118.8893,36.7095],[-118.879,36.7038],[-118.881,36.6638],[-118.8743,36.6639],[-118.8717,36.6578],[-118.8661,36.654],[-118.8647,36.6496],[-118.86,36.6474],[-118.8512,36.6459],[-118.8505,36.6473],[-118.8526,36.6505],[-118.8501,36.6513],[-118.8424,36.6497],[-118.8424,36.6467],[-118.854,36.6377],[-118.8688,36.6345],[-118.8707,36.6318],[-118.8707,36.6284],[-118.8785,36.6241],[-118.8842,36.6224],[-118.895,36.6225],[-118.8981,36.6207],[-118.8981,36.6343],[-118.908,36.6376],[-118.9129,36.6433],[-118.9149,36.6432],[-118.9149,36.6474],[-118.9218,36.6616],[-118.9211,36.6663],[-118.9191,36.6679],[-118.9208,36.6711],[-118.9229,36.6711],[-118.9238,36.6782],[-118.9314,36.6782],[-118.9315,36.6854],[-118.936,36.6854],[-118.9355,36.6962],[-118.9266,36.6962],[-118.9264,36.7033],[-118.922,36.7033],[-118.9219,36.7068],[-118.9307,36.7068],[-118.9306,36.7137],[-118.966,36.7135],[-118.9691,36.7166],[-118.9726,36.7135],[-118.9725,36.7273],[-118.9832,36.7273],[-118.9828,36.7559],[-118.9381,36.7554],[-118.9396,36.7208],[-118.935,36.7207]]],[[[-118.7792,37.2369],[-118.7705,37.236],[-118.7685,37.2319],[-118.7627,37.2271],[-118.752,37.2219],[-118.7427,37.2226],[-118.734,37.2211],[-118.7243,37.2244],[-118.7216,37.2207],[-118.7207,37.2152],[-118.7174,37.2132],[-118.7127,37.2062],[-118.7014,37.2063],[-118.6975,37.2086],[-118.6981,37.2126],[-118.6933,37.2171],[-118.6894,37.2162],[-118.6846,37.2118],[-118.6782,37.2106],[-118.6803,37.2035],[-118.6732,37.1947],[-118.6706,37.1949],[-118.6701,37.1917],[-118.6662,37.1899],[-118.6669,37.183],[-118.6641,37.1785],[-118.6668,37.1756],[-118.667,37.1726],[-118.673,37.1674],[-118.6666,37.1612],[-118.6663,37.1536],[-118.6568,37.1469],[-118.6541,37.141],[-118.6468,37.14],[-118.6411,37.137],[-118.6366,37.1389],[-118.6298,37.1367],[-118.6255,37.1399],[-118.6135,37.1429],[-118.6106,37.1404],[-118.5998,37.1365],[-118.5929,37.1382],[-118.5892,37.1352],[-118.5899,37.1333],[-118.5863,37.1285],[-118.5855,37.124],[-118.5818,37.1226],[-118.5767,37.1239],[-118.5681,37.1231],[-118.5686,37.1159],[-118.5653,37.1137],[-118.5592,37.1151],[-118.5503,37.1144],[-118.5461,37.1159],[-118.5446,37.1141],[-118.531,37.1122],[-118.5314,37.1082],[-118.5259,37.1044],[-118.5229,37.0998],[-118.5177,37.0982],[-118.5124,37.0933],[-118.5028,37.0958],[-118.5018,37.0937],[-118.4931,37.0884],[-118.4904,37.082],[-118.4854,37.0773],[-118.4715,37.0733],[-118.4664,37.0674],[-118.4517,37.0676],[-118.447,37.0693],[-118.4363,37.0605],[-118.4357,37.0579],[-118.4372,37.0549],[-118.4342,37.05],[-118.441,37.0461],[-118.4386,37.0438],[-118.4375,37.0387],[-118.4314,37.0349],[-118.4287,37.0348],[-118.428,37.032],[-118.4228,37.0271],[-118.4223,37.0168],[-118.4268,37.0116],[-118.4206,37.0081],[-118.4127,36.9996],[-118.4192,36.9952],[-118.4207,36.9907],[-118.4166,36.9857],[-118.4085,36.9818],[-118.4076,36.9787],[-118.409,36.9748],[-118.4037,36.9718],[-118.4048,36.9684],[-118.4042,36.9574],[-118.3969,36.9581],[-118.388,36.9455],[-118.3829,36.9358],[-118.3835,36.9319],[-118.3792,36.9197],[-118.3759,36.9184],[-118.3704,36.9082],[-118.3669,36.9073],[-118.3664,36.905],[-118.3699,36.8997],[-118.3651,36.8905],[-118.3613,36.8883],[-118.3616,36.885],[-118.3673,36.881],[-118.3704,36.8717],[-118.3698,36.8701],[-118.3662,36.869],[-118.3667,36.8645],[-118.3653,36.862],[-118.3622,36.8616],[-118.3633,36.8512],[-118.3617,36.8445],[-118.3707,36.8367],[-118.3758,36.8353],[-118.3897,36.8352],[-118.3931,36.8307],[-118.3901,36.8264],[-118.3915,36.824],[-118.3897,36.8206],[-118.3833,36.8152],[-118.3834,36.8105],[-118.3785,36.8089],[-118.3781,36.8046],[-118.3739,36.8003],[-118.3727,36.7947],[-118.3761,36.7912],[-118.3769,36.7858],[-118.3804,36.7833],[-118.3766,36.7785],[-118.3763,36.7713],[-118.3726,36.7673],[-118.3746,36.7634],[-118.37,36.756],[-118.37,36.7514],[-118.3679,36.7487],[-118.3619,36.7482],[-118.3597,36.7447],[-118.3564,36.7428],[-118.351,36.7418],[-118.3422,36.7299],[-118.3387,36.7287],[-118.3339,36.7064],[-118.3361,36.7044],[-118.3413,36.7028],[-118.3483,36.6961],[-118.3532,36.6946],[-118.3638,36.6949],[-118.3666,36.6921],[-118.3825,36.6985],[-118.392,36.6966],[-118.3932,36.6987],[-118.4004,36.6984],[-118.4075,36.7008],[-118.414,36.6963],[-118.4159,36.6978],[-118.4201,36.6959],[-118.427,36.6982],[-118.4295,36.6927],[-118.4301,36.686],[-118.432,36.6841],[-118.436,36.6836],[-118.4426,36.686],[-118.4501,36.6854],[-118.4493,36.6829],[-118.4527,36.6774],[-118.4615,36.6748],[-118.4643,36.6704],[-118.4676,36.671],[-118.4721,36.668],[-118.4757,36.6689],[-118.4737,36.6593],[-118.4791,36.652],[-118.4847,36.6499],[-118.4863,36.6474],[-118.4838,36.6446],[-118.4844,36.6346],[-118.4884,36.6329],[-118.4915,36.6265],[-118.4969,36.6248],[-118.5009,36.6185],[-118.5173,36.6092],[-118.5179,36.6045],[-118.5262,36.5986],[-118.5251,36.5948],[-118.5309,36.5929],[-118.5445,36.5939],[-118.5529,36.598],[-118.5603,36.5955],[-118.5689,36.5956],[-118.5749,36.5975],[-118.5834,36.6034],[-118.5816,36.6096],[-118.5824,36.6134],[-118.5909,36.6104],[-118.603,36.6107],[-118.6115,36.6193],[-118.6115,36.6251],[-118.6169,36.6255],[-118.6283,36.6303],[-118.6348,36.6368],[-118.6417,36.6372],[-118.6486,36.6323],[-118.6562,36.6332],[-118.6578,36.639],[-118.6607,36.6401],[-118.6709,36.636],[-118.6756,36.636],[-118.6793,36.638],[-118.6833,36.637],[-118.69,36.638],[-118.6949,36.6431],[-118.6974,36.6438],[-118.7019,36.6504],[-118.7026,36.6552],[-118.7073,36.6587],[-118.7068,36.6655],[-118.7103,36.6648],[-118.7174,36.6671],[-118.7201,36.6732],[-118.7358,36.6743],[-118.7381,36.6786],[-118.7367,36.6873],[-118.7325,36.6902],[-118.7324,36.695],[-118.7287,36.7008],[-118.7242,36.7021],[-118.7171,36.7101],[-118.7196,36.7186],[-118.7178,36.7207],[-118.7154,36.7313],[-118.7153,36.7741],[-118.7134,36.7769],[-118.7068,36.7794],[-118.703,36.7827],[-118.6973,36.7827],[-118.6972,36.8136],[-118.7023,36.8181],[-118.7007,36.8238],[-118.7025,36.8295],[-118.6991,36.8439],[-118.7015,36.8475],[-118.7013,36.8518],[-118.7043,36.8548],[-118.7054,36.8668],[-118.7081,36.87],[-118.7071,36.876],[-118.7135,36.8763],[-118.7195,36.8798],[-118.7238,36.878],[-118.7238,36.8761],[-118.7295,36.8769],[-118.7336,36.874],[-118.7425,36.8795],[-118.7559,36.8829],[-118.757,36.8848],[-118.7623,36.8832],[-118.7642,36.8852],[-118.7661,36.8834],[-118.7722,36.8823],[-118.7861,36.8881],[-118.8015,36.8905],[-118.7999,36.8893],[-118.8001,36.8841],[-118.8061,36.8871],[-118.8078,36.8865],[-118.8099,36.8892],[-118.8125,36.8889],[-118.8212,36.8981],[-118.8287,36.9034],[-118.8345,36.9035],[-118.8358,36.9069],[-118.8439,36.9093],[-118.8538,36.908],[-118.7858,36.9469],[-118.7856,36.9503],[-118.7795,36.9554],[-118.7773,36.9603],[-118.7712,36.964],[-118.7705,36.9688],[-118.7636,36.9792],[-118.7644,36.9833],[-118.7594,36.9999],[-118.7611,37.0067],[-118.7587,37.0169],[-118.7549,37.0199],[-118.7503,37.0205],[-118.7519,37.0265],[-118.7481,37.0277],[-118.7474,37.0299],[-118.7417,37.0344],[-118.7354,37.0322],[-118.7304,37.0414],[-118.73,37.0449],[-118.7351,37.054],[-118.7271,37.0609],[-118.7355,37.0671],[-118.734,37.0702],[-118.736,37.0726],[-118.7355,37.0764],[-118.7384,37.0793],[-118.7386,37.0832],[-118.7435,37.0896],[-118.7508,37.0891],[-118.7574,37.0926],[-118.7645,37.0999],[-118.7666,37.1001],[-118.7656,37.106],[-118.7758,37.1101],[-118.773,37.1143],[-118.7768,37.1198],[-118.7849,37.1196],[-118.7916,37.1235],[-118.7928,37.1254],[-118.7903,37.1304],[-118.792,37.1347],[-118.792,37.1415],[-118.7991,37.1464],[-118.808,37.1569],[-118.8118,37.1581],[-118.8135,37.1664],[-118.8173,37.1664],[-118.8237,37.1704],[-118.8272,37.1833],[-118.8298,37.1846],[-118.8306,37.1887],[-118.8358,37.1948],[-118.8335,37.1993],[-118.8347,37.2049],[-118.8307,37.208],[-118.8326,37.212],[-118.8277,37.2183],[-118.8322,37.2221],[-118.833,37.2261],[-118.8211,37.2245],[-118.8181,37.227],[-118.8134,37.2271],[-118.8102,37.2302],[-118.8068,37.2308],[-118.8034,37.2294],[-118.7977,37.2302],[-118.7882,37.2261],[-118.7846,37.2286],[-118.7858,37.2321],[-118.7841,37.2354],[-118.7792,37.2369]]]]},"properties":{"park":"kings_canyon","name":"Kings Canyon National Park","source":"iNaturalist place","place_id":3378,"source_url":"https://www.inaturalist.org/places/3378"}}