{"type":"Feature","geometry":{"type":"MultiPolygon","coordinates":[[[[-115.5014,33.7244],[-115.5103,33.7172],[-115.5191,33.7139],[-115.5537,33.7138],[-115.5537,33.7103],[-115.6147,33.7071],[-115.6147,33.711],[-115.6407,33.7109],[-115.6407,33.7146],[-115.6581,33.7146],[-115.6581,33.7124],[-115.6608,33.7106],[-115.674,33.7037],[-115.6781,33.7037],[-115.6786,33.7],[-115.6868,33.7001],[-115.6868,33.6965],[-115.6956,33.6965],[-115.6956,33.6913],[-115.6999,33.686],[-115.7027,33.677],[-115.71,33.6725],[-115.7213,33.6702],[-115.7395,33.6755],[-115.7455,33.6756],[-115.7455,33.6786],[-115.7477,33.6786],[-115.7477,33.6764],[-115.7518,33.6788],[-115.7755,33.676],[-115.8084,33.6764],[-115.8221,33.6815],[-115.8304,33.6816],[-115.8304,33.6862],[-115.8521,33.6862],[-115.8521,33.6804],[-115.8594,33.6789],[-115.865,33.6826],[-115.8693,33.6826],[-115.8861,33.69],[-115.925,33.6895],[-115.9341,33.6863],[-115.952,33.6884],[-115.9576,33.6866],[-115.9804,33.6853],[-115.9983,33.6945],[-115.9999,33.6977],[-116.0073,33.7025],[-116.065,33.7693],[-116.1457,33.8347],[-116.2481,33.8842],[-116.2573,33.8921],[-116.2665,33.8945],[-116.273,33.8921],[-116.3188,33.9135],[-116.3188,33.9146],[-116.3797,33.9372],[-116.3797,33.94],[-116.384,33.9401],[-116.384,33.9389],[-116.4005,33.9438],[-116.4413,33.9699],[-116.4413,33.9718],[-116.4445,33.9718],[-116.4445,33.9736],[-116.4467,33.9736],[-116.4467,33.9723],[-116.4577,33.9753],[-116.4577,34.0759],[-116.353,34.0762],[-116.353,34.0907],[-116.3356,34.0908],[-116.3356,34.0763],[-116.3204,34.0763],[-116.3204,34.0781],[-116.3182,34.0781],[-116.3182,34.0763],[-116.3008,34.0762],[-116.3008,34.0778],[-116.2658,34.0778],[-116.2658,34.1205],[-116.1376,34.1204],[-116.1376,34.1241],[-116.1311,34.1232],[-116.1289,34.1223],[-116.1289,34.1204],[-116.0544,34.1211],[-116.0544,34.1071],[-116.0367,34.107],[-116.0365,34.0783],[-116.0015,34.078],[-116.0019,34.0199],[-115.993,34.0199],[-115.9886,34.012],[-115.9748,34.0132],[-115.9746,34.0216],[-115.9722,34.0205],[-115.9678,34.0235],[-115.9642,34.0217],[-115.9503,34.0226],[-115.9436,34.0204],[-115.9416,34.0179],[-115.9384,34.0178],[-115.9376,34.0157],[-115.9377,34.0098],[-115.9354,34.0065],[-115.9355,34.0009],[-115.9373,33.9989],[-115.935,33.9989],[-115.9121,33.9749],[-115.7729,33.9749],[-115.7729,33.9729],[-115.7008,33.973],[-115.7008,33.9874],[-115.6829,33.9874],[-115.6834,34.0019],[-115.666,34.0016],[-115.666,34.0149],[-115.63,34.0149],[-115.6316,34.0715],[-115.6498,34.102],[-115.6232,34.0965],[-115.6107,34.0959],[-115.5866,34.0904],[-115.5776,34.0815],[-115.5696,34.0767],[-115.5515,34.0725],[-115.5468,34.0753],[-115.5275,34.1137],[-115.5225,34.1161],[-115.4797,34.1105],[-115.4118,34.0918],[-115.3807,34.088],[-115.2896,34.0644],[-115.274,34.0342],[-115.274,34.0305],[-115.2718,34.0305],[-115.2718,34.0196],[-115.2674,34.0196],[-115.2691,34.0015],[-115.2672,34.0007],[-115.2672,33.994],[-115.2715,33.9939],[-115.2727,33.9906],[-115.2714,33.9792],[-115.2802,33.9792],[-115.2801,33.9609],[-115.2888,33.961],[-115.2888,33.9536],[-115.2976,33.9537],[-115.2932,33.9389],[-115.2975,33.9389],[-115.2973,33.9025],[-115.3017,33.9025],[-115.3017,33.8977],[-115.3039,33.8961],[-115.3017,33.8941],[-115.3017,33.8879],[-115.2995,33.8879],[-115.2994,33.8823],[-115.2776,33.8805],[-115.2776,33.8786],[-115.2732,33.8768],[-115.2732,33.875],[-115.2688,33.875],[-115.2688,33.8731],[-115.2666,33.8731],[-115.2666,33.8695],[-115.2622,33.8695],[-115.2623,33.853],[-115.2629,33.832],[-115.2948,33.8021],[-115.3036,33.8021],[-115.3255,33.8128],[-115.346,33.8319],[-115.3509,33.8451],[-115.3546,33.8502],[-115.3632,33.8544],[-115.3613,33.8598],[-115.3543,33.8598],[-115.3542,33.8635],[-115.351,33.8635],[-115.3508,33.8708],[-115.3541,33.8708],[-115.354,33.8745],[-115.3584,33.8744],[-115.3582,33.8817],[-115.3713,33.8816],[-115.3712,33.8889],[-115.3756,33.8889],[-115.3755,33.8962],[-115.3799,33.8962],[-115.3799,33.8999],[-115.3843,33.8999],[-115.3842,33.9072],[-115.3886,33.9071],[-115.3886,33.9163],[-115.4105,33.9163],[-115.4105,33.9145],[-115.4193,33.9145],[-115.4193,33.9109],[-115.4215,33.9109],[-115.4215,33.9036],[-115.6177,33.9028],[-115.6168,33.8974],[-115.619,33.8956],[-115.6244,33.896],[-115.6286,33.8906],[-115.6263,33.8787],[-115.6231,33.875],[-115.6223,33.8705],[-115.6168,33.8644],[-115.6167,33.8522],[-115.5994,33.8449],[-115.5125,33.8445],[-115.4952,33.83],[-115.4778,33.8299],[-115.4778,33.8154],[-115.4593,33.7868],[-115.4888,33.7345],[-115.5014,33.7244]]],[[[-116.0369,34.1293],[-116.0372,34.1264],[-116.0453,34.1272],[-116.0454,34.1292],[-116.0369,34.1293]]]]},"properties":{"park":"joshua_tree","name":"Joshua Tree National Park","source":"iNaturalist place","place_id":3680,"source_url":"https://www.inaturalist.org/places/3680"}}