{"type":"Feature","geometry":{"type":"MultiPolygon","coordinates":[[[[-153.1391,59.8609],[-153.1239,59.8666],[-153.3072,59.8542],[-153.3501,59.8824],[-153.3877,59.8811],[-153.4178,59.9237],[-153.443,59.9149],[-153.5234,59.9557],[-153.5922,59.9354],[-153.6502,59.9394],[-153.7212,59.9755],[-153.728,59.9606],[-153.787,59.9412],[-153.9117,59.9718],[-153.9323,59.9337],[-153.9671,59.9152],[-154.0439,59.9209],[-154.1572,59.9671],[-154.3146,59.995],[-154.394,59.9511],[-154.4031,59.9397],[-154.3839,59.93],[-154.4334,59.9048],[-154.6171,59.8951],[-154.6458,59.8879],[-154.6457,59.8658],[-154.6718,59.8513],[-154.8034,59.8951],[-154.8034,59.9096],[-154.8538,59.9168],[-154.8578,59.9506],[-154.7805,59.9748],[-154.7543,60.0179],[-154.8559,60.04],[-154.9469,60.0179],[-154.9614,60.0396],[-155.0047,60.0396],[-155.005,60.1118],[-154.839,60.1163],[-154.8053,60.144],[-154.7444,60.1551],[-154.7444,60.2558],[-154.6929,60.2721],[-154.7015,60.2823],[-154.658,60.3088],[-154.6585,60.4729],[-154.4506,60.4729],[-154.4506,60.6462],[-154.2751,60.6462],[-154.2751,60.7329],[-154.4506,60.7329],[-154.4506,60.8195],[-154.5056,60.8195],[-154.5056,60.9929],[-154.3282,60.9929],[-154.3282,61.0795],[-153.9733,61.0795],[-153.9733,61.1662],[-154.0238,61.1662],[-154.0238,61.2528],[-153.665,61.2528],[-153.665,61.3395],[-153.4856,61.3395],[-153.4856,61.5128],[-152.9473,61.5128],[-152.9473,61.1662],[-152.9084,61.1662],[-152.9085,60.9063],[-152.1987,60.9063],[-152.1987,60.863],[-152.3761,60.863],[-152.3761,60.8196],[-152.695,60.8196],[-152.695,60.7763],[-152.4325,60.7763],[-152.432,60.5597],[-152.5195,60.5597],[-152.5153,60.3358],[-152.4862,60.3358],[-152.4862,60.3141],[-152.4581,60.3141],[-152.458,60.2997],[-152.3984,60.2997],[-152.5146,60.2622],[-152.5567,60.2224],[-152.625,60.2192],[-152.6103,60.2228],[-152.6616,60.2427],[-152.7304,60.2331],[-152.7148,60.2237],[-152.7231,60.2206],[-152.8373,60.2353],[-152.8417,60.2452],[-152.8449,60.2486],[-152.8495,60.25],[-152.8425,60.2441],[-152.8506,60.2366],[-152.8652,60.2445],[-152.8489,60.2541],[-152.8,60.2513],[-152.7919,60.2449],[-152.7798,60.2433],[-152.7923,60.2497],[-152.8009,60.2515],[-152.8037,60.2556],[-152.8533,60.2586],[-152.878,60.2459],[-152.8871,60.2819],[-152.9393,60.3009],[-152.9054,60.2797],[-152.9164,60.2771],[-152.9029,60.2771],[-152.9185,60.2679],[-152.9061,60.2673],[-152.9076,60.2565],[-152.9244,60.2569],[-152.9186,60.2549],[-152.933,60.2534],[-152.9318,60.2482],[-152.9077,60.2551],[-152.9196,60.2425],[-152.8916,60.2428],[-152.9063,60.2387],[-152.9115,60.2351],[-152.8869,60.2427],[-152.8782,60.2364],[-152.9024,60.2286],[-152.9019,60.2278],[-152.896,60.2271],[-152.8811,60.2289],[-152.8752,60.2266],[-152.8805,60.2236],[-152.8845,60.2247],[-152.8898,60.2241],[-152.8888,60.223],[-152.8912,60.2239],[-152.8924,60.2232],[-152.7449,60.1897],[-152.7122,60.1672],[-152.6782,60.1661],[-152.6812,60.1346],[-152.5757,60.0822],[-152.5772,60.0487],[-152.6008,60.0286],[-152.5984,60.0089],[-152.6825,59.964],[-152.7014,59.919],[-152.7932,59.8951],[-152.8072,59.8783],[-153.0115,59.8861],[-153.1391,59.8609]],[[-152.7367,60.2317],[-152.7382,60.2319],[-152.7395,60.2329],[-152.7384,60.2318],[-152.7367,60.2317]],[[-152.7908,60.2499],[-152.79,60.2496],[-152.7887,60.251],[-152.7903,60.25],[-152.7908,60.2499]],[[-152.7981,60.2524],[-152.7976,60.2527],[-152.7927,60.253],[-152.7946,60.2544],[-152.7988,60.2537],[-152.7981,60.2524]],[[-152.8227,60.2504],[-152.8228,60.2498],[-152.8205,60.2505],[-152.8227,60.2504]],[[-152.8568,60.2142],[-152.8575,60.2128],[-152.8566,60.2137],[-152.8568,60.2142]],[[-152.8917,60.2341],[-152.894,60.2342],[-152.8946,60.2337],[-152.8926,60.2335],[-152.8917,60.2341]],[[-152.8928,60.2368],[-152.8934,60.2368],[-152.8946,60.2355],[-152.8928,60.2368]],[[-152.9012,60.2427],[-152.902,60.2425],[-152.9054,60.2425],[-152.902,60.2419],[-152.9012,60.2427]],[[-152.9013,60.2368],[-152.9049,60.2369],[-152.9064,60.2334],[-152.9043,60.2368],[-152.9013,60.2368]],[[-152.9057,60.2425],[-152.9073,60.2425],[-152.9069,60.2421],[-152.9057,60.2425]],[[-152.9082,60.2416],[-152.9104,60.241],[-152.9069,60.2409],[-152.9082,60.2416]],[[-152.9095,60.2402],[-152.9149,60.2386],[-152.9092,60.2393],[-152.9095,60.2402]],[[-152.9113,60.2639],[-152.9165,60.2653],[-152.9151,60.2644],[-152.9113,60.2639]],[[-152.914,60.2846],[-152.9147,60.2845],[-152.914,60.2844],[-152.914,60.2846]],[[-152.9187,60.2764],[-152.9192,60.2763],[-152.9178,60.2758],[-152.9187,60.2764]],[[-152.925,60.2547],[-152.9254,60.2553],[-152.9262,60.2549],[-152.925,60.2547]],[[-152.9266,60.255],[-152.9286,60.2557],[-152.9286,60.2578],[-152.929,60.2559],[-152.9282,60.2552],[-152.9266,60.255]]],[[[-152.6354,60.218],[-152.6379,60.2179],[-152.6398,60.219],[-152.6387,60.2199],[-152.6354,60.218]]],[[[-152.6422,60.2223],[-152.6413,60.2216],[-152.6466,60.2235],[-152.6422,60.2223]]],[[[-152.7007,60.2269],[-152.7013,60.2273],[-152.7001,60.2272],[-152.7007,60.2269]]],[[[-152.8838,60.2307],[-152.878,60.2294],[-152.8875,60.2293],[-152.8959,60.2272],[-152.9016,60.2279],[-152.8949,60.2282],[-152.8906,60.2304],[-152.8891,60.2292],[-152.8877,60.2309],[-152.8838,60.2307]]]]},"properties":{"park":"lake_clark","name":"Lake Clark National Park","source":"iNaturalist place","place_id":69114,"source_url":"https://www.inaturalist.org/places/69114"}}