{"type":"Feature","geometry":{"type":"Polygon","coordinates":[[[-138.066,59.4831],[-137.6074,59.2438],[-137.5,58.9854],[-137.5261,58.9064],[-137.4517,58.9083],[-137.2828,59.0],[-136.8287,59.16],[-136.5844,59.1659],[-136.4898,59.2596],[-136.4491,59.2661],[-136.4238,59.2461],[-136.3655,59.2476],[-136.3607,59.2325],[-136.1897,59.219],[-136.1579,59.1839],[-136.1071,59.2157],[-136.0985,59.2012],[-136.0514,59.1968],[-136.051,59.1774],[-135.899,59.179],[-135.8856,59.1593],[-135.827,59.1387],[-135.7642,59.1362],[-135.6987,59.1073],[-135.7231,59.0698],[-135.6956,59.0215],[-135.5661,58.9628],[-135.5682,58.9404],[-135.6082,58.9231],[-135.6055,58.904],[-135.5241,58.8877],[-135.532,58.8692],[-135.6835,58.8536],[-135.6764,58.8384],[-135.7123,58.8241],[-135.7128,58.7967],[-135.7323,58.7876],[-135.7269,58.7654],[-135.7534,58.7563],[-135.7471,58.7249],[-135.7013,58.7378],[-135.6655,58.7102],[-135.6384,58.7234],[-135.6166,58.7064],[-135.551,58.6988],[-135.5299,58.6568],[-135.4887,58.6564],[-135.4052,58.6206],[-135.3958,58.6028],[-135.4159,58.5866],[-135.3808,58.572],[-135.3627,58.5525],[-135.3759,58.5413],[-135.3167,58.5044],[-135.3557,58.491],[-135.4372,58.5142],[-135.507,58.4996],[-135.4732,58.4721],[-135.4676,58.4312],[-135.4463,58.4056],[-135.4504,58.3704],[-135.4729,58.3558],[-135.6375,58.4002],[-135.6312,58.4247],[-135.5895,58.4234],[-135.5964,58.4453],[-135.7208,58.4415],[-135.7755,58.4632],[-135.7755,58.4415],[-135.8579,58.4272],[-135.8578,58.3721],[-136.0004,58.3562],[-136.2562,58.2906],[-136.4286,58.2825],[-136.4971,58.2028],[-136.5452,58.1779],[-136.6352,58.1595],[-136.7324,58.171],[-136.8353,58.2485],[-136.9532,58.287],[-137.0096,58.3516],[-137.0748,58.3318],[-137.1465,58.3399],[-137.5975,58.5361],[-137.733,58.5745],[-137.7644,58.5985],[-137.7842,58.6454],[-138.0336,58.7779],[-138.0424,58.8149],[-138.0227,58.8451],[-138.0613,58.8779],[-137.9422,58.8777],[-137.9767,58.9029],[-138.2271,59.0337],[-138.5882,59.1208],[-138.5663,59.1384],[-138.5278,59.1316],[-138.545,59.1381],[-138.5274,59.16],[-138.5391,59.1712],[-138.4913,59.1654],[-138.4775,59.1841],[-138.4478,59.175],[-138.4161,59.1902],[-138.3367,59.1914],[-138.195,59.1642],[-138.2221,59.198],[-138.256,59.2079],[-138.2459,59.2277],[-138.3063,59.2359],[-138.2993,59.2499],[-138.342,59.2603],[-138.4141,59.3313],[-138.2377,59.4227],[-138.1573,59.4313],[-138.1185,59.4688],[-138.066,59.4831]]]},"properties":{"park":"glacier_bay","name":"Glacier Bay National Park","source":"iNaturalist place","place_id":69113,"source_url":"https://www.inaturalist.org/places/69113"}}