{"type":"Feature","geometry":{"type":"MultiPolygon","coordinates":[[[[-68.0314,44.3362],[-68.0299,44.3339],[-68.0325,44.3251],[-68.0355,44.333],[-68.0314,44.3362]]],[[[-68.0696,44.3935],[-68.0676,44.3938],[-68.0699,44.3914],[-68.0678,44.3886],[-68.062,44.3878],[-68.055,44.3823],[-68.0538,44.3895],[-68.0517,44.3898],[-68.0497,44.3844],[-68.043,44.3864],[-68.0422,44.385],[-68.0484,44.3821],[-68.0478,44.3809],[-68.0456,44.3812],[-68.0436,44.3779],[-68.0365,44.379],[-68.0361,44.3771],[-68.0425,44.3762],[-68.0419,44.3743],[-68.0433,44.374],[-68.0405,44.3646],[-68.0377,44.3639],[-68.0465,44.3595],[-68.0472,44.353],[-68.0435,44.3418],[-68.0449,44.3381],[-68.0534,44.3385],[-68.0602,44.3317],[-68.0679,44.3357],[-68.0686,44.3405],[-68.065,44.3407],[-68.0639,44.3414],[-68.0641,44.3429],[-68.0604,44.3425],[-68.0605,44.3437],[-68.0667,44.3436],[-68.0666,44.3457],[-68.0739,44.3454],[-68.0764,44.3473],[-68.0751,44.3519],[-68.0772,44.3557],[-68.0771,44.3739],[-68.0754,44.3763],[-68.0723,44.3743],[-68.073,44.3761],[-68.0713,44.3747],[-68.0702,44.3757],[-68.0726,44.3822],[-68.0723,44.3852],[-68.0754,44.391],[-68.0732,44.3911],[-68.0726,44.3898],[-68.0705,44.388],[-68.0685,44.38],[-68.0699,44.3755],[-68.0685,44.3782],[-68.0684,44.3809],[-68.0703,44.3881],[-68.0736,44.393],[-68.0696,44.3935]]],[[[-68.0397,44.3496],[-68.0411,44.349],[-68.0414,44.351],[-68.0401,44.3504],[-68.0397,44.3496]]],[[[-68.0515,44.3373],[-68.0503,44.335],[-68.0482,44.335],[-68.0476,44.3366],[-68.0455,44.3357],[-68.0495,44.3305],[-68.0523,44.3335],[-68.0517,44.3364],[-68.0528,44.3378],[-68.0515,44.3373]]],[[[-68.0651,44.3415],[-68.0658,44.3417],[-68.0658,44.3419],[-68.0649,44.3421],[-68.0651,44.3415]]],[[[-68.0669,44.3448],[-68.0669,44.3447],[-68.0672,44.345],[-68.0669,44.345],[-68.0669,44.3448]]],[[[-68.0674,44.3437],[-68.0675,44.3438],[-68.0675,44.3441],[-68.0673,44.344],[-68.0674,44.3437]]],[[[-68.0689,44.3443],[-68.0695,44.3406],[-68.0718,44.3417],[-68.0712,44.3432],[-68.0689,44.3443]]],[[[-68.0726,44.3792],[-68.0727,44.3795],[-68.0725,44.3796],[-68.0725,44.3792],[-68.0726,44.3792]]],[[[-68.0743,44.3822],[-68.0737,44.3824],[-68.0726,44.3804],[-68.0764,44.3817],[-68.0743,44.3822]]],[[[-68.0726,44.3799],[-68.0729,44.3801],[-68.0728,44.3802],[-68.0726,44.3802],[-68.0726,44.3799]]],[[[-68.0732,44.3453],[-68.0729,44.3453],[-68.0728,44.3451],[-68.0734,44.3452],[-68.0732,44.3453]]],[[[-68.0734,44.3852],[-68.0737,44.3854],[-68.0738,44.386],[-68.0735,44.3858],[-68.0734,44.3852]]],[[[-68.0738,44.3935],[-68.0752,44.3932],[-68.0753,44.3943],[-68.074,44.394],[-68.0738,44.3935]]],[[[-68.1549,44.4127],[-68.1555,44.4111],[-68.1567,44.4115],[-68.1568,44.4129],[-68.1549,44.4127]]],[[[-68.1573,44.409],[-68.1655,44.4008],[-68.1693,44.4031],[-68.16,44.4117],[-68.157,44.4111],[-68.1573,44.409]]],[[[-68.2436,44.3102],[-68.2448,44.31],[-68.2434,44.312],[-68.2464,44.3118],[-68.2467,44.3107],[-68.2425,44.3059],[-68.2409,44.299],[-68.2412,44.2963],[-68.2425,44.2961],[-68.2474,44.3106],[-68.2471,44.313],[-68.2504,44.3158],[-68.2555,44.3137],[-68.2613,44.3141],[-68.261,44.3114],[-68.2771,44.3092],[-68.2819,44.3125],[-68.284,44.3113],[-68.2827,44.3101],[-68.2837,44.309],[-68.2891,44.3074],[-68.2863,44.3101],[-68.2879,44.3131],[-68.2896,44.3127],[-68.2896,44.3144],[-68.2918,44.3083],[-68.2932,44.3085],[-68.2942,44.3116],[-68.3015,44.3118],[-68.3063,44.3172],[-68.3058,44.3322],[-68.3044,44.3326],[-68.3059,44.3339],[-68.3011,44.338],[-68.3046,44.3397],[-68.2976,44.3406],[-68.3009,44.3477],[-68.2958,44.3482],[-68.2939,44.3512],[-68.2947,44.3547],[-68.287,44.357],[-68.2883,44.3646],[-68.3074,44.3635],[-68.3096,44.3622],[-68.3097,44.3643],[-68.3145,44.365],[-68.3143,44.3697],[-68.3132,44.3699],[-68.319,44.3724],[-68.3165,44.3724],[-68.3165,44.3752],[-68.3093,44.3813],[-68.3058,44.3791],[-68.3025,44.3654],[-68.299,44.3655],[-68.2975,44.3689],[-68.296,44.3691],[-68.2951,44.3747],[-68.297,44.3751],[-68.2973,44.379],[-68.3015,44.3803],[-68.2957,44.3851],[-68.285,44.381],[-68.2897,44.3761],[-68.2814,44.3742],[-68.2788,44.3766],[-68.2738,44.3752],[-68.2726,44.3782],[-68.2763,44.381],[-68.2767,44.39],[-68.2782,44.3922],[-68.2766,44.3966],[-68.2798,44.3972],[-68.2771,44.4041],[-68.2863,44.4058],[-68.2856,44.4122],[-68.2799,44.413],[-68.2741,44.4116],[-68.272,44.4151],[-68.2692,44.4147],[-68.2681,44.4165],[-68.2649,44.4157],[-68.266,44.4138],[-68.2531,44.4108],[-68.2536,44.4102],[-68.2539,44.4084],[-68.2534,44.4064],[-68.255,44.403],[-68.2559,44.3982],[-68.2553,44.395],[-68.2544,44.3937],[-68.257,44.3877],[-68.2574,44.385],[-68.2557,44.379],[-68.2589,44.3761],[-68.2555,44.379],[-68.2572,44.3849],[-68.2541,44.3937],[-68.2556,44.3982],[-68.2531,44.4065],[-68.2534,44.4101],[-68.2491,44.4117],[-68.2369,44.4073],[-68.2312,44.3999],[-68.2265,44.3965],[-68.2283,44.3937],[-68.2252,44.3922],[-68.2266,44.3896],[-68.2238,44.3882],[-68.2257,44.3868],[-68.2263,44.3808],[-68.2242,44.3805],[-68.226,44.3785],[-68.2135,44.3762],[-68.2117,44.3715],[-68.2081,44.3709],[-68.2067,44.3711],[-68.2084,44.3736],[-68.2069,44.3755],[-68.2049,44.3711],[-68.2,44.3706],[-68.1998,44.3659],[-68.1975,44.3658],[-68.2016,44.3626],[-68.1992,44.3613],[-68.1926,44.3649],[-68.1913,44.3624],[-68.1841,44.3644],[-68.1822,44.3624],[-68.1836,44.357],[-68.1787,44.3473],[-68.1805,44.346],[-68.1792,44.3432],[-68.1805,44.3413],[-68.1776,44.3421],[-68.1756,44.3397],[-68.1746,44.3358],[-68.1768,44.3322],[-68.1735,44.3286],[-68.1775,44.3253],[-68.1791,44.3255],[-68.1805,44.329],[-68.1841,44.3288],[-68.186,44.3264],[-68.1865,44.3231],[-68.1909,44.3176],[-68.1907,44.3136],[-68.1886,44.3109],[-68.1891,44.3073],[-68.1937,44.3068],[-68.1938,44.3101],[-68.1983,44.3169],[-68.2,44.317],[-68.2006,44.3165],[-68.1993,44.312],[-68.1997,44.3083],[-68.2024,44.302],[-68.2061,44.3008],[-68.2081,44.298],[-68.2117,44.2983],[-68.2141,44.2964],[-68.2174,44.2994],[-68.2189,44.2985],[-68.2207,44.3041],[-68.2271,44.3044],[-68.227,44.3023],[-68.2306,44.3012],[-68.2352,44.3039],[-68.2368,44.3078],[-68.2448,44.3092],[-68.2436,44.3102]],[[-68.1846,44.355],[-68.1832,44.3555],[-68.1843,44.357],[-68.1854,44.3568],[-68.1846,44.355]],[[-68.1838,44.3524],[-68.1838,44.3524],[-68.1837,44.3524],[-68.1838,44.3524]],[[-68.2123,44.3128],[-68.2038,44.3155],[-68.2049,44.3192],[-68.2038,44.3215],[-68.2014,44.3196],[-68.2007,44.3167],[-68.1984,44.3184],[-68.2001,44.3203],[-68.1965,44.3219],[-68.1985,44.3281],[-68.2007,44.3289],[-68.2009,44.3309],[-68.1985,44.3317],[-68.2027,44.3373],[-68.207,44.3365],[-68.2072,44.3343],[-68.2054,44.3329],[-68.2086,44.3313],[-68.2087,44.3238],[-68.2154,44.323],[-68.2112,44.3168],[-68.211,44.3152],[-68.2137,44.3137],[-68.2123,44.3128]],[[-68.2003,44.3135],[-68.2003,44.3134],[-68.1999,44.3134],[-68.1999,44.3136],[-68.2003,44.3135]],[[-68.2004,44.3144],[-68.2004,44.3143],[-68.2003,44.3143],[-68.2003,44.3144],[-68.2004,44.3144]],[[-68.2125,44.3073],[-68.2108,44.3028],[-68.2096,44.3031],[-68.2111,44.3076],[-68.2125,44.3073]],[[-68.215,44.3758],[-68.2148,44.3752],[-68.2132,44.3749],[-68.2137,44.3759],[-68.215,44.3758]],[[-68.2357,44.391],[-68.2358,44.391],[-68.2361,44.3908],[-68.2357,44.3906],[-68.2357,44.391]],[[-68.2366,44.341],[-68.2385,44.3463],[-68.2406,44.3496],[-68.2395,44.3424],[-68.2366,44.341]],[[-68.2383,44.3746],[-68.2394,44.3752],[-68.241,44.3738],[-68.24,44.3732],[-68.2383,44.3746]],[[-68.2431,44.3983],[-68.24,44.3998],[-68.2398,44.4015],[-68.2424,44.4018],[-68.2461,44.3992],[-68.2431,44.3983]],[[-68.2424,44.3134],[-68.2425,44.3137],[-68.2437,44.3135],[-68.2436,44.3132],[-68.2424,44.3134]],[[-68.2516,44.35],[-68.2457,44.3539],[-68.2453,44.3609],[-68.2472,44.3676],[-68.2436,44.3746],[-68.2457,44.3763],[-68.2512,44.3759],[-68.2523,44.3773],[-68.2547,44.3634],[-68.2558,44.3636],[-68.2571,44.3605],[-68.2549,44.3583],[-68.253,44.3501],[-68.2516,44.35]],[[-68.2445,44.3147],[-68.2446,44.3154],[-68.2489,44.3149],[-68.2452,44.3142],[-68.2445,44.3147]],[[-68.2555,44.3245],[-68.2548,44.3221],[-68.25,44.3241],[-68.2522,44.3344],[-68.2593,44.3402],[-68.2605,44.3333],[-68.2571,44.331],[-68.2555,44.3245]],[[-68.2659,44.3857],[-68.2688,44.3863],[-68.27,44.3837],[-68.2671,44.383],[-68.2659,44.3857]],[[-68.2691,44.3934],[-68.2729,44.3945],[-68.2733,44.3938],[-68.2664,44.3917],[-68.2691,44.3934]],[[-68.2676,44.4051],[-68.2665,44.4055],[-68.2677,44.4087],[-68.2703,44.4104],[-68.2676,44.4051]],[[-68.2701,44.3774],[-68.2696,44.3786],[-68.272,44.3791],[-68.2727,44.3776],[-68.2701,44.3774]],[[-68.2739,44.3682],[-68.2725,44.3707],[-68.277,44.3724],[-68.2772,44.3683],[-68.2739,44.3682]],[[-68.2878,44.3183],[-68.285,44.3218],[-68.2891,44.3244],[-68.2898,44.3229],[-68.2878,44.3183]],[[-68.2894,44.382],[-68.2899,44.3821],[-68.2895,44.382],[-68.2894,44.382]],[[-68.29,44.3761],[-68.292,44.3765],[-68.2925,44.3753],[-68.2898,44.376],[-68.29,44.3761]],[[-68.2974,44.3384],[-68.2975,44.3385],[-68.2973,44.3379],[-68.2974,44.3384]],[[-68.3076,44.3646],[-68.3082,44.3648],[-68.3087,44.3641],[-68.3081,44.3639],[-68.3076,44.3646]]],[[[-68.1765,44.3629],[-68.1776,44.3637],[-68.1763,44.3643],[-68.176,44.3635],[-68.1765,44.3629]]],[[[-68.1816,44.3889],[-68.1783,44.3876],[-68.1819,44.3855],[-68.1845,44.3866],[-68.1816,44.3889]]],[[[-68.1942,44.3761],[-68.1917,44.3759],[-68.1904,44.3704],[-68.192,44.3686],[-68.1946,44.3691],[-68.1937,44.3716],[-68.1953,44.3707],[-68.1951,44.3725],[-68.1971,44.3726],[-68.198,44.3743],[-68.1942,44.3761]]],[[[-68.193,44.4015],[-68.1919,44.3989],[-68.1962,44.3998],[-68.1963,44.4011],[-68.193,44.4015]]],[[[-68.1956,44.2455],[-68.193,44.2392],[-68.199,44.2368],[-68.2033,44.2393],[-68.2042,44.2424],[-68.2031,44.245],[-68.1978,44.2467],[-68.1956,44.2455]],[[-68.2013,44.2425],[-68.2012,44.2423],[-68.201,44.2424],[-68.201,44.2426],[-68.2013,44.2425]],[[-68.2023,44.2433],[-68.2023,44.243],[-68.202,44.2431],[-68.2021,44.2434],[-68.2023,44.2433]],[[-68.2032,44.244],[-68.2031,44.2439],[-68.2029,44.244],[-68.2031,44.2441],[-68.2032,44.244]]],[[[-68.2033,44.3248],[-68.2006,44.3247],[-68.2006,44.3224],[-68.2038,44.3216],[-68.2046,44.3268],[-68.2033,44.3248]]],[[[-68.2046,44.4003],[-68.2017,44.3992],[-68.202,44.3972],[-68.2116,44.3967],[-68.2134,44.3988],[-68.2046,44.4003]]],[[[-68.2397,44.2618],[-68.2393,44.2616],[-68.2407,44.2607],[-68.2407,44.2612],[-68.2397,44.2618]]],[[[-68.2463,44.3555],[-68.2464,44.3553],[-68.2466,44.3555],[-68.2464,44.3556],[-68.2463,44.3555]]],[[[-68.2464,44.356],[-68.2466,44.356],[-68.2463,44.3562],[-68.2463,44.3561],[-68.2464,44.356]]],[[[-68.2465,44.3604],[-68.2467,44.3606],[-68.2466,44.3609],[-68.2465,44.3606],[-68.2465,44.3604]]],[[[-68.2694,44.2848],[-68.269,44.2826],[-68.2693,44.2824],[-68.2706,44.2834],[-68.2694,44.2848]]],[[[-68.2739,44.3686],[-68.2742,44.3687],[-68.2741,44.3691],[-68.2738,44.3689],[-68.2739,44.3686]]],[[[-68.2747,44.3687],[-68.2749,44.369],[-68.2744,44.369],[-68.2745,44.3689],[-68.2747,44.3687]]],[[[-68.2745,44.3684],[-68.2747,44.3684],[-68.2748,44.3685],[-68.2746,44.3686],[-68.2745,44.3684]]],[[[-68.275,44.3684],[-68.2752,44.3684],[-68.2753,44.3686],[-68.275,44.3685],[-68.275,44.3684]]],[[[-68.2759,44.3697],[-68.2763,44.3696],[-68.2762,44.3701],[-68.2761,44.3701],[-68.2759,44.3697]]],[[[-68.2763,44.3709],[-68.2768,44.3711],[-68.2768,44.3714],[-68.2765,44.3714],[-68.2763,44.3709]]],[[[-68.286,44.4167],[-68.2863,44.4215],[-68.2842,44.4231],[-68.2839,44.4168],[-68.286,44.4167]]],[[[-68.2969,44.4209],[-68.2953,44.4171],[-68.2956,44.4169],[-68.298,44.4179],[-68.2976,44.4217],[-68.2969,44.4209]]],[[[-68.3788,44.3525],[-68.3743,44.3498],[-68.3743,44.3444],[-68.3729,44.344],[-68.3761,44.3416],[-68.3752,44.3354],[-68.3786,44.3363],[-68.3799,44.333],[-68.3739,44.3296],[-68.3715,44.326],[-68.3707,44.3274],[-68.3671,44.3271],[-68.3684,44.3315],[-68.3706,44.3325],[-68.3689,44.3322],[-68.3657,44.3295],[-68.3666,44.3268],[-68.3642,44.3248],[-68.3644,44.3216],[-68.3577,44.3155],[-68.3545,44.3069],[-68.3546,44.3033],[-68.3522,44.3002],[-68.3503,44.2997],[-68.3473,44.3017],[-68.3516,44.3067],[-68.3519,44.315],[-68.3438,44.3168],[-68.3432,44.3217],[-68.3381,44.3235],[-68.338,44.3163],[-68.3336,44.3138],[-68.3339,44.3226],[-68.3353,44.3254],[-68.3333,44.3272],[-68.334,44.3298],[-68.3328,44.3279],[-68.3259,44.3296],[-68.3241,44.3261],[-68.3141,44.3267],[-68.3127,44.325],[-68.3119,44.3216],[-68.316,44.3183],[-68.3161,44.3137],[-68.3192,44.3102],[-68.3173,44.3076],[-68.3123,44.3068],[-68.3113,44.3045],[-68.3128,44.3015],[-68.3088,44.298],[-68.3129,44.3001],[-68.3169,44.2994],[-68.3174,44.299],[-68.3178,44.2985],[-68.3239,44.3031],[-68.3264,44.3012],[-68.3297,44.3038],[-68.3294,44.3014],[-68.3316,44.3031],[-68.3362,44.302],[-68.3382,44.2993],[-68.343,44.3],[-68.3446,44.2981],[-68.347,44.2981],[-68.3529,44.2907],[-68.3573,44.292],[-68.3529,44.2903],[-68.3548,44.2881],[-68.3563,44.2875],[-68.3591,44.2899],[-68.3611,44.2877],[-68.3535,44.2848],[-68.356,44.2826],[-68.3535,44.2812],[-68.3442,44.2856],[-68.3407,44.279],[-68.3422,44.2789],[-68.3404,44.2752],[-68.3472,44.2742],[-68.3467,44.2726],[-68.3496,44.2724],[-68.3487,44.269],[-68.3543,44.2719],[-68.3486,44.2678],[-68.3391,44.271],[-68.3398,44.26],[-68.3412,44.2599],[-68.3389,44.2543],[-68.3344,44.2562],[-68.335,44.2581],[-68.3293,44.2572],[-68.3274,44.2592],[-68.3218,44.2559],[-68.3234,44.2546],[-68.3159,44.2548],[-68.3154,44.2534],[-68.3182,44.2528],[-68.3154,44.2534],[-68.3127,44.2464],[-68.2985,44.2434],[-68.3021,44.2368],[-68.307,44.2373],[-68.3088,44.235],[-68.3085,44.2318],[-68.3123,44.2316],[-68.3111,44.228],[-68.316,44.2294],[-68.3157,44.2276],[-68.3181,44.2252],[-68.3224,44.2279],[-68.3214,44.229],[-68.3257,44.2309],[-68.3268,44.2274],[-68.3231,44.2276],[-68.3219,44.2246],[-68.3302,44.2249],[-68.3344,44.2217],[-68.3396,44.223],[-68.3415,44.2256],[-68.3303,44.2272],[-68.3327,44.2318],[-68.3272,44.2326],[-68.3362,44.2462],[-68.3387,44.2462],[-68.3405,44.2514],[-68.343,44.2534],[-68.341,44.2546],[-68.345,44.2566],[-68.3456,44.2545],[-68.3464,44.2557],[-68.3496,44.255],[-68.3504,44.2571],[-68.3492,44.2582],[-68.3521,44.2579],[-68.3526,44.2596],[-68.3492,44.2628],[-68.3573,44.2674],[-68.3564,44.2683],[-68.3634,44.2712],[-68.3661,44.267],[-68.363,44.2652],[-68.3657,44.2643],[-68.3648,44.2626],[-68.3678,44.2584],[-68.3721,44.2602],[-68.3734,44.2639],[-68.3703,44.266],[-68.3717,44.2667],[-68.3701,44.2692],[-68.3676,44.268],[-68.3657,44.2724],[-68.3676,44.2734],[-68.3724,44.2705],[-68.3749,44.271],[-68.3745,44.2727],[-68.3762,44.2742],[-68.3762,44.2712],[-68.3806,44.272],[-68.3797,44.2756],[-68.3963,44.2791],[-68.3954,44.2828],[-68.3916,44.282],[-68.3898,44.282],[-68.3915,44.2821],[-68.395,44.2829],[-68.3949,44.2832],[-68.3891,44.2832],[-68.3929,44.2871],[-68.3925,44.292],[-68.3949,44.2955],[-68.3935,44.3023],[-68.3958,44.3061],[-68.3944,44.3116],[-68.3978,44.3154],[-68.4007,44.3156],[-68.404,44.3164],[-68.3974,44.3158],[-68.3962,44.3239],[-68.3976,44.3297],[-68.3954,44.33],[-68.3958,44.3315],[-68.4045,44.3301],[-68.4041,44.3316],[-68.4088,44.3316],[-68.4088,44.3326],[-68.4073,44.3348],[-68.3964,44.3335],[-68.3865,44.3353],[-68.3878,44.3389],[-68.3829,44.3397],[-68.3849,44.3436],[-68.3803,44.3459],[-68.3823,44.3502],[-68.3841,44.3499],[-68.387,44.3524],[-68.3917,44.3522],[-68.3807,44.3551],[-68.3788,44.3525]],[[-68.3239,44.248],[-68.3231,44.2466],[-68.3218,44.247],[-68.3225,44.2484],[-68.3239,44.248]],[[-68.339,44.2524],[-68.3375,44.251],[-68.3361,44.2519],[-68.3397,44.2535],[-68.339,44.2524]],[[-68.3451,44.2614],[-68.3472,44.2613],[-68.3493,44.2608],[-68.3461,44.2596],[-68.3442,44.2601],[-68.3451,44.2614]],[[-68.3523,44.2985],[-68.3484,44.2969],[-68.3474,44.2982],[-68.3512,44.2999],[-68.3523,44.2985]],[[-68.3747,44.3215],[-68.3741,44.3211],[-68.3699,44.3248],[-68.3747,44.3215]],[[-68.3732,44.2747],[-68.3714,44.2745],[-68.3709,44.2756],[-68.3728,44.2759],[-68.3732,44.2747]],[[-68.3825,44.2802],[-68.3822,44.2799],[-68.3819,44.2802],[-68.3822,44.2804],[-68.3825,44.2802]]],[[[-68.3179,44.4259],[-68.3148,44.4206],[-68.3179,44.4185],[-68.3141,44.4167],[-68.3097,44.4208],[-68.307,44.4181],[-68.3102,44.4126],[-68.3136,44.4133],[-68.3192,44.4087],[-68.326,44.4203],[-68.3279,44.4212],[-68.3246,44.4233],[-68.324,44.422],[-68.3184,44.427],[-68.3179,44.4259]]],[[[-68.3172,44.2983],[-68.3177,44.2984],[-68.3172,44.2991],[-68.3171,44.2989],[-68.3172,44.2983]]],[[[-68.3226,44.3549],[-68.3238,44.3555],[-68.3235,44.3567],[-68.3221,44.3566],[-68.3226,44.3549]]],[[[-68.3259,44.4242],[-68.3261,44.4241],[-68.3269,44.4248],[-68.3253,44.4248],[-68.3259,44.4242]]],[[[-68.3338,44.3302],[-68.3352,44.3302],[-68.3355,44.331],[-68.3343,44.3313],[-68.3338,44.3302]]],[[[-68.3472,44.2536],[-68.3481,44.2523],[-68.3504,44.2527],[-68.3478,44.2542],[-68.3472,44.2536]]],[[[-68.3635,44.426],[-68.3654,44.4256],[-68.3634,44.4241],[-68.3584,44.4264],[-68.3576,44.4245],[-68.3562,44.4257],[-68.3541,44.4241],[-68.3599,44.4205],[-68.3631,44.4214],[-68.3661,44.4233],[-68.3654,44.4247],[-68.3676,44.4263],[-68.3676,44.4297],[-68.3635,44.426]]],[[[-68.374,44.3412],[-68.3745,44.3413],[-68.3744,44.3416],[-68.3738,44.3415],[-68.374,44.3412]]],[[[-68.3957,44.2835],[-68.396,44.2831],[-68.3967,44.2833],[-68.3965,44.2837],[-68.3957,44.2835]]],[[[-68.4007,44.293],[-68.4008,44.2914],[-68.3996,44.2864],[-68.401,44.2867],[-68.4023,44.292],[-68.4007,44.293]]],[[[-68.4722,44.1022],[-68.4703,44.1001],[-68.4727,44.0984],[-68.4776,44.1006],[-68.4777,44.1022],[-68.4722,44.1022]]],[[[-68.6124,44.0213],[-68.6105,44.014],[-68.6162,44.0097],[-68.6183,44.012],[-68.6188,44.0167],[-68.6169,44.0205],[-68.6124,44.0213]]],[[[-68.624,44.0556],[-68.6166,44.0515],[-68.6157,44.0523],[-68.6108,44.0477],[-68.6129,44.038],[-68.616,44.0374],[-68.6209,44.0268],[-68.627,44.0273],[-68.6259,44.0213],[-68.6311,44.0213],[-68.6288,44.0172],[-68.6351,44.0174],[-68.6347,44.019],[-68.6366,44.0197],[-68.6387,44.0186],[-68.6377,44.0172],[-68.6389,44.0157],[-68.6436,44.0167],[-68.6443,44.0149],[-68.6488,44.0149],[-68.6469,44.0127],[-68.6515,44.0102],[-68.6511,44.0075],[-68.6544,44.0064],[-68.6578,44.0097],[-68.6562,44.0108],[-68.657,44.0142],[-68.6609,44.0167],[-68.6589,44.0213],[-68.6598,44.0224],[-68.6552,44.028],[-68.6468,44.0284],[-68.6556,44.0299],[-68.6546,44.0307],[-68.656,44.0327],[-68.6534,44.0355],[-68.6536,44.0379],[-68.6516,44.0382],[-68.6497,44.0414],[-68.645,44.0414],[-68.6468,44.0439],[-68.646,44.0447],[-68.641,44.0465],[-68.6402,44.0449],[-68.6402,44.0498],[-68.6432,44.0523],[-68.6428,44.0543],[-68.6333,44.0647],[-68.6417,44.0693],[-68.6273,44.0615],[-68.6301,44.0588],[-68.624,44.0556]]],[[[-68.6565,44.0064],[-68.6534,44.0057],[-68.6526,44.0038],[-68.6572,44.004],[-68.6565,44.0064]]]]},"properties":{"park":"acadia","name":"Acadia National Park","source":"iNaturalist place","place_id":49610,"source_url":"https://www.inaturalist.org/places/49610"}}