{"type":"Feature","geometry":{"type":"Polygon","coordinates":[[[-114.4755,49.0009],[-113.6098,48.9981],[-113.6098,48.9327],[-113.4877,48.7851],[-113.437,48.7513],[-113.4299,48.7412],[-113.4226,48.7344],[-113.4232,48.7323],[-113.4213,48.7286],[-113.4227,48.726],[-113.4191,48.7177],[-113.4207,48.7146],[-113.4186,48.707],[-113.4206,48.701],[-113.4196,48.6963],[-113.4214,48.6935],[-113.4008,48.6647],[-113.3066,48.5092],[-113.242,48.4129],[-113.2502,48.4091],[-113.2592,48.3913],[-113.2749,48.3824],[-113.2826,48.3677],[-113.289,48.3625],[-113.2978,48.3584],[-113.3065,48.3509],[-113.3177,48.3468],[-113.3433,48.3266],[-113.3578,48.3174],[-113.3647,48.3113],[-113.3646,48.3056],[-113.3661,48.3034],[-113.3815,48.3015],[-113.3858,48.2977],[-113.3945,48.2941],[-113.4147,48.2968],[-113.4178,48.296],[-113.4202,48.2942],[-113.4205,48.2912],[-113.4303,48.2808],[-113.4522,48.2847],[-113.454,48.2835],[-113.4537,48.2814],[-113.4485,48.2774],[-113.4483,48.2757],[-113.4549,48.2718],[-113.4548,48.2672],[-113.4605,48.2619],[-113.4669,48.2612],[-113.4733,48.253],[-113.4743,48.2494],[-113.4899,48.2435],[-113.5086,48.2429],[-113.5189,48.2395],[-113.5309,48.2384],[-113.5506,48.2337],[-113.5643,48.2355],[-113.57,48.24],[-113.5682,48.2442],[-113.5715,48.2456],[-113.5738,48.2443],[-113.575,48.2456],[-113.5714,48.2552],[-113.5764,48.2567],[-113.5776,48.2611],[-113.5826,48.261],[-113.5869,48.2659],[-113.5941,48.2647],[-113.6002,48.266],[-113.6049,48.2696],[-113.6041,48.2755],[-113.6063,48.2797],[-113.6028,48.2825],[-113.5985,48.2824],[-113.5936,48.2878],[-113.5985,48.294],[-113.6041,48.2945],[-113.6065,48.2992],[-113.6128,48.3013],[-113.6088,48.3052],[-113.6109,48.308],[-113.6135,48.3088],[-113.6197,48.3158],[-113.6269,48.3178],[-113.625,48.3218],[-113.6301,48.3222],[-113.6263,48.3239],[-113.6264,48.3261],[-113.6303,48.3267],[-113.6338,48.3247],[-113.6355,48.3291],[-113.6404,48.3336],[-113.641,48.3359],[-113.6382,48.3416],[-113.6409,48.3448],[-113.6428,48.3514],[-113.6405,48.3542],[-113.6452,48.3561],[-113.6408,48.3575],[-113.641,48.3588],[-113.6504,48.3646],[-113.6585,48.3647],[-113.6592,48.3694],[-113.6609,48.3705],[-113.6708,48.37],[-113.67,48.3762],[-113.6725,48.3793],[-113.6757,48.3792],[-113.6781,48.3744],[-113.6805,48.3746],[-113.6807,48.3823],[-113.6848,48.3851],[-113.6824,48.3892],[-113.688,48.3899],[-113.6914,48.3924],[-113.6956,48.3907],[-113.6988,48.393],[-113.703,48.3917],[-113.7023,48.3951],[-113.706,48.3977],[-113.7067,48.4026],[-113.7116,48.4043],[-113.7146,48.4092],[-113.7201,48.4124],[-113.7225,48.4165],[-113.7239,48.4157],[-113.7297,48.4197],[-113.7335,48.4204],[-113.7579,48.4198],[-113.7662,48.4249],[-113.7871,48.4257],[-113.7937,48.4284],[-113.7966,48.4323],[-113.7952,48.4363],[-113.8035,48.4409],[-113.8037,48.443],[-113.7997,48.4474],[-113.8004,48.4499],[-113.8032,48.4511],[-113.8022,48.4556],[-113.811,48.4649],[-113.8184,48.4697],[-113.8171,48.4722],[-113.8182,48.4738],[-113.8395,48.4869],[-113.8495,48.4871],[-113.8525,48.4927],[-113.8566,48.4956],[-113.8621,48.4929],[-113.8682,48.4943],[-113.8767,48.4924],[-113.8892,48.4974],[-113.8945,48.4948],[-113.9097,48.4933],[-113.9159,48.4955],[-113.9182,48.5001],[-113.9252,48.4986],[-113.9328,48.5027],[-113.9448,48.5024],[-113.947,48.5013],[-113.9476,48.498],[-113.9527,48.4953],[-113.9618,48.4991],[-113.9742,48.5002],[-113.9872,48.498],[-113.9897,48.4988],[-113.9929,48.5056],[-114.0014,48.5083],[-114.0062,48.506],[-114.006,48.4972],[-114.0214,48.4908],[-114.0243,48.4862],[-114.0376,48.4855],[-114.0466,48.4799],[-114.053,48.478],[-114.0579,48.4729],[-114.0705,48.4677],[-114.0769,48.4716],[-114.0883,48.4702],[-114.0907,48.4717],[-114.0948,48.4824],[-114.1043,48.4853],[-114.1091,48.4892],[-114.1215,48.4888],[-114.1255,48.4905],[-114.1248,48.4934],[-114.1283,48.4989],[-114.1266,48.5065],[-114.131,48.5073],[-114.1366,48.506],[-114.1397,48.5085],[-114.1374,48.5111],[-114.1334,48.5105],[-114.1312,48.5141],[-114.1224,48.5213],[-114.1213,48.5227],[-114.1225,48.5261],[-114.1143,48.529],[-114.1186,48.5348],[-114.1134,48.5394],[-114.1147,48.5411],[-114.1186,48.5418],[-114.1193,48.5445],[-114.1251,48.548],[-114.1236,48.5535],[-114.1259,48.5563],[-114.1282,48.5701],[-114.1399,48.5772],[-114.1493,48.5776],[-114.1563,48.5799],[-114.1576,48.5855],[-114.1557,48.5885],[-114.1523,48.59],[-114.1517,48.5923],[-114.1672,48.5948],[-114.1605,48.6007],[-114.1623,48.604],[-114.1694,48.605],[-114.1715,48.6075],[-114.1707,48.6094],[-114.1568,48.6107],[-114.153,48.6125],[-114.1484,48.619],[-114.1378,48.6195],[-114.1445,48.6316],[-114.1599,48.6401],[-114.1572,48.6435],[-114.1534,48.6446],[-114.1541,48.6467],[-114.1717,48.6535],[-114.1732,48.6551],[-114.1732,48.6592],[-114.1812,48.6637],[-114.1886,48.6703],[-114.1889,48.6742],[-114.1948,48.6783],[-114.1871,48.6837],[-114.1871,48.6864],[-114.1945,48.6905],[-114.2082,48.6923],[-114.2065,48.7019],[-114.2095,48.7111],[-114.2173,48.7145],[-114.2254,48.7135],[-114.2454,48.7206],[-114.2493,48.72],[-114.2531,48.7234],[-114.2522,48.7276],[-114.2538,48.7302],[-114.2643,48.7325],[-114.2638,48.7436],[-114.2616,48.7492],[-114.266,48.7532],[-114.272,48.754],[-114.2772,48.7608],[-114.2769,48.768],[-114.2804,48.7819],[-114.2873,48.7883],[-114.291,48.7905],[-114.2951,48.7906],[-114.299,48.7942],[-114.3039,48.7935],[-114.3089,48.7968],[-114.3141,48.796],[-114.32,48.7984],[-114.3198,48.8028],[-114.3275,48.8077],[-114.3293,48.8164],[-114.3371,48.8172],[-114.3411,48.8209],[-114.3409,48.8246],[-114.3378,48.8279],[-114.3354,48.8344],[-114.344,48.8365],[-114.3481,48.8461],[-114.3529,48.8502],[-114.3528,48.8519],[-114.3475,48.8533],[-114.3473,48.8549],[-114.3549,48.8577],[-114.3667,48.857],[-114.3676,48.8594],[-114.3621,48.8638],[-114.3606,48.8703],[-114.3663,48.8749],[-114.3725,48.8744],[-114.3777,48.8807],[-114.3757,48.8825],[-114.3664,48.8833],[-114.3654,48.8852],[-114.3713,48.8902],[-114.3703,48.8945],[-114.3742,48.8971],[-114.3829,48.8978],[-114.3746,48.9086],[-114.3829,48.9093],[-114.3841,48.9113],[-114.3825,48.9131],[-114.3777,48.9142],[-114.3757,48.9169],[-114.3858,48.9181],[-114.3878,48.921],[-114.3855,48.9263],[-114.3919,48.9291],[-114.3941,48.9364],[-114.3973,48.9392],[-114.4037,48.9413],[-114.4099,48.941],[-114.4127,48.9517],[-114.4159,48.9531],[-114.4223,48.9524],[-114.4267,48.9543],[-114.4289,48.9585],[-114.4238,48.9608],[-114.4302,48.9618],[-114.4367,48.9694],[-114.446,48.9741],[-114.4466,48.9763],[-114.4533,48.9815],[-114.4523,48.9867],[-114.4653,48.9897],[-114.4662,48.9939],[-114.4755,49.0009]]]},"properties":{"park":"glacier","name":"Glacier National Park","source":"iNaturalist place","place_id":72841,"source_url":"https://www.inaturalist.org/places/72841"}}