{"type":"Feature","geometry":{"type":"MultiPolygon","coordinates":[[[[-81.5953,41.245],[-81.5938,41.2441],[-81.5939,41.2396],[-81.5983,41.2364],[-81.5974,41.2448],[-81.5953,41.245]]],[[[-81.6426,41.4158],[-81.6424,41.4141],[-81.6374,41.4108],[-81.6362,41.4108],[-81.6367,41.4102],[-81.6333,41.406],[-81.6331,41.4047],[-81.6339,41.4067],[-81.6364,41.4097],[-81.641,41.4129],[-81.6424,41.4129],[-81.6426,41.414],[-81.6483,41.4178],[-81.6434,41.4155],[-81.6397,41.4204],[-81.6426,41.4158]],[[-81.6433,41.4154],[-81.6443,41.4154],[-81.6426,41.4142],[-81.6433,41.4154]]],[[[-81.6322,41.3996],[-81.6312,41.3938],[-81.6247,41.3934],[-81.6249,41.392],[-81.6229,41.3896],[-81.6193,41.3859],[-81.6185,41.3863],[-81.6183,41.3853],[-81.6155,41.3835],[-81.6143,41.3839],[-81.6149,41.3834],[-81.6144,41.3823],[-81.6106,41.3829],[-81.6103,41.3801],[-81.6089,41.3788],[-81.609,41.3769],[-81.603,41.377],[-81.603,41.378],[-81.6013,41.3783],[-81.6015,41.3749],[-81.5991,41.3717],[-81.5969,41.3742],[-81.5955,41.3742],[-81.5955,41.3759],[-81.5928,41.3751],[-81.5892,41.376],[-81.588,41.3751],[-81.5867,41.3753],[-81.5867,41.3762],[-81.585,41.3765],[-81.585,41.3803],[-81.5809,41.3802],[-81.5775,41.3765],[-81.5754,41.3802],[-81.5696,41.3801],[-81.5696,41.3822],[-81.5675,41.3851],[-81.5654,41.3851],[-81.5655,41.3874],[-81.564,41.3874],[-81.564,41.385],[-81.5615,41.385],[-81.5614,41.382],[-81.5572,41.3843],[-81.5535,41.3895],[-81.5496,41.3914],[-81.5465,41.3909],[-81.5426,41.3921],[-81.5422,41.3914],[-81.5449,41.3904],[-81.5445,41.3899],[-81.5414,41.39],[-81.54,41.3885],[-81.5373,41.3889],[-81.5352,41.3858],[-81.5354,41.3848],[-81.5344,41.3843],[-81.5332,41.381],[-81.549,41.3707],[-81.5496,41.3688],[-81.5583,41.3688],[-81.5584,41.3702],[-81.5603,41.3702],[-81.5605,41.371],[-81.5654,41.371],[-81.5653,41.3598],[-81.5621,41.3564],[-81.5629,41.3556],[-81.5652,41.3557],[-81.5652,41.3509],[-81.5889,41.3512],[-81.5783,41.3438],[-81.5782,41.3341],[-81.5852,41.3345],[-81.586,41.333],[-81.5842,41.3322],[-81.5798,41.3326],[-81.5798,41.3299],[-81.5815,41.3299],[-81.5815,41.3271],[-81.5781,41.3269],[-81.5815,41.327],[-81.5815,41.325],[-81.578,41.325],[-81.578,41.3233],[-81.5796,41.3233],[-81.5794,41.3179],[-81.5779,41.3179],[-81.5781,41.3113],[-81.5758,41.3111],[-81.5758,41.3087],[-81.5719,41.3085],[-81.5706,41.308],[-81.5701,41.3067],[-81.5623,41.305],[-81.5608,41.3017],[-81.5549,41.3016],[-81.5548,41.2943],[-81.5539,41.2943],[-81.5513,41.291],[-81.5523,41.2904],[-81.5541,41.2913],[-81.5586,41.2906],[-81.5586,41.2895],[-81.552,41.29],[-81.5456,41.2924],[-81.5346,41.2784],[-81.541,41.2733],[-81.5427,41.2728],[-81.5426,41.2719],[-81.5477,41.2685],[-81.549,41.2665],[-81.5555,41.2633],[-81.5587,41.2607],[-81.5527,41.2623],[-81.552,41.2634],[-81.5499,41.2638],[-81.5474,41.2664],[-81.5452,41.2673],[-81.5454,41.268],[-81.5418,41.2713],[-81.5404,41.2717],[-81.5379,41.2746],[-81.5347,41.2737],[-81.5334,41.2744],[-81.5308,41.2737],[-81.5297,41.2705],[-81.5288,41.2705],[-81.5206,41.2581],[-81.5386,41.2572],[-81.5508,41.2591],[-81.5516,41.2578],[-81.5565,41.2563],[-81.5562,41.2558],[-81.5515,41.2572],[-81.5501,41.2563],[-81.5452,41.2558],[-81.545,41.2564],[-81.5375,41.2558],[-81.5201,41.2572],[-81.5095,41.2415],[-81.4925,41.2305],[-81.4911,41.228],[-81.5005,41.2281],[-81.4975,41.2265],[-81.4976,41.2201],[-81.5049,41.2201],[-81.5049,41.218],[-81.5018,41.218],[-81.5018,41.2133],[-81.5049,41.2133],[-81.5051,41.2032],[-81.4958,41.2038],[-81.4961,41.203],[-81.5262,41.2029],[-81.5263,41.1978],[-81.5361,41.1979],[-81.536,41.1943],[-81.5394,41.194],[-81.5395,41.1918],[-81.5421,41.1921],[-81.5416,41.1881],[-81.5363,41.1843],[-81.5364,41.1714],[-81.5358,41.1704],[-81.5364,41.1649],[-81.5414,41.1649],[-81.5467,41.1636],[-81.5506,41.1655],[-81.5528,41.1657],[-81.5567,41.1632],[-81.5568,41.1649],[-81.5604,41.1633],[-81.5653,41.164],[-81.5741,41.1624],[-81.5719,41.1574],[-81.5747,41.1574],[-81.5744,41.1566],[-81.5679,41.149],[-81.566,41.1453],[-81.5649,41.1407],[-81.563,41.1384],[-81.5531,41.134],[-81.5449,41.1328],[-81.5417,41.1315],[-81.5396,41.1294],[-81.5354,41.1214],[-81.5299,41.1174],[-81.5288,41.1143],[-81.531,41.1048],[-81.5309,41.1011],[-81.5212,41.0918],[-81.5162,41.0897],[-81.5214,41.0917],[-81.5307,41.1004],[-81.5317,41.1024],[-81.5292,41.1133],[-81.5295,41.116],[-81.5305,41.1177],[-81.5356,41.1212],[-81.5408,41.1306],[-81.5454,41.1327],[-81.5539,41.134],[-81.5624,41.1377],[-81.5651,41.1406],[-81.5662,41.1454],[-81.5681,41.149],[-81.5872,41.1492],[-81.5871,41.1609],[-81.5915,41.1622],[-81.5971,41.1611],[-81.5971,41.1731],[-81.5935,41.1736],[-81.5924,41.1791],[-81.5954,41.1826],[-81.5973,41.1826],[-81.5973,41.1899],[-81.6008,41.1896],[-81.6013,41.1917],[-81.6061,41.1917],[-81.6061,41.2026],[-81.6086,41.2026],[-81.6086,41.2079],[-81.6066,41.2133],[-81.6065,41.2174],[-81.6134,41.2173],[-81.6132,41.2208],[-81.6104,41.2208],[-81.6103,41.2316],[-81.6031,41.2328],[-81.602,41.234],[-81.5947,41.2373],[-81.5907,41.2428],[-81.5876,41.2444],[-81.5873,41.2454],[-81.5894,41.2455],[-81.5877,41.2486],[-81.5822,41.2513],[-81.5764,41.2512],[-81.5764,41.2486],[-81.5841,41.2471],[-81.5833,41.2419],[-81.5798,41.2429],[-81.5747,41.2429],[-81.5747,41.239],[-81.5512,41.2388],[-81.5505,41.2417],[-81.5551,41.2456],[-81.556,41.2467],[-81.5561,41.2485],[-81.5573,41.2485],[-81.5563,41.2544],[-81.557,41.2561],[-81.5718,41.2532],[-81.5843,41.2533],[-81.5661,41.2562],[-81.5607,41.2583],[-81.5603,41.2594],[-81.5587,41.2602],[-81.559,41.2606],[-81.5602,41.2601],[-81.5607,41.2606],[-81.5656,41.2577],[-81.5741,41.2556],[-81.5835,41.2548],[-81.5855,41.2555],[-81.5827,41.2557],[-81.5826,41.2564],[-81.5871,41.2571],[-81.5871,41.2552],[-81.5898,41.2545],[-81.5959,41.2563],[-81.5908,41.2567],[-81.5908,41.2622],[-81.5958,41.2622],[-81.596,41.2777],[-81.5968,41.2777],[-81.5968,41.2822],[-81.5943,41.2853],[-81.5912,41.2868],[-81.5937,41.2932],[-81.6124,41.2938],[-81.6123,41.2991],[-81.6172,41.2991],[-81.6171,41.3004],[-81.6268,41.3003],[-81.6267,41.311],[-81.6239,41.311],[-81.624,41.3187],[-81.6232,41.3187],[-81.6231,41.3199],[-81.6202,41.3202],[-81.6099,41.3252],[-81.6089,41.3249],[-81.6083,41.3232],[-81.5998,41.319],[-81.597,41.3208],[-81.5935,41.3211],[-81.5927,41.322],[-81.5886,41.3214],[-81.5911,41.3232],[-81.5923,41.3232],[-81.5941,41.3252],[-81.5945,41.3271],[-81.5958,41.3274],[-81.5949,41.3274],[-81.5948,41.3296],[-81.5914,41.3337],[-81.5905,41.3371],[-81.6002,41.3371],[-81.6048,41.3396],[-81.6047,41.3406],[-81.6063,41.3406],[-81.6052,41.3436],[-81.6025,41.3457],[-81.6024,41.3497],[-81.6035,41.3512],[-81.6089,41.3512],[-81.6095,41.3521],[-81.609,41.3548],[-81.6114,41.3548],[-81.6129,41.3526],[-81.6148,41.3528],[-81.6155,41.3609],[-81.6136,41.3642],[-81.614,41.3658],[-81.6229,41.3662],[-81.6239,41.3671],[-81.6249,41.3712],[-81.6268,41.37],[-81.6337,41.3706],[-81.6342,41.3741],[-81.6324,41.374],[-81.6324,41.375],[-81.6365,41.3751],[-81.6371,41.3769],[-81.6343,41.3769],[-81.6344,41.3805],[-81.6331,41.3805],[-81.6332,41.3832],[-81.6328,41.3805],[-81.6265,41.3815],[-81.6272,41.382],[-81.6266,41.3824],[-81.6281,41.3829],[-81.6286,41.3842],[-81.6322,41.3841],[-81.6324,41.3859],[-81.6337,41.3865],[-81.6365,41.3865],[-81.6379,41.3928],[-81.6393,41.3928],[-81.6387,41.3938],[-81.6314,41.3933],[-81.6322,41.3996]],[[-81.5488,41.2439],[-81.5496,41.2379],[-81.5484,41.2378],[-81.5482,41.2396],[-81.5463,41.2395],[-81.5431,41.2412],[-81.5443,41.245],[-81.5458,41.245],[-81.549,41.2466],[-81.5488,41.2439]],[[-81.5496,41.2414],[-81.5493,41.2426],[-81.5502,41.2407],[-81.5504,41.2373],[-81.5496,41.2414]],[[-81.572,41.367],[-81.5749,41.3664],[-81.5749,41.3619],[-81.5801,41.3619],[-81.5834,41.3657],[-81.5949,41.3657],[-81.5949,41.3629],[-81.5958,41.3629],[-81.5958,41.3612],[-81.5949,41.3558],[-81.5912,41.3536],[-81.5884,41.3539],[-81.5841,41.3566],[-81.5822,41.3562],[-81.5822,41.3547],[-81.5781,41.354],[-81.5755,41.3552],[-81.5746,41.357],[-81.5708,41.3568],[-81.5708,41.3581],[-81.5678,41.3581],[-81.5668,41.3656],[-81.5677,41.3656],[-81.5688,41.3682],[-81.572,41.367]],[[-81.576,41.1791],[-81.5775,41.1789],[-81.5759,41.1767],[-81.5727,41.1748],[-81.5721,41.1769],[-81.5683,41.1785],[-81.5692,41.1795],[-81.5723,41.1793],[-81.5723,41.1799],[-81.5754,41.1804],[-81.576,41.1791]]],[[[-81.6211,41.262],[-81.6142,41.2619],[-81.6142,41.2581],[-81.6169,41.2581],[-81.617,41.2559],[-81.6215,41.256],[-81.6215,41.2541],[-81.6083,41.2539],[-81.6084,41.2545],[-81.6041,41.2548],[-81.6042,41.2556],[-81.6084,41.2557],[-81.5987,41.2557],[-81.5877,41.2522],[-81.5907,41.2455],[-81.5985,41.2448],[-81.5983,41.2526],[-81.6018,41.2526],[-81.6018,41.2451],[-81.601,41.2452],[-81.601,41.2445],[-81.6027,41.2443],[-81.6028,41.2539],[-81.6083,41.2535],[-81.6082,41.2459],[-81.6131,41.2429],[-81.6142,41.2434],[-81.6144,41.2421],[-81.613,41.241],[-81.6121,41.2417],[-81.6105,41.241],[-81.6081,41.242],[-81.608,41.2437],[-81.6079,41.2402],[-81.6049,41.2404],[-81.6049,41.2349],[-81.6102,41.2328],[-81.6124,41.234],[-81.6124,41.2347],[-81.6159,41.2359],[-81.6149,41.2365],[-81.6158,41.2375],[-81.617,41.237],[-81.6178,41.2376],[-81.6159,41.2384],[-81.616,41.2398],[-81.6181,41.2399],[-81.6181,41.2425],[-81.621,41.2425],[-81.6211,41.2459],[-81.6249,41.2465],[-81.6253,41.2454],[-81.6253,41.2465],[-81.6285,41.2465],[-81.6299,41.2541],[-81.6313,41.2574],[-81.6308,41.2601],[-81.6293,41.2623],[-81.6211,41.262]]],[[[-81.6297,41.2624],[-81.6325,41.2596],[-81.6339,41.2624],[-81.6297,41.2624]]],[[[-81.6409,41.2763],[-81.6386,41.2758],[-81.6386,41.2741],[-81.6373,41.2732],[-81.637,41.2668],[-81.6339,41.2599],[-81.6351,41.259],[-81.6343,41.2579],[-81.6328,41.2577],[-81.6309,41.2532],[-81.6345,41.2531],[-81.6341,41.2563],[-81.6364,41.258],[-81.6399,41.2666],[-81.6471,41.2774],[-81.6426,41.2774],[-81.6409,41.2763]]],[[[-81.6291,41.3946],[-81.6295,41.3943],[-81.6293,41.3963],[-81.6291,41.3946]]]]},"properties":{"park":"cuyahoga_valley","name":"Cuyahoga Valley National Park","source":"iNaturalist place","place_id":72639,"source_url":"https://www.inaturalist.org/places/72639"}}