{"type":"Feature","geometry":{"type":"MultiPolygon","coordinates":[[[[-109.7746,38.5075],[-109.7697,38.5063],[-109.771,38.5018],[-109.7689,38.5008],[-109.7721,38.4962],[-109.7714,38.4459],[-109.7649,38.4459],[-109.7604,38.4407],[-109.7529,38.4355],[-109.7352,38.4282],[-109.7321,38.4227],[-109.7397,38.4169],[-109.7255,38.4169],[-109.7255,38.3445],[-109.753,38.3445],[-109.7531,38.2937],[-109.7806,38.2938],[-109.7805,38.2575],[-109.7897,38.2575],[-109.789,38.2064],[-109.7798,38.2064],[-109.7798,38.1992],[-109.7616,38.1992],[-109.7616,38.1848],[-109.7432,38.1848],[-109.7432,38.1703],[-109.7065,38.1703],[-109.7065,38.1269],[-109.6823,38.1269],[-109.6822,38.0179],[-109.6639,38.0179],[-109.6639,37.9927],[-109.6651,37.9941],[-109.6677,37.9913],[-109.6722,37.9905],[-109.6738,37.9831],[-109.6745,37.9726],[-109.6677,37.9688],[-109.6694,37.9642],[-109.6742,37.9657],[-109.6798,37.965],[-109.6818,37.9665],[-109.6891,37.9648],[-109.6934,37.9663],[-109.691,37.9713],[-109.6993,37.9666],[-109.7078,37.9648],[-109.7105,37.9662],[-109.7124,37.9698],[-109.7156,37.971],[-109.716,37.9755],[-109.7217,37.9806],[-109.7238,37.9805],[-109.7244,37.9789],[-109.7182,37.9723],[-109.7185,37.9679],[-109.7083,37.9599],[-109.7369,37.9599],[-109.7369,37.9672],[-109.7461,37.9671],[-109.7461,37.9744],[-109.7731,37.9744],[-109.7731,38.0034],[-109.7914,38.0034],[-109.7914,38.0323],[-109.8097,38.0323],[-109.8098,38.0615],[-110.0386,38.0612],[-110.0386,38.0758],[-110.1024,38.0758],[-110.1024,38.1048],[-110.0664,38.1047],[-110.0664,38.1517],[-110.0517,38.1517],[-110.0516,38.2603],[-110.0332,38.2603],[-110.0332,38.2676],[-110.0149,38.2676],[-110.0149,38.2748],[-109.9965,38.2748],[-109.9965,38.2783],[-109.9783,38.2781],[-109.9783,38.2821],[-109.96,38.2821],[-109.96,38.3111],[-109.9784,38.3111],[-109.9783,38.34],[-109.9965,38.34],[-109.9964,38.3618],[-110.024,38.3618],[-110.024,38.3763],[-110.0517,38.3763],[-110.0517,38.4631],[-110.0148,38.463],[-110.0146,38.4894],[-110.0254,38.5],[-109.9762,38.4999],[-109.9762,38.4906],[-109.9701,38.4932],[-109.9632,38.4929],[-109.9646,38.4909],[-109.963,38.49],[-109.968,38.4875],[-109.9709,38.4841],[-109.9613,38.481],[-109.9585,38.4829],[-109.958,38.4856],[-109.9538,38.4875],[-109.9513,38.4863],[-109.9513,38.4845],[-109.9477,38.4849],[-109.9462,38.4833],[-109.9458,38.4817],[-109.949,38.4792],[-109.9412,38.4822],[-109.9388,38.4856],[-109.9406,38.4893],[-109.9386,38.4918],[-109.9349,38.4925],[-109.9324,38.4882],[-109.9236,38.4936],[-109.9146,38.4961],[-109.911,38.5009],[-109.9068,38.5023],[-109.9086,38.4993],[-109.9073,38.4967],[-109.9098,38.4929],[-109.9132,38.4921],[-109.9118,38.4895],[-109.9234,38.4868],[-109.9326,38.4801],[-109.9212,38.4813],[-109.9215,38.4795],[-109.9144,38.4825],[-109.9071,38.4822],[-109.8974,38.4849],[-109.8949,38.4831],[-109.8884,38.4837],[-109.884,38.4864],[-109.8853,38.4822],[-109.8673,38.4822],[-109.8641,38.4853],[-109.8522,38.4909],[-109.8485,38.489],[-109.8407,38.4906],[-109.7941,38.4907],[-109.7958,38.4943],[-109.7941,38.496],[-109.7943,38.5003],[-109.7907,38.5016],[-109.7892,38.5043],[-109.7825,38.4964],[-109.7781,38.5053],[-109.7746,38.5075]]],[[[-110.1896,38.4705],[-110.1896,38.4415],[-110.2168,38.4415],[-110.2168,38.427],[-110.2352,38.427],[-110.2352,38.4488],[-110.2168,38.4487],[-110.2168,38.4632],[-110.208,38.4632],[-110.208,38.4705],[-110.1988,38.4705],[-110.1988,38.4777],[-110.1896,38.4777],[-110.1896,38.485],[-110.1804,38.485],[-110.1804,38.4705],[-110.1896,38.4705]]]]},"properties":{"park":"canyonlands","name":"Canyonlands National Park","source":"iNaturalist place","place_id":95131,"source_url":"https://www.inaturalist.org/places/95131"}}