{"type":"Feature","geometry":{"type":"MultiPolygon","coordinates":[[[[-86.1723,37.1675],[-86.1864,37.1689],[-86.19,37.1681],[-86.1939,37.1687],[-86.1922,37.1738],[-86.1957,37.1748],[-86.195,37.1759],[-86.1981,37.1769],[-86.1951,37.1788],[-86.1984,37.1808],[-86.1972,37.1827],[-86.1979,37.185],[-86.2103,37.1855],[-86.2093,37.1876],[-86.2187,37.1869],[-86.2203,37.1894],[-86.2245,37.1928],[-86.2244,37.1947],[-86.2259,37.1958],[-86.2285,37.1948],[-86.229,37.1919],[-86.2309,37.1915],[-86.2309,37.193],[-86.2338,37.1935],[-86.2367,37.1921],[-86.2366,37.1905],[-86.2494,37.1931],[-86.2489,37.1959],[-86.2496,37.1966],[-86.2521,37.1962],[-86.2525,37.1983],[-86.255,37.1999],[-86.2552,37.2014],[-86.2577,37.2017],[-86.2576,37.2037],[-86.2583,37.2037],[-86.2594,37.2063],[-86.266,37.2108],[-86.267,37.2132],[-86.2657,37.2155],[-86.2636,37.2165],[-86.2644,37.22],[-86.2529,37.2208],[-86.258,37.227],[-86.2558,37.2272],[-86.2501,37.2256],[-86.2499,37.2275],[-86.2515,37.2287],[-86.2498,37.2296],[-86.2497,37.232],[-86.2475,37.2342],[-86.2493,37.2349],[-86.2566,37.2326],[-86.2578,37.2334],[-86.2575,37.2345],[-86.2591,37.2374],[-86.2537,37.2467],[-86.2493,37.2475],[-86.2478,37.2488],[-86.2498,37.2493],[-86.2479,37.2546],[-86.2506,37.2545],[-86.2515,37.2555],[-86.2512,37.2567],[-86.2535,37.2557],[-86.2534,37.2582],[-86.2546,37.2589],[-86.2509,37.2637],[-86.2497,37.2673],[-86.2456,37.2662],[-86.2435,37.2664],[-86.2433,37.265],[-86.242,37.2648],[-86.2411,37.2679],[-86.2392,37.2705],[-86.2376,37.2702],[-86.2373,37.264],[-86.2297,37.2654],[-86.2277,37.265],[-86.2266,37.2625],[-86.2247,37.263],[-86.2227,37.2625],[-86.2218,37.259],[-86.2296,37.2538],[-86.2289,37.2522],[-86.226,37.2529],[-86.225,37.2503],[-86.2271,37.2492],[-86.2272,37.2483],[-86.2254,37.2459],[-86.2265,37.2448],[-86.2253,37.2426],[-86.2262,37.2407],[-86.2282,37.2394],[-86.228,37.2381],[-86.2265,37.2385],[-86.2262,37.2371],[-86.2226,37.2379],[-86.2171,37.2407],[-86.2098,37.2381],[-86.2012,37.2403],[-86.1971,37.2446],[-86.1925,37.2458],[-86.1952,37.2481],[-86.1947,37.2492],[-86.19,37.2466],[-86.1877,37.248],[-86.1842,37.2488],[-86.1837,37.2483],[-86.181,37.2512],[-86.1779,37.2504],[-86.1769,37.2517],[-86.1743,37.2516],[-86.1757,37.2536],[-86.1727,37.2557],[-86.1696,37.2529],[-86.1699,37.2519],[-86.1653,37.2509],[-86.1667,37.2459],[-86.1645,37.2442],[-86.1614,37.2459],[-86.1582,37.2463],[-86.1578,37.2467],[-86.1588,37.2483],[-86.1559,37.2498],[-86.1583,37.2507],[-86.1586,37.256],[-86.1561,37.2562],[-86.1556,37.2551],[-86.1471,37.2581],[-86.1482,37.2602],[-86.1419,37.2594],[-86.1383,37.2575],[-86.1454,37.257],[-86.15,37.2516],[-86.1447,37.2485],[-86.1454,37.2473],[-86.1431,37.2457],[-86.1423,37.2437],[-86.1429,37.2399],[-86.1397,37.24],[-86.1397,37.2356],[-86.1322,37.2353],[-86.1321,37.2338],[-86.1259,37.2329],[-86.1252,37.2336],[-86.1244,37.2389],[-86.1226,37.239],[-86.1226,37.2399],[-86.121,37.2405],[-86.116,37.2394],[-86.1156,37.2422],[-86.1138,37.2419],[-86.1108,37.243],[-86.1049,37.2336],[-86.1021,37.2344],[-86.1018,37.2352],[-86.1001,37.2349],[-86.1001,37.2357],[-86.0983,37.2356],[-86.0953,37.2335],[-86.0936,37.2333],[-86.0922,37.2368],[-86.0886,37.2328],[-86.0836,37.2336],[-86.079,37.2333],[-86.0782,37.234],[-86.0784,37.2349],[-86.0768,37.2358],[-86.0772,37.2386],[-86.0752,37.2394],[-86.0708,37.243],[-86.0653,37.2438],[-86.0631,37.252],[-86.0587,37.2601],[-86.0522,37.2618],[-86.0507,37.2635],[-86.0426,37.2659],[-86.0428,37.2647],[-86.0395,37.2657],[-86.0377,37.2679],[-86.0341,37.2689],[-86.0301,37.2641],[-86.0254,37.2649],[-86.0257,37.2615],[-86.0297,37.257],[-86.0279,37.2546],[-86.0266,37.2499],[-86.0276,37.2499],[-86.0282,37.2435],[-86.0303,37.2403],[-86.031,37.2373],[-86.03,37.2345],[-86.0313,37.2334],[-86.0305,37.2304],[-86.0307,37.2292],[-86.0318,37.2286],[-86.0306,37.2227],[-86.0289,37.2221],[-86.0263,37.2193],[-86.0266,37.2178],[-86.0238,37.2142],[-86.0246,37.2137],[-86.0243,37.2111],[-86.0275,37.2062],[-86.0279,37.2031],[-86.0314,37.2025],[-86.034,37.2007],[-86.0348,37.1987],[-86.0387,37.1971],[-86.0425,37.1979],[-86.0453,37.196],[-86.0489,37.1899],[-86.0491,37.1892],[-86.0466,37.1883],[-86.0494,37.1828],[-86.0482,37.1807],[-86.0478,37.1774],[-86.0437,37.175],[-86.0425,37.1692],[-86.039,37.1671],[-86.0403,37.1626],[-86.0372,37.1619],[-86.0373,37.1607],[-86.0311,37.1602],[-86.0306,37.1596],[-86.0354,37.1582],[-86.0417,37.1587],[-86.0432,37.1576],[-86.0434,37.1555],[-86.0467,37.1524],[-86.0439,37.1513],[-86.0474,37.1466],[-86.0464,37.1465],[-86.0464,37.1448],[-86.0484,37.143],[-86.0488,37.1414],[-86.0481,37.1411],[-86.05,37.1348],[-86.0512,37.1356],[-86.0546,37.1335],[-86.0562,37.1339],[-86.0525,37.132],[-86.0553,37.1279],[-86.0564,37.128],[-86.0564,37.1273],[-86.0601,37.1281],[-86.0603,37.1307],[-86.0618,37.1301],[-86.0618,37.1284],[-86.065,37.1287],[-86.0647,37.1235],[-86.063,37.1174],[-86.0643,37.1171],[-86.0635,37.1145],[-86.062,37.1147],[-86.0615,37.1072],[-86.0588,37.1025],[-86.0571,37.1021],[-86.0571,37.0989],[-86.0585,37.0983],[-86.0592,37.0988],[-86.0605,37.0974],[-86.0619,37.0987],[-86.0625,37.1011],[-86.0641,37.1011],[-86.0641,37.1041],[-86.0655,37.1079],[-86.0656,37.1132],[-86.0687,37.1252],[-86.0808,37.1243],[-86.0977,37.126],[-86.0988,37.1236],[-86.1114,37.123],[-86.1117,37.1272],[-86.1135,37.1274],[-86.1129,37.1313],[-86.1241,37.1321],[-86.1235,37.1289],[-86.1263,37.1291],[-86.1262,37.1263],[-86.1309,37.1249],[-86.1324,37.1274],[-86.1345,37.126],[-86.135,37.1243],[-86.1374,37.1243],[-86.1417,37.1221],[-86.1435,37.1221],[-86.142,37.1245],[-86.1436,37.1253],[-86.1451,37.1249],[-86.1452,37.1292],[-86.1483,37.1331],[-86.1437,37.1345],[-86.144,37.1356],[-86.1461,37.1361],[-86.1462,37.1379],[-86.1474,37.139],[-86.1495,37.1392],[-86.1528,37.1385],[-86.1559,37.1339],[-86.1557,37.1315],[-86.158,37.1307],[-86.1601,37.1287],[-86.1602,37.1311],[-86.1588,37.1332],[-86.1597,37.1364],[-86.1591,37.1413],[-86.1612,37.1431],[-86.1592,37.1467],[-86.1608,37.1496],[-86.1624,37.149],[-86.1623,37.1506],[-86.1609,37.1578],[-86.1587,37.1602],[-86.1601,37.1611],[-86.1604,37.1599],[-86.1615,37.162],[-86.1655,37.1623],[-86.1667,37.1635],[-86.1649,37.1643],[-86.1654,37.1654],[-86.1723,37.1675]]]]},"properties":{"park":"mammoth_cave","name":"Mammoth Cave National Park","source":"iNaturalist place","place_id":72649,"source_url":"https://www.inaturalist.org/places/72649"}}