{"type":"FeatureCollection","features":[{"type":"Feature","geometry":{"type":"Polygon","coordinates":[[[-86.1029,37.18435],[-86.10143,37.18559],[-86.10207,37.18734],[-86.10418,37.18786],[-86.10565,37.18662],[-86.10501,37.18487],[-86.1029,37.18435]]]},"properties":{"cell":"89266b84b13ffff","res":9,"coarsened":false,"count":129,"hv":129,"mp":0,"y0":2007,"y1":2026,"sp":[[3,30,30,0,2018,2025],[2,24,24,0,2017,2025],[4,21,21,0,2017,2026],[30,7,7,0,2019,2026],[12,7,7,0,2021,2026],[32,5,5,0,2014,2024],[52,3,3,0,2019,2026],[35,3,3,0,2022,2026],[0,2,2,0,2011,2023],[28,2,2,0,2019,2024],[55,2,2,0,2021,2024],[66,2,2,0,2021,2022],[85,2,2,0,2022,2026],[45,2,2,0,2023,2024],[88,2,2,0,2024,2026],[42,2,2,0,2025,2026],[1,1,1,0,2011,2011],[22,1,1,0,2017,2017],[5,1,1,0,2014,2014],[29,1,1,0,2019,2019],[15,1,1,0,2019,2019],[63,1,1,0,2007,2007],[24,1,1,0,2023,2023],[14,1,1,0,2023,2023],[48,1,1,0,2024,2024],[64,1,1,0,2026,2026],[43,1,1,0,2026,2026],[41,1,1,0,2024,2024],[37,1,1,0,2024,2024]]}},{"type":"Feature","geometry":{"type":"Polygon","coordinates":[[[-86.10374,37.18136],[-86.10226,37.18259],[-86.1029,37.18435],[-86.10501,37.18487],[-86.10648,37.18363],[-86.10584,37.18187],[-86.10374,37.18136]]]},"properties":{"cell":"89266b84b03ffff","res":9,"coarsened":false,"count":10,"hv":10,"mp":0,"y0":2008,"y1":2025,"sp":[[2,4,4,0,2008,2025],[4,2,2,0,2023,2023],[18,1,1,0,2018,2018],[45,1,1,0,2021,2021],[32,1,1,0,2021,2021],[23,1,1,0,2025,2025]]}},{"type":"Feature","geometry":{"type":"Polygon","coordinates":[[[-86.09932,37.18507],[-86.09785,37.18631],[-86.09849,37.18806],[-86.10059,37.18858],[-86.10207,37.18734],[-86.10143,37.18559],[-86.09932,37.18507]]]},"properties":{"cell":"89266b84b8fffff","res":9,"coarsened":false,"count":379,"hv":379,"mp":0,"y0":2006,"y1":2026,"sp":[[85,54,54,0,2022,2026],[29,40,40,0,2019,2026],[2,37,37,0,2006,2026],[3,29,29,0,2015,2026],[4,22,22,0,2017,2026],[12,20,20,0,2014,2026],[33,11,11,0,2019,2026],[14,10,10,0,2014,2026],[32,9,9,0,2023,2026],[24,8,8,0,2016,2026],[51,8,8,0,2023,2026],[127,6,6,0,null,null],[7,5,5,0,2014,2024],[34,5,5,0,2019,2025],[94,5,5,0,2024,2026],[105,5,5,0,2023,2023],[52,5,5,0,2023,2026],[13,4,4,0,2014,2022],[27,4,4,0,2014,2016],[54,4,4,0,null,null],[18,4,4,0,null,null],[61,4,4,0,null,null],[6,3,3,0,2014,2022],[9,3,3,0,2014,2026],[49,3,3,0,2020,2020],[35,3,3,0,2021,2021],[73,3,3,0,2021,2024],[44,3,3,0,2022,2022],[41,3,3,0,2022,2022],[23,3,3,0,2022,2026],[31,3,3,0,2023,2024],[8,2,2,0,2014,2022],[10,2,2,0,2014,2022],[25,2,2,0,2016,2022],[22,2,2,0,2022,2024],[80,2,2,0,2022,2024],[81,2,2,0,2022,2025],[55,2,2,0,2023,2024],[125,2,2,0,null,null],[28,2,2,0,null,null],[126,2,2,0,null,null],[66,2,2,0,null,null],[37,2,2,0,null,null],[11,1,1,0,2014,2014],[15,1,1,0,2014,2014],[16,1,1,0,2014,2014],[20,1,1,0,2018,2018],[21,1,1,0,2018,2018],[26,1,1,0,2016,2016],[53,1,1,0,2012,2012],[58,1,1,0,2020,2020],[62,1,1,0,2020,2020],[67,1,1,0,2017,2017],[77,1,1,0,2022,2022],[57,1,1,0,2022,2022],[1,1,1,0,2022,2022],[78,1,1,0,2022,2022],[79,1,1,0,2022,2022],[69,1,1,0,2022,2022],[88,1,1,0,2023,2023],[91,1,1,0,2023,2023],[101,1,1,0,2024,2024],[113,1,1,0,2022,2022],[119,1,1,0,2026,2026],[43,1,1,0,2026,2026],[104,1,1,0,2026,2026],[99,1,1,0,2026,2026],[0,1,1,0,2026,2026],[122,1,1,0,2024,2024],[100,1,1,0,2024,2024],[123,1,1,0,2024,2024],[120,1,1,0,2024,2024]]}},{"type":"Feature","geometry":{"type":"Polygon","coordinates":[[[-86.10565,37.18662],[-86.10418,37.18786],[-86.10481,37.18962],[-86.10692,37.19014],[-86.10839,37.1889],[-86.10776,37.18714],[-86.10565,37.18662]]]},"properties":{"cell":"89266b84bc7ffff","res":9,"coarsened":false,"count":47,"hv":47,"mp":0,"y0":2015,"y1":2026,"sp":[[2,16,16,0,2017,2026],[3,7,7,0,2015,2025],[14,3,3,0,2019,2023],[31,3,3,0,2022,2026],[30,3,3,0,2022,2026],[35,2,2,0,2019,2020],[29,2,2,0,2024,2024],[60,1,1,0,2020,2020],[42,1,1,0,2021,2021],[7,1,1,0,2022,2022],[26,1,1,0,2023,2023],[55,1,1,0,2023,2023],[78,1,1,0,2023,2023],[45,1,1,0,2024,2024],[10,1,1,0,2024,2024],[75,1,1,0,2024,2024],[0,1,1,0,2025,2025],[112,1,1,0,2026,2026]]}},{"type":"Feature","geometry":{"type":"Polygon","coordinates":[[[-86.06914,37.16005],[-86.06767,37.16129],[-86.0683,37.16304],[-86.07041,37.16356],[-86.07188,37.16232],[-86.07124,37.16057],[-86.06914,37.16005]]]},"properties":{"cell":"89266bb10d3ffff","res":9,"coarsened":false,"count":1,"hv":1,"mp":0,"y0":2015,"y1":2015,"sp":[[4,1,1,0,2015,2015]]}},{"type":"Feature","geometry":{"type":"Polygon","coordinates":[[[-86.06175,37.15023],[-86.06027,37.15147],[-86.06091,37.15323],[-86.06302,37.15374],[-86.06449,37.15251],[-86.06385,37.15075],[-86.06175,37.15023]]]},"properties":{"cell":"89266bb1017ffff","res":9,"coarsened":false,"count":2,"hv":2,"mp":0,"y0":2015,"y1":2025,"sp":[[5,1,1,0,2015,2015],[66,1,1,0,2025,2025]]}},{"type":"Feature","geometry":{"type":"Polygon","coordinates":[[[-86.08751,37.17897],[-86.08604,37.1802],[-86.08667,37.18196],[-86.08878,37.18248],[-86.09025,37.18124],[-86.08962,37.17948],[-86.08751,37.17897]]]},"properties":{"cell":"89266b8496bffff","res":9,"coarsened":false,"count":6,"hv":6,"mp":0,"y0":2016,"y1":2026,"sp":[[4,2,2,0,2016,2019],[32,1,1,0,2020,2020],[2,1,1,0,2021,2021],[58,1,1,0,2022,2022],[38,1,1,0,2026,2026]]}},{"type":"Feature","geometry":{"type":"Polygon","coordinates":[[[-86.09849,37.18806],[-86.09701,37.1893],[-86.09765,37.19106],[-86.09976,37.19158],[-86.10123,37.19034],[-86.10059,37.18858],[-86.09849,37.18806]]]},"properties":{"cell":"89266b84b83ffff","res":9,"coarsened":false,"count":14,"hv":14,"mp":0,"y0":2016,"y1":2026,"sp":[[2,7,7,0,2016,2025],[4,3,3,0,2022,2026],[3,1,1,0,2019,2019],[14,1,1,0,2021,2021],[55,1,1,0,2021,2021],[52,1,1,0,2025,2025]]}},{"type":"Feature","geometry":{"type":"Polygon","coordinates":[[[-86.14087,37.19367],[-86.13939,37.19491],[-86.14003,37.19667],[-86.14214,37.19719],[-86.14361,37.19595],[-86.14297,37.19419],[-86.14087,37.19367]]]},"properties":{"cell":"89266b859bbffff","res":9,"coarsened":false,"count":1,"hv":1,"mp":0,"y0":2017,"y1":2017,"sp":[[4,1,1,0,2017,2017]]}},{"type":"Feature","geometry":{"type":"Polygon","coordinates":[[[-86.09168,37.164],[-86.09021,37.16523],[-86.09085,37.16699],[-86.09296,37.16751],[-86.09443,37.16627],[-86.09379,37.16451],[-86.09168,37.164]]]},"properties":{"cell":"89266bb1647ffff","res":9,"coarsened":false,"count":2,"hv":2,"mp":0,"y0":2007,"y1":2017,"sp":[[4,2,2,0,2007,2017]]}},{"type":"Feature","geometry":{"type":"Polygon","coordinates":[[[-86.09383,37.18052],[-86.09236,37.18176],[-86.093,37.18351],[-86.0951,37.18403],[-86.09658,37.1828],[-86.09594,37.18104],[-86.09383,37.18052]]]},"properties":{"cell":"89266b84ba3ffff","res":9,"coarsened":false,"count":24,"hv":24,"mp":0,"y0":2008,"y1":2026,"sp":[[4,8,8,0,2017,2026],[2,4,4,0,2008,2025],[42,2,2,0,2022,2023],[13,2,2,0,2023,2024],[37,1,1,0,2022,2022],[41,1,1,0,2022,2022],[38,1,1,0,2022,2022],[7,1,1,0,2023,2023],[3,1,1,0,2023,2023],[55,1,1,0,2023,2023],[32,1,1,0,2025,2025],[29,1,1,0,2026,2026]]}},{"type":"Feature","geometry":{"type":"Polygon","coordinates":[[[-86.08369,37.16843],[-86.08222,37.16967],[-86.08285,37.17142],[-86.08496,37.17194],[-86.08643,37.1707],[-86.0858,37.16895],[-86.08369,37.16843]]]},"properties":{"cell":"89266bb1613ffff","res":9,"coarsened":false,"count":2,"hv":2,"mp":0,"y0":2017,"y1":2019,"sp":[[4,1,1,0,2017,2017],[2,1,1,0,2019,2019]]}},{"type":"Feature","geometry":{"type":"Polygon","coordinates":[[[-86.093,37.18351],[-86.09152,37.18475],[-86.09216,37.18651],[-86.09427,37.18703],[-86.09574,37.18579],[-86.0951,37.18403],[-86.093,37.18351]]]},"properties":{"cell":"89266b84bb3ffff","res":9,"coarsened":false,"count":1,"hv":1,"mp":0,"y0":2017,"y1":2017,"sp":[[3,1,1,0,2017,2017]]}},{"type":"Feature","geometry":{"type":"Polygon","coordinates":[[[-86.08667,37.18196],[-86.0852,37.1832],[-86.08584,37.18495],[-86.08794,37.18547],[-86.08942,37.18423],[-86.08878,37.18248],[-86.08667,37.18196]]]},"properties":{"cell":"89266b8497bffff","res":9,"coarsened":false,"count":3,"hv":3,"mp":0,"y0":2017,"y1":2023,"sp":[[4,3,3,0,2017,2023]]}},{"type":"Feature","geometry":{"type":"Polygon","coordinates":[[[-86.09467,37.17753],[-86.0932,37.17876],[-86.09383,37.18052],[-86.09594,37.18104],[-86.09741,37.1798],[-86.09677,37.17805],[-86.09467,37.17753]]]},"properties":{"cell":"89266b84bafffff","res":9,"coarsened":false,"count":4,"hv":4,"mp":0,"y0":2017,"y1":2025,"sp":[[2,4,4,0,2017,2025]]}},{"type":"Feature","geometry":{"type":"Polygon","coordinates":[[[-86.10016,37.18208],[-86.09868,37.18331],[-86.09932,37.18507],[-86.10143,37.18559],[-86.1029,37.18435],[-86.10226,37.18259],[-86.10016,37.18208]]]},"properties":{"cell":"89266b84b17ffff","res":9,"coarsened":false,"count":37,"hv":37,"mp":0,"y0":2017,"y1":2026,"sp":[[4,11,11,0,2021,2026],[2,7,7,0,2017,2026],[14,3,3,0,2022,2026],[45,2,2,0,2019,2022],[51,1,1,0,2019,2019],[72,1,1,0,2021,2021],[12,1,1,0,2022,2022],[18,1,1,0,2022,2022],[1,1,1,0,2023,2023],[52,1,1,0,2023,2023],[34,1,1,0,2023,2023],[75,1,1,0,2024,2024],[25,1,1,0,2025,2025],[42,1,1,0,2025,2025],[30,1,1,0,2025,2025],[24,1,1,0,2026,2026],[3,1,1,0,2026,2026],[81,1,1,0,2024,2024]]}},{"type":"Feature","geometry":{"type":"Polygon","coordinates":[[[-86.09658,37.1828],[-86.0951,37.18403],[-86.09574,37.18579],[-86.09785,37.18631],[-86.09932,37.18507],[-86.09868,37.18331],[-86.09658,37.1828]]]},"properties":{"cell":"89266b84bbbffff","res":9,"coarsened":false,"count":70,"hv":70,"mp":0,"y0":2017,"y1":2026,"sp":[[4,19,19,0,2019,2026],[2,14,14,0,2017,2026],[12,5,5,0,2023,2026],[42,3,3,0,2019,2019],[14,3,3,0,2019,2023],[28,2,2,0,2017,2019],[52,2,2,0,2022,2023],[3,2,2,0,2023,2023],[40,2,2,0,2023,2023],[29,2,2,0,2026,2026],[17,1,1,0,2018,2018],[25,1,1,0,2019,2019],[76,1,1,0,2022,2022],[33,1,1,0,2023,2023],[78,1,1,0,2023,2023],[94,1,1,0,2023,2023],[27,1,1,0,2023,2023],[6,1,1,0,2023,2023],[34,1,1,0,2023,2023],[7,1,1,0,2023,2023],[35,1,1,0,2023,2023],[13,1,1,0,2023,2023],[30,1,1,0,2024,2024],[86,1,1,0,2024,2024],[32,1,1,0,2026,2026],[84,1,1,0,2024,2024]]}},{"type":"Feature","geometry":{"type":"Polygon","coordinates":[[[-86.09037,37.14448],[-86.0889,37.14571],[-86.08954,37.14747],[-86.09164,37.14799],[-86.09311,37.14675],[-86.09248,37.14499],[-86.09037,37.14448]]]},"properties":{"cell":"89266bb1203ffff","res":9,"coarsened":false,"count":1,"hv":1,"mp":0,"y0":2017,"y1":2017,"sp":[[2,1,1,0,2017,2017]]}},{"type":"Feature","geometry":{"type":"Polygon","coordinates":[[[-86.09741,37.1798],[-86.09594,37.18104],[-86.09658,37.1828],[-86.09868,37.18331],[-86.10016,37.18208],[-86.09952,37.18032],[-86.09741,37.1798]]]},"properties":{"cell":"89266b84babffff","res":9,"coarsened":false,"count":38,"hv":38,"mp":0,"y0":2017,"y1":2026,"sp":[[2,11,11,0,2017,2025],[32,4,4,0,2019,2026],[50,2,2,0,2019,2023],[34,2,2,0,2023,2023],[51,2,2,0,2024,2026],[12,2,2,0,2025,2026],[42,2,2,0,2026,2026],[3,1,1,0,2019,2019],[29,1,1,0,2021,2021],[84,1,1,0,2024,2024],[86,1,1,0,2024,2024],[75,1,1,0,2025,2025],[78,1,1,0,2025,2025],[25,1,1,0,2025,2025],[4,1,1,0,2025,2025],[55,1,1,0,2026,2026],[0,1,1,0,2026,2026],[30,1,1,0,2026,2026],[85,1,1,0,2026,2026],[38,1,1,0,2026,2026]]}},{"type":"Feature","geometry":{"type":"Polygon","coordinates":[[[-86.10207,37.18734],[-86.10059,37.18858],[-86.10123,37.19034],[-86.10334,37.19086],[-86.10481,37.18962],[-86.10418,37.18786],[-86.10207,37.18734]]]},"properties":{"cell":"89266b84b8bffff","res":9,"coarsened":false,"count":63,"hv":63,"mp":0,"y0":2015,"y1":2026,"sp":[[2,13,13,0,2015,2026],[4,10,10,0,2020,2026],[3,7,7,0,2019,2026],[12,6,6,0,2019,2019],[29,5,5,0,2024,2026],[32,3,3,0,2019,2025],[30,3,3,0,2019,2026],[15,3,3,0,2022,2023],[42,2,2,0,2019,2022],[52,2,2,0,2024,2024],[51,1,1,0,2019,2019],[84,1,1,0,2022,2022],[64,1,1,0,2023,2023],[78,1,1,0,2023,2023],[71,1,1,0,2024,2024],[16,1,1,0,2024,2024],[75,1,1,0,2024,2024],[59,1,1,0,2024,2024],[37,1,1,0,2024,2024]]}},{"type":"Feature","geometry":{"type":"Polygon","coordinates":[[[-86.09944,37.1483],[-86.09797,37.14954],[-86.0986,37.1513],[-86.10071,37.15182],[-86.10218,37.15058],[-86.10154,37.14882],[-86.09944,37.1483]]]},"properties":{"cell":"89266bb1253ffff","res":9,"coarsened":false,"count":41,"hv":41,"mp":0,"y0":2017,"y1":2026,"sp":[[3,4,4,0,2021,2025],[0,4,4,0,2022,2025],[31,3,3,0,2023,2025],[38,2,2,0,2019,2019],[57,2,2,0,2025,2025],[42,2,2,0,2024,2025],[19,1,1,0,2017,2017],[66,1,1,0,2023,2023],[45,1,1,0,2023,2023],[92,1,1,0,2023,2023],[111,1,1,0,2025,2025],[112,1,1,0,2025,2025],[2,1,1,0,2025,2025],[71,1,1,0,2025,2025],[32,1,1,0,2025,2025],[102,1,1,0,2025,2025],[52,1,1,0,2025,2025],[37,1,1,0,2026,2026],[28,1,1,0,2024,2024],[46,1,1,0,2024,2024],[7,1,1,0,2024,2024],[35,1,1,0,2024,2024],[8,1,1,0,2024,2024],[44,1,1,0,2024,2024],[10,1,1,0,2024,2024],[13,1,1,0,2024,2024],[9,1,1,0,2024,2024],[16,1,1,0,2024,2024],[124,1,1,0,2024,2024],[6,1,1,0,2024,2024]]}},{"type":"Feature","geometry":{"type":"Polygon","coordinates":[[[-86.08309,37.18268],[-86.08162,37.18392],[-86.08226,37.18567],[-86.08437,37.18619],[-86.08584,37.18495],[-86.0852,37.1832],[-86.08309,37.18268]]]},"properties":{"cell":"89266b84973ffff","res":9,"coarsened":false,"count":1,"hv":1,"mp":0,"y0":2018,"y1":2018,"sp":[[2,1,1,0,2018,2018]]}},{"type":"Feature","geometry":{"type":"Polygon","coordinates":[[[-86.15637,37.16228],[-86.1549,37.16352],[-86.15553,37.16528],[-86.15764,37.16579],[-86.15911,37.16456],[-86.15848,37.1628],[-86.15637,37.16228]]]},"properties":{"cell":"89266bba667ffff","res":9,"coarsened":false,"count":4,"hv":4,"mp":0,"y0":2017,"y1":2023,"sp":[[23,1,1,0,2017,2017],[31,1,1,0,2021,2021],[89,1,1,0,2023,2023],[60,1,1,0,2023,2023]]}},{"type":"Feature","geometry":{"type":"Polygon","coordinates":[[[-86.09765,37.19106],[-86.09618,37.19229],[-86.09682,37.19405],[-86.09892,37.19457],[-86.1004,37.19333],[-86.09976,37.19158],[-86.09765,37.19106]]]},"properties":{"cell":"89266b84b93ffff","res":9,"coarsened":false,"count":2,"hv":2,"mp":0,"y0":2019,"y1":2024,"sp":[[2,1,1,0,2019,2019],[103,1,1,0,2024,2024]]}},{"type":"Feature","geometry":{"type":"Polygon","coordinates":[[[-86.08643,37.1707],[-86.08496,37.17194],[-86.0856,37.1737],[-86.08771,37.17422],[-86.08918,37.17298],[-86.08854,37.17122],[-86.08643,37.1707]]]},"properties":{"cell":"89266bb16c7ffff","res":9,"coarsened":false,"count":3,"hv":3,"mp":0,"y0":2019,"y1":2025,"sp":[[2,3,3,0,2019,2025]]}},{"type":"Feature","geometry":{"type":"Polygon","coordinates":[[[-86.10923,37.1859],[-86.10776,37.18714],[-86.10839,37.1889],[-86.1105,37.18942],[-86.11197,37.18818],[-86.11134,37.18642],[-86.10923,37.1859]]]},"properties":{"cell":"89266b84bcfffff","res":9,"coarsened":false,"count":28,"hv":28,"mp":0,"y0":2017,"y1":2026,"sp":[[4,3,3,0,2019,2024],[40,3,3,0,2019,2025],[2,3,3,0,2021,2022],[3,3,3,0,2024,2025],[35,2,2,0,2019,2026],[75,2,2,0,2021,2025],[42,2,2,0,2024,2026],[31,1,1,0,2019,2019],[55,1,1,0,2020,2020],[57,1,1,0,2022,2022],[14,1,1,0,2022,2022],[96,1,1,0,2023,2023],[44,1,1,0,2024,2024],[12,1,1,0,2024,2024],[30,1,1,0,2024,2024],[61,1,1,0,2017,2017],[118,1,1,0,2026,2026]]}},{"type":"Feature","geometry":{"type":"Polygon","coordinates":[[[-86.10481,37.18962],[-86.10334,37.19086],[-86.10398,37.19261],[-86.10609,37.19313],[-86.10756,37.19189],[-86.10692,37.19014],[-86.10481,37.18962]]]},"properties":{"cell":"89266b84bd7ffff","res":9,"coarsened":false,"count":18,"hv":18,"mp":0,"y0":2019,"y1":2026,"sp":[[2,8,8,0,2019,2026],[3,2,2,0,2025,2026],[54,1,1,0,2019,2019],[13,1,1,0,2023,2023],[99,1,1,0,2024,2024],[37,1,1,0,2025,2025],[97,1,1,0,2026,2026],[28,1,1,0,2026,2026],[30,1,1,0,2026,2026],[29,1,1,0,2026,2026]]}},{"type":"Feature","geometry":{"type":"Polygon","coordinates":[[[-86.03062,37.16496],[-85.99528,37.17863],[-85.99386,37.21186],[-86.0278,37.23142],[-86.06316,37.21775],[-86.06456,37.18451],[-86.03062,37.16496]]]},"properties":{"cell":"86266bb37ffffff","res":6,"coarsened":true,"count":2,"hv":2,"mp":0,"y0":2017,"y1":2019,"sp":[[36,2,2,0,2017,2019]]}},{"type":"Feature","geometry":{"type":"Polygon","coordinates":[[[-86.04968,37.21763],[-86.0482,37.21887],[-86.04884,37.22062],[-86.05095,37.22114],[-86.05242,37.2199],[-86.05178,37.21815],[-86.04968,37.21763]]]},"properties":{"cell":"89266bb36c7ffff","res":9,"coarsened":false,"count":1,"hv":1,"mp":0,"y0":2019,"y1":2019,"sp":[[37,1,1,0,2019,2019]]}},{"type":"Feature","geometry":{"type":"Polygon","coordinates":[[[-86.10815,37.17764],[-86.10668,37.17888],[-86.10732,37.18064],[-86.10943,37.18115],[-86.1109,37.17992],[-86.11026,37.17816],[-86.10815,37.17764]]]},"properties":{"cell":"89266b84b73ffff","res":9,"coarsened":false,"count":42,"hv":42,"mp":0,"y0":2019,"y1":2026,"sp":[[35,5,5,0,2024,2026],[42,5,5,0,2024,2026],[40,2,2,0,2019,2024],[41,2,2,0,2019,2019],[16,2,2,0,2022,2024],[2,2,2,0,2024,2025],[28,2,2,0,2024,2026],[57,2,2,0,2024,2025],[58,2,2,0,2025,2025],[1,2,2,0,2025,2025],[44,2,2,0,2026,2026],[39,1,1,0,2019,2019],[45,1,1,0,2021,2021],[23,1,1,0,2022,2022],[11,1,1,0,2022,2022],[0,1,1,0,2022,2022],[7,1,1,0,2024,2024],[9,1,1,0,2024,2024],[14,1,1,0,2024,2024],[22,1,1,0,2024,2024],[4,1,1,0,2024,2024],[15,1,1,0,2025,2025],[49,1,1,0,2025,2025],[13,1,1,0,2025,2025],[115,1,1,0,2025,2025]]}},{"type":"Feature","geometry":{"type":"Polygon","coordinates":[[[-86.04743,37.15311],[-86.04596,37.15434],[-86.0466,37.1561],[-86.04871,37.15662],[-86.05018,37.15538],[-86.04954,37.15363],[-86.04743,37.15311]]]},"properties":{"cell":"89266bb1547ffff","res":9,"coarsened":false,"count":4,"hv":4,"mp":0,"y0":2019,"y1":2026,"sp":[[31,2,2,0,2019,2026],[42,1,1,0,2019,2019],[18,1,1,0,2020,2020]]}},{"type":"Feature","geometry":{"type":"Polygon","coordinates":[[[-86.1109,37.17992],[-86.10943,37.18115],[-86.11006,37.18291],[-86.11217,37.18343],[-86.11364,37.18219],[-86.11301,37.18043],[-86.1109,37.17992]]]},"properties":{"cell":"89266b84b47ffff","res":9,"coarsened":false,"count":23,"hv":23,"mp":0,"y0":2019,"y1":2026,"sp":[[44,4,4,0,2023,2026],[9,3,3,0,2022,2026],[2,2,2,0,2019,2019],[46,2,2,0,2023,2024],[1,2,2,0,2024,2026],[8,1,1,0,2022,2022],[12,1,1,0,2024,2024],[77,1,1,0,2024,2024],[10,1,1,0,2024,2024],[26,1,1,0,2024,2024],[14,1,1,0,2024,2024],[39,1,1,0,2025,2025],[61,1,1,0,2025,2025],[54,1,1,0,2026,2026],[35,1,1,0,2026,2026]]}},{"type":"Feature","geometry":{"type":"Polygon","coordinates":[[[-86.11006,37.18291],[-86.10859,37.18415],[-86.10923,37.1859],[-86.11134,37.18642],[-86.11281,37.18518],[-86.11217,37.18343],[-86.11006,37.18291]]]},"properties":{"cell":"89266b84b57ffff","res":9,"coarsened":false,"count":3,"hv":3,"mp":0,"y0":2019,"y1":2023,"sp":[[15,1,1,0,2019,2019],[95,1,1,0,2023,2023],[55,1,1,0,2023,2023]]}},{"type":"Feature","geometry":{"type":"Polygon","coordinates":[[[-86.10648,37.18363],[-86.10501,37.18487],[-86.10565,37.18662],[-86.10776,37.18714],[-86.10923,37.1859],[-86.10859,37.18415],[-86.10648,37.18363]]]},"properties":{"cell":"89266b84b1bffff","res":9,"coarsened":false,"count":16,"hv":16,"mp":0,"y0":2019,"y1":2025,"sp":[[2,6,6,0,2019,2024],[3,4,4,0,2019,2025],[14,2,2,0,2019,2019],[43,1,1,0,2019,2019],[10,1,1,0,2019,2019],[7,1,1,0,2024,2024],[23,1,1,0,2025,2025]]}},{"type":"Feature","geometry":{"type":"Polygon","coordinates":[[[-86.08763,37.1422],[-86.08616,37.14344],[-86.08679,37.1452],[-86.0889,37.14571],[-86.09037,37.14448],[-86.08973,37.14272],[-86.08763,37.1422]]]},"properties":{"cell":"89266bb1207ffff","res":9,"coarsened":false,"count":2,"hv":2,"mp":0,"y0":2019,"y1":2023,"sp":[[2,1,1,0,2019,2019],[58,1,1,0,2023,2023]]}},{"type":"Feature","geometry":{"type":"Polygon","coordinates":[[[-86.13022,37.15907],[-86.12875,37.16031],[-86.12939,37.16206],[-86.1315,37.16258],[-86.13297,37.16134],[-86.13233,37.15958],[-86.13022,37.15907]]]},"properties":{"cell":"89266bba08fffff","res":9,"coarsened":false,"count":2,"hv":2,"mp":0,"y0":2019,"y1":2019,"sp":[[44,1,1,0,2019,2019],[45,1,1,0,2019,2019]]}},{"type":"Feature","geometry":{"type":"Polygon","coordinates":[[[-86.09025,37.18124],[-86.08878,37.18248],[-86.08942,37.18423],[-86.09152,37.18475],[-86.093,37.18351],[-86.09236,37.18176],[-86.09025,37.18124]]]},"properties":{"cell":"89266b84bb7ffff","res":9,"coarsened":false,"count":9,"hv":9,"mp":0,"y0":2019,"y1":2026,"sp":[[4,5,5,0,2022,2026],[2,4,4,0,2019,2026]]}},{"type":"Feature","geometry":{"type":"Polygon","coordinates":[[[-86.14028,37.20793],[-86.1388,37.20916],[-86.13944,37.21092],[-86.14155,37.21144],[-86.14302,37.2102],[-86.14239,37.20844],[-86.14028,37.20793]]]},"properties":{"cell":"89266b85d3bffff","res":9,"coarsened":false,"count":8,"hv":8,"mp":0,"y0":2019,"y1":2019,"sp":[[8,3,3,0,2019,2019],[46,1,1,0,2019,2019],[47,1,1,0,2019,2019],[23,1,1,0,2019,2019],[44,1,1,0,2019,2019],[0,1,1,0,2019,2019]]}},{"type":"Feature","geometry":{"type":"Polygon","coordinates":[[[-86.12856,37.16506],[-86.12708,37.1663],[-86.12772,37.16805],[-86.12983,37.16857],[-86.1313,37.16733],[-86.13066,37.16557],[-86.12856,37.16506]]]},"properties":{"cell":"89266bba093ffff","res":9,"coarsened":false,"count":1,"hv":1,"mp":0,"y0":2019,"y1":2019,"sp":[[2,1,1,0,2019,2019]]}},{"type":"Feature","geometry":{"type":"Polygon","coordinates":[[[-86.11173,37.17692],[-86.11026,37.17816],[-86.1109,37.17992],[-86.11301,37.18043],[-86.11448,37.1792],[-86.11384,37.17744],[-86.11173,37.17692]]]},"properties":{"cell":"89266b84b7bffff","res":9,"coarsened":false,"count":18,"hv":18,"mp":0,"y0":2019,"y1":2026,"sp":[[15,3,3,0,2019,2024],[49,3,3,0,2019,2024],[45,2,2,0,2019,2025],[48,1,1,0,2019,2019],[2,1,1,0,2019,2019],[57,1,1,0,2023,2023],[104,1,1,0,2024,2024],[14,1,1,0,2024,2024],[77,1,1,0,2020,2020],[9,1,1,0,2020,2020],[114,1,1,0,2025,2025],[4,1,1,0,2025,2025],[11,1,1,0,2026,2026]]}},{"type":"Feature","geometry":{"type":"Polygon","coordinates":[[[-86.09001,37.16998],[-86.08854,37.17122],[-86.08918,37.17298],[-86.09129,37.1735],[-86.09276,37.17226],[-86.09212,37.1705],[-86.09001,37.16998]]]},"properties":{"cell":"89266bb16cfffff","res":9,"coarsened":false,"count":1,"hv":1,"mp":0,"y0":2012,"y1":2012,"sp":[[2,1,1,0,2012,2012]]}},{"type":"Feature","geometry":{"type":"Polygon","coordinates":[[[-86.06091,37.15323],[-86.05944,37.15446],[-86.06007,37.15622],[-86.06218,37.15674],[-86.06365,37.1555],[-86.06302,37.15374],[-86.06091,37.15323]]]},"properties":{"cell":"89266bb108fffff","res":9,"coarsened":false,"count":1,"hv":1,"mp":0,"y0":2020,"y1":2020,"sp":[[2,1,1,0,2020,2020]]}},{"type":"Feature","geometry":{"type":"Polygon","coordinates":[[[-86.0955,37.17453],[-86.09403,37.17577],[-86.09467,37.17753],[-86.09677,37.17805],[-86.09825,37.17681],[-86.09761,37.17505],[-86.0955,37.17453]]]},"properties":{"cell":"89266b84b37ffff","res":9,"coarsened":false,"count":1,"hv":1,"mp":0,"y0":2019,"y1":2019,"sp":[[2,1,1,0,2019,2019]]}},{"type":"Feature","geometry":{"type":"Polygon","coordinates":[[[-86.08834,37.17597],[-86.08687,37.17721],[-86.08751,37.17897],[-86.08962,37.17948],[-86.09109,37.17825],[-86.09045,37.17649],[-86.08834,37.17597]]]},"properties":{"cell":"89266bb16d3ffff","res":9,"coarsened":false,"count":4,"hv":4,"mp":0,"y0":2019,"y1":2022,"sp":[[2,4,4,0,2019,2022]]}},{"type":"Feature","geometry":{"type":"Polygon","coordinates":[[[-86.07856,37.22314],[-86.07708,37.22438],[-86.07772,37.22613],[-86.07983,37.22665],[-86.0813,37.22542],[-86.08066,37.22366],[-86.07856,37.22314]]]},"properties":{"cell":"89266b84cb7ffff","res":9,"coarsened":false,"count":1,"hv":1,"mp":0,"y0":2017,"y1":2017,"sp":[[4,1,1,0,2017,2017]]}},{"type":"Feature","geometry":{"type":"Polygon","coordinates":[[[-86.18085,37.17148],[-86.17938,37.17272],[-86.18002,37.17448],[-86.18213,37.175],[-86.1836,37.17376],[-86.18296,37.172],[-86.18085,37.17148]]]},"properties":{"cell":"89266bbb5c7ffff","res":9,"coarsened":false,"count":1,"hv":1,"mp":0,"y0":2020,"y1":2020,"sp":[[56,1,1,0,2020,2020]]}},{"type":"Feature","geometry":{"type":"Polygon","coordinates":[[[-86.12619,37.22206],[-86.12472,37.2233],[-86.12536,37.22505],[-86.12747,37.22557],[-86.12894,37.22433],[-86.1283,37.22258],[-86.12619,37.22206]]]},"properties":{"cell":"89266b84e53ffff","res":9,"coarsened":false,"count":1,"hv":1,"mp":0,"y0":2020,"y1":2020,"sp":[[8,1,1,0,2020,2020]]}},{"type":"Feature","geometry":{"type":"Polygon","coordinates":[[[-86.12344,37.21979],[-86.12197,37.22102],[-86.12261,37.22278],[-86.12472,37.2233],[-86.12619,37.22206],[-86.12555,37.2203],[-86.12344,37.21979]]]},"properties":{"cell":"89266b84e57ffff","res":9,"coarsened":false,"count":1,"hv":1,"mp":0,"y0":2020,"y1":2020,"sp":[[40,1,1,0,2020,2020]]}},{"type":"Feature","geometry":{"type":"Polygon","coordinates":[[[-86.23721,37.23647],[-86.23574,37.23771],[-86.23638,37.23946],[-86.23849,37.23998],[-86.23997,37.23874],[-86.23933,37.23699],[-86.23721,37.23647]]]},"properties":{"cell":"89266b8ec57ffff","res":9,"coarsened":false,"count":1,"hv":1,"mp":0,"y0":2020,"y1":2020,"sp":[[57,1,1,0,2020,2020]]}},{"type":"Feature","geometry":{"type":"Polygon","coordinates":[[[-86.08476,37.17669],[-86.08329,37.17793],[-86.08393,37.17968],[-86.08604,37.1802],[-86.08751,37.17897],[-86.08687,37.17721],[-86.08476,37.17669]]]},"properties":{"cell":"89266b8496fffff","res":9,"coarsened":false,"count":2,"hv":2,"mp":0,"y0":2020,"y1":2023,"sp":[[59,1,1,0,2020,2020],[32,1,1,0,2023,2023]]}},{"type":"Feature","geometry":{"type":"Polygon","coordinates":[[[-86.16118,37.21785],[-86.15971,37.21909],[-86.16035,37.22085],[-86.16246,37.22136],[-86.16393,37.22013],[-86.16329,37.21837],[-86.16118,37.21785]]]},"properties":{"cell":"89266b85893ffff","res":9,"coarsened":false,"count":1,"hv":1,"mp":0,"y0":2020,"y1":2020,"sp":[[61,1,1,0,2020,2020]]}},{"type":"Feature","geometry":{"type":"Polygon","coordinates":[[[-86.14661,37.20948],[-86.14513,37.21072],[-86.14577,37.21247],[-86.14788,37.21299],[-86.14935,37.21175],[-86.14872,37.21],[-86.14661,37.20948]]]},"properties":{"cell":"89266b85d73ffff","res":9,"coarsened":false,"count":1,"hv":1,"mp":0,"y0":2020,"y1":2020,"sp":[[2,1,1,0,2020,2020]]}},{"type":"Feature","geometry":{"type":"Polygon","coordinates":[[[-86.15618,37.23582],[-86.15471,37.23705],[-86.15534,37.23881],[-86.15746,37.23933],[-86.15893,37.23809],[-86.15829,37.23633],[-86.15618,37.23582]]]},"properties":{"cell":"89266b85c83ffff","res":9,"coarsened":false,"count":1,"hv":1,"mp":0,"y0":2020,"y1":2020,"sp":[[52,1,1,0,2020,2020]]}},{"type":"Feature","geometry":{"type":"Polygon","coordinates":[[[-86.15337,37.14875],[-86.1519,37.14999],[-86.15254,37.15174],[-86.15465,37.15226],[-86.15612,37.15102],[-86.15548,37.14926],[-86.15337,37.14875]]]},"properties":{"cell":"89266bba2abffff","res":9,"coarsened":false,"count":12,"hv":12,"mp":0,"y0":2021,"y1":2026,"sp":[[74,3,3,0,2023,2023],[89,2,2,0,2024,2025],[3,2,2,0,2026,2026],[64,1,1,0,2021,2021],[0,1,1,0,2026,2026],[60,1,1,0,2026,2026],[45,1,1,0,2026,2026],[78,1,1,0,2026,2026]]}},{"type":"Feature","geometry":{"type":"Polygon","coordinates":[[[-86.1597,37.1503],[-86.15823,37.15154],[-86.15887,37.15329],[-86.16098,37.15381],[-86.16245,37.15257],[-86.16181,37.15082],[-86.1597,37.1503]]]},"properties":{"cell":"89266bba203ffff","res":9,"coarsened":false,"count":1,"hv":1,"mp":0,"y0":2021,"y1":2021,"sp":[[65,1,1,0,2021,2021]]}},{"type":"Feature","geometry":{"type":"Polygon","coordinates":[[[-86.09586,37.14902],[-86.09439,37.15026],[-86.09502,37.15202],[-86.09713,37.15254],[-86.0986,37.1513],[-86.09797,37.14954],[-86.09586,37.14902]]]},"properties":{"cell":"89266bb12cfffff","res":9,"coarsened":false,"count":4,"hv":4,"mp":0,"y0":2021,"y1":2024,"sp":[[92,2,2,0,2023,2023],[66,1,1,0,2021,2021],[106,1,1,0,2024,2024]]}},{"type":"Feature","geometry":{"type":"Polygon","coordinates":[[[-86.0986,37.1513],[-86.09713,37.15254],[-86.09777,37.15429],[-86.09987,37.15481],[-86.10135,37.15357],[-86.10071,37.15182],[-86.0986,37.1513]]]},"properties":{"cell":"89266bb12cbffff","res":9,"coarsened":false,"count":12,"hv":12,"mp":0,"y0":2021,"y1":2025,"sp":[[17,4,4,0,2021,2025],[7,1,1,0,2023,2023],[31,1,1,0,2023,2023],[93,1,1,0,2023,2023],[92,1,1,0,2023,2023],[14,1,1,0,2025,2025],[16,1,1,0,2025,2025],[42,1,1,0,2025,2025],[15,1,1,0,2025,2025]]}},{"type":"Feature","geometry":{"type":"Polygon","coordinates":[[[-86.05686,37.13143],[-86.05539,37.13267],[-86.05603,37.13443],[-86.05813,37.13494],[-86.0596,37.13371],[-86.05897,37.13195],[-86.05686,37.13143]]]},"properties":{"cell":"89266bb114fffff","res":9,"coarsened":false,"count":1,"hv":1,"mp":0,"y0":2021,"y1":2021,"sp":[[68,1,1,0,2021,2021]]}},{"type":"Feature","geometry":{"type":"Polygon","coordinates":[[[-86.06545,37.11275],[-86.06398,37.11398],[-86.06462,37.11574],[-86.06672,37.11626],[-86.06819,37.11502],[-86.06756,37.11326],[-86.06545,37.11275]]]},"properties":{"cell":"89266bb1e4bffff","res":9,"coarsened":false,"count":1,"hv":1,"mp":0,"y0":2021,"y1":2021,"sp":[[54,1,1,0,2021,2021]]}},{"type":"Feature","geometry":{"type":"Polygon","coordinates":[[[-86.1442,37.1817],[-86.14273,37.18293],[-86.14337,37.18469],[-86.14548,37.18521],[-86.14695,37.18397],[-86.14631,37.18221],[-86.1442,37.1817]]]},"properties":{"cell":"89266b8592fffff","res":9,"coarsened":false,"count":3,"hv":3,"mp":0,"y0":2021,"y1":2021,"sp":[[69,1,1,0,2021,2021],[70,1,1,0,2021,2021],[71,1,1,0,2021,2021]]}},{"type":"Feature","geometry":{"type":"Polygon","coordinates":[[[-86.15136,37.18025],[-86.14989,37.18149],[-86.15053,37.18325],[-86.15264,37.18377],[-86.15411,37.18253],[-86.15347,37.18077],[-86.15136,37.18025]]]},"properties":{"cell":"89266bba69bffff","res":9,"coarsened":false,"count":1,"hv":1,"mp":0,"y0":2021,"y1":2021,"sp":[[31,1,1,0,2021,2021]]}},{"type":"Feature","geometry":{"type":"Polygon","coordinates":[[[-86.18902,37.21508],[-86.18755,37.21632],[-86.18818,37.21807],[-86.1903,37.21859],[-86.19177,37.21735],[-86.19113,37.21559],[-86.18902,37.21508]]]},"properties":{"cell":"89266b85e67ffff","res":9,"coarsened":false,"count":1,"hv":1,"mp":0,"y0":2021,"y1":2021,"sp":[[72,1,1,0,2021,2021]]}},{"type":"Feature","geometry":{"type":"Polygon","coordinates":[[[-86.14754,37.16972],[-86.14607,37.17095],[-86.1467,37.17271],[-86.14881,37.17323],[-86.15028,37.17199],[-86.14965,37.17023],[-86.14754,37.16972]]]},"properties":{"cell":"89266bba6abffff","res":9,"coarsened":false,"count":1,"hv":1,"mp":0,"y0":2021,"y1":2021,"sp":[[31,1,1,0,2021,2021]]}},{"type":"Feature","geometry":{"type":"Polygon","coordinates":[[[-86.1866,37.18729],[-86.18513,37.18853],[-86.18577,37.19029],[-86.18788,37.1908],[-86.18935,37.18956],[-86.18871,37.18781],[-86.1866,37.18729]]]},"properties":{"cell":"89266b85b4bffff","res":9,"coarsened":false,"count":1,"hv":1,"mp":0,"y0":2021,"y1":2021,"sp":[[34,1,1,0,2021,2021]]}},{"type":"Feature","geometry":{"type":"Polygon","coordinates":[[[-86.10732,37.18064],[-86.10584,37.18187],[-86.10648,37.18363],[-86.10859,37.18415],[-86.11006,37.18291],[-86.10943,37.18115],[-86.10732,37.18064]]]},"properties":{"cell":"89266b84b0bffff","res":9,"coarsened":false,"count":14,"hv":14,"mp":0,"y0":2014,"y1":2026,"sp":[[2,2,2,0,2021,2024],[30,2,2,0,2024,2025],[55,2,2,0,2026,2026],[74,1,1,0,2021,2021],[61,1,1,0,2024,2024],[4,1,1,0,2024,2024],[42,1,1,0,2025,2025],[40,1,1,0,2025,2025],[78,1,1,0,2025,2025],[41,1,1,0,2025,2025],[38,1,1,0,2014,2014]]}},{"type":"Feature","geometry":{"type":"Polygon","coordinates":[[[-86.06316,37.21775],[-86.0278,37.23142],[-86.02638,37.26464],[-86.06036,37.2842],[-86.09575,37.27054],[-86.09714,37.23731],[-86.06316,37.21775]]]},"properties":{"cell":"86266b86fffffff","res":6,"coarsened":true,"count":2,"hv":2,"mp":0,"y0":2020,"y1":2026,"sp":[[36,2,2,0,2020,2026]]}},{"type":"Feature","geometry":{"type":"Polygon","coordinates":[[[-86.09276,37.17226],[-86.09129,37.1735],[-86.09192,37.17525],[-86.09403,37.17577],[-86.0955,37.17453],[-86.09487,37.17278],[-86.09276,37.17226]]]},"properties":{"cell":"89266bb16cbffff","res":9,"coarsened":false,"count":1,"hv":1,"mp":0,"y0":2021,"y1":2021,"sp":[[35,1,1,0,2021,2021]]}},{"type":"Feature","geometry":{"type":"Polygon","coordinates":[[[-86.23728,37.19969],[-86.23581,37.20093],[-86.23645,37.20269],[-86.23856,37.2032],[-86.24003,37.20196],[-86.23939,37.20021],[-86.23728,37.19969]]]},"properties":{"cell":"89266b8eb83ffff","res":9,"coarsened":false,"count":16,"hv":16,"mp":0,"y0":2022,"y1":2026,"sp":[[38,2,2,0,2022,2024],[82,1,1,0,2022,2022],[2,1,1,0,2022,2022],[23,1,1,0,2024,2024],[99,1,1,0,2024,2024],[43,1,1,0,2024,2024],[60,1,1,0,2024,2024],[34,1,1,0,2024,2024],[102,1,1,0,2024,2024],[24,1,1,0,2024,2024],[39,1,1,0,2024,2024],[9,1,1,0,2024,2024],[108,1,1,0,2025,2025],[49,1,1,0,2026,2026],[12,1,1,0,2026,2026]]}},{"type":"Feature","geometry":{"type":"Polygon","coordinates":[[[-86.07832,37.21189],[-86.07685,37.21313],[-86.07748,37.21488],[-86.07959,37.2154],[-86.08106,37.21416],[-86.08043,37.21241],[-86.07832,37.21189]]]},"properties":{"cell":"89266b84dcfffff","res":9,"coarsened":false,"count":1,"hv":1,"mp":0,"y0":2022,"y1":2022,"sp":[[83,1,1,0,2022,2022]]}},{"type":"Feature","geometry":{"type":"Polygon","coordinates":[[[-86.07892,37.19764],[-86.07744,37.19888],[-86.07808,37.20064],[-86.08019,37.20116],[-86.08166,37.19992],[-86.08102,37.19816],[-86.07892,37.19764]]]},"properties":{"cell":"89266b84d6fffff","res":9,"coarsened":false,"count":4,"hv":4,"mp":0,"y0":2022,"y1":2022,"sp":[[43,1,1,0,2022,2022],[10,1,1,0,2022,2022],[80,1,1,0,2022,2022],[6,1,1,0,2022,2022]]}},{"type":"Feature","geometry":{"type":"Polygon","coordinates":[[[-86.0961,37.16028],[-86.09463,37.16152],[-86.09526,37.16328],[-86.09737,37.16379],[-86.09884,37.16256],[-86.0982,37.1608],[-86.0961,37.16028]]]},"properties":{"cell":"89266bba5b7ffff","res":9,"coarsened":false,"count":1,"hv":1,"mp":0,"y0":2005,"y1":2005,"sp":[[4,1,1,0,2005,2005]]}},{"type":"Feature","geometry":{"type":"Polygon","coordinates":[[[-86.1208,37.18075],[-86.11933,37.18199],[-86.11997,37.18374],[-86.12208,37.18426],[-86.12355,37.18302],[-86.12291,37.18127],[-86.1208,37.18075]]]},"properties":{"cell":"89266bba487ffff","res":9,"coarsened":false,"count":1,"hv":1,"mp":0,"y0":2020,"y1":2020,"sp":[[13,1,1,0,2020,2020]]}},{"type":"Feature","geometry":{"type":"Polygon","coordinates":[[[-86.09992,37.17082],[-86.06456,37.18451],[-86.06316,37.21775],[-86.09714,37.23731],[-86.13252,37.22361],[-86.1339,37.19036],[-86.09992,37.17082]]]},"properties":{"cell":"86266b84fffffff","res":6,"coarsened":true,"count":4,"hv":4,"mp":0,"y0":2022,"y1":2024,"sp":[[36,4,4,0,2022,2024]]}},{"type":"Feature","geometry":{"type":"Polygon","coordinates":[[[-86.10613,37.20913],[-86.10466,37.21037],[-86.10529,37.21213],[-86.1074,37.21265],[-86.10887,37.21141],[-86.10824,37.20965],[-86.10613,37.20913]]]},"properties":{"cell":"89266b848cbffff","res":9,"coarsened":false,"count":1,"hv":1,"mp":0,"y0":2022,"y1":2022,"sp":[[2,1,1,0,2022,2022]]}},{"type":"Feature","geometry":{"type":"Polygon","coordinates":[[[-86.15421,37.14575],[-86.15274,37.14699],[-86.15337,37.14875],[-86.15548,37.14926],[-86.15695,37.14802],[-86.15632,37.14627],[-86.15421,37.14575]]]},"properties":{"cell":"89266bba233ffff","res":9,"coarsened":false,"count":3,"hv":3,"mp":0,"y0":2022,"y1":2026,"sp":[[55,1,1,0,2022,2022],[74,1,1,0,2026,2026],[42,1,1,0,2026,2026]]}},{"type":"Feature","geometry":{"type":"Polygon","coordinates":[[[-86.09109,37.17825],[-86.08962,37.17948],[-86.09025,37.18124],[-86.09236,37.18176],[-86.09383,37.18052],[-86.0932,37.17876],[-86.09109,37.17825]]]},"properties":{"cell":"89266b84ba7ffff","res":9,"coarsened":false,"count":2,"hv":2,"mp":0,"y0":2022,"y1":2024,"sp":[[2,1,1,0,2022,2022],[4,1,1,0,2024,2024]]}},{"type":"Feature","geometry":{"type":"Polygon","coordinates":[[[-86.08727,37.16771],[-86.0858,37.16895],[-86.08643,37.1707],[-86.08854,37.17122],[-86.09001,37.16998],[-86.08938,37.16823],[-86.08727,37.16771]]]},"properties":{"cell":"89266bb161bffff","res":9,"coarsened":false,"count":9,"hv":9,"mp":0,"y0":2013,"y1":2025,"sp":[[4,3,3,0,2013,2025],[45,2,2,0,2014,2014],[86,1,1,0,2022,2022],[2,1,1,0,2025,2025],[96,1,1,0,2014,2014],[44,1,1,0,2013,2013]]}},{"type":"Feature","geometry":{"type":"Polygon","coordinates":[[[-86.07272,37.15933],[-86.07124,37.16057],[-86.07188,37.16232],[-86.07399,37.16284],[-86.07546,37.16161],[-86.07482,37.15985],[-86.07272,37.15933]]]},"properties":{"cell":"89266bb10dbffff","res":9,"coarsened":false,"count":1,"hv":1,"mp":0,"y0":2022,"y1":2022,"sp":[[86,1,1,0,2022,2022]]}},{"type":"Feature","geometry":{"type":"Polygon","coordinates":[[[-86.04897,37.18387],[-86.0475,37.18511],[-86.04814,37.18687],[-86.05024,37.18739],[-86.05172,37.18615],[-86.05108,37.18439],[-86.04897,37.18387]]]},"properties":{"cell":"89266bb3223ffff","res":9,"coarsened":false,"count":1,"hv":1,"mp":0,"y0":2022,"y1":2022,"sp":[[87,1,1,0,2022,2022]]}},{"type":"Feature","geometry":{"type":"Polygon","coordinates":[[[-86.15995,37.16156],[-86.15848,37.1628],[-86.15911,37.16456],[-86.16122,37.16507],[-86.1627,37.16383],[-86.16206,37.16208],[-86.15995,37.16156]]]},"properties":{"cell":"89266bba66fffff","res":9,"coarsened":false,"count":3,"hv":3,"mp":0,"y0":2023,"y1":2023,"sp":[[89,2,2,0,2023,2023],[78,1,1,0,2023,2023]]}},{"type":"Feature","geometry":{"type":"Polygon","coordinates":[[[-86.09085,37.16699],[-86.08938,37.16823],[-86.09001,37.16998],[-86.09212,37.1705],[-86.09359,37.16926],[-86.09296,37.16751],[-86.09085,37.16699]]]},"properties":{"cell":"89266bb1657ffff","res":9,"coarsened":false,"count":1,"hv":1,"mp":0,"y0":2023,"y1":2023,"sp":[[2,1,1,0,2023,2023]]}},{"type":"Feature","geometry":{"type":"Polygon","coordinates":[[[-86.10123,37.19034],[-86.09976,37.19158],[-86.1004,37.19333],[-86.10251,37.19385],[-86.10398,37.19261],[-86.10334,37.19086],[-86.10123,37.19034]]]},"properties":{"cell":"89266b84b9bffff","res":9,"coarsened":false,"count":11,"hv":11,"mp":0,"y0":2021,"y1":2026,"sp":[[4,3,3,0,2021,2025],[23,2,2,0,2024,2025],[64,1,1,0,2023,2023],[22,1,1,0,2024,2024],[2,1,1,0,2024,2024],[44,1,1,0,2025,2025],[14,1,1,0,2025,2025],[3,1,1,0,2026,2026]]}},{"type":"Feature","geometry":{"type":"Polygon","coordinates":[[[-86.16044,37.18408],[-86.15897,37.18532],[-86.15961,37.18707],[-86.16172,37.18759],[-86.16319,37.18635],[-86.16255,37.1846],[-86.16044,37.18408]]]},"properties":{"cell":"89266b85ba7ffff","res":9,"coarsened":false,"count":1,"hv":1,"mp":0,"y0":2023,"y1":2023,"sp":[[90,1,1,0,2023,2023]]}},{"type":"Feature","geometry":{"type":"Polygon","coordinates":[[[-86.23869,37.18243],[-86.2033,37.19618],[-86.20194,37.22944],[-86.236,37.24897],[-86.27141,37.23523],[-86.27275,37.20195],[-86.23869,37.18243]]]},"properties":{"cell":"86266b8efffffff","res":6,"coarsened":true,"count":2,"hv":2,"mp":0,"y0":2023,"y1":2026,"sp":[[36,2,2,0,2023,2026]]}},{"type":"Feature","geometry":{"type":"Polygon","coordinates":[[[-86.09133,37.1895],[-86.08985,37.19074],[-86.09049,37.19249],[-86.0926,37.19301],[-86.09407,37.19178],[-86.09343,37.19002],[-86.09133,37.1895]]]},"properties":{"cell":"89266b8495bffff","res":9,"coarsened":false,"count":2,"hv":2,"mp":0,"y0":2023,"y1":2023,"sp":[[88,1,1,0,2023,2023],[97,1,1,0,2023,2023]]}},{"type":"Feature","geometry":{"type":"Polygon","coordinates":[[[-86.15612,37.15102],[-86.15465,37.15226],[-86.15529,37.15402],[-86.1574,37.15453],[-86.15887,37.15329],[-86.15823,37.15154],[-86.15612,37.15102]]]},"properties":{"cell":"89266bba217ffff","res":9,"coarsened":false,"count":6,"hv":6,"mp":0,"y0":2021,"y1":2026,"sp":[[23,2,2,0,2021,2026],[57,1,1,0,2022,2022],[97,1,1,0,2024,2024],[58,1,1,0,2025,2025],[38,1,1,0,2026,2026]]}},{"type":"Feature","geometry":{"type":"Polygon","coordinates":[[[-86.12473,37.15452],[-86.12326,37.15576],[-86.1239,37.15751],[-86.12601,37.15803],[-86.12748,37.15679],[-86.12684,37.15504],[-86.12473,37.15452]]]},"properties":{"cell":"89266bba0a3ffff","res":9,"coarsened":false,"count":1,"hv":1,"mp":0,"y0":2023,"y1":2023,"sp":[[4,1,1,0,2023,2023]]}},{"type":"Feature","geometry":{"type":"Polygon","coordinates":[[[-86.10839,37.1889],[-86.10692,37.19014],[-86.10756,37.19189],[-86.10967,37.19241],[-86.11114,37.19117],[-86.1105,37.18942],[-86.10839,37.1889]]]},"properties":{"cell":"89266b84bc3ffff","res":9,"coarsened":false,"count":4,"hv":4,"mp":0,"y0":2023,"y1":2026,"sp":[[55,1,1,0,2023,2023],[4,1,1,0,2024,2024],[29,1,1,0,2026,2026],[88,1,1,0,2026,2026]]}},{"type":"Feature","geometry":{"type":"Polygon","coordinates":[[[-86.16226,37.22611],[-86.16079,37.22735],[-86.16143,37.22911],[-86.16354,37.22963],[-86.16501,37.22839],[-86.16438,37.22663],[-86.16226,37.22611]]]},"properties":{"cell":"89266b85c0fffff","res":9,"coarsened":false,"count":1,"hv":1,"mp":0,"y0":2023,"y1":2023,"sp":[[4,1,1,0,2023,2023]]}},{"type":"Feature","geometry":{"type":"Polygon","coordinates":[[[-86.09252,37.161],[-86.09105,37.16224],[-86.09168,37.164],[-86.09379,37.16451],[-86.09526,37.16328],[-86.09463,37.16152],[-86.09252,37.161]]]},"properties":{"cell":"89266bb167bffff","res":9,"coarsened":false,"count":2,"hv":2,"mp":0,"y0":2017,"y1":2023,"sp":[[11,1,1,0,2023,2023],[61,1,1,0,2017,2017]]}},{"type":"Feature","geometry":{"type":"Polygon","coordinates":[[[-86.19585,37.23914],[-86.19438,37.24038],[-86.19502,37.24214],[-86.19713,37.24266],[-86.19861,37.24142],[-86.19797,37.23966],[-86.19585,37.23914]]]},"properties":{"cell":"89266b853a3ffff","res":9,"coarsened":false,"count":1,"hv":1,"mp":0,"y0":2023,"y1":2023,"sp":[[2,1,1,0,2023,2023]]}},{"type":"Feature","geometry":{"type":"Polygon","coordinates":[[[-86.12748,37.15679],[-86.12601,37.15803],[-86.12664,37.15979],[-86.12875,37.16031],[-86.13022,37.15907],[-86.12959,37.15731],[-86.12748,37.15679]]]},"properties":{"cell":"89266bba0bbffff","res":9,"coarsened":false,"count":1,"hv":1,"mp":0,"y0":2023,"y1":2023,"sp":[[2,1,1,0,2023,2023]]}},{"type":"Feature","geometry":{"type":"Polygon","coordinates":[[[-86.07033,37.13155],[-86.06886,37.13279],[-86.0695,37.13454],[-86.07161,37.13506],[-86.07308,37.13382],[-86.07244,37.13207],[-86.07033,37.13155]]]},"properties":{"cell":"89266bb1313ffff","res":9,"coarsened":false,"count":1,"hv":1,"mp":0,"y0":2024,"y1":2024,"sp":[[32,1,1,0,2024,2024]]}},{"type":"Feature","geometry":{"type":"Polygon","coordinates":[[[-86.13297,37.16134],[-86.1315,37.16258],[-86.13214,37.16434],[-86.13425,37.16485],[-86.13572,37.16362],[-86.13508,37.16186],[-86.13297,37.16134]]]},"properties":{"cell":"89266bba08bffff","res":9,"coarsened":false,"count":1,"hv":1,"mp":0,"y0":2024,"y1":2024,"sp":[[97,1,1,0,2024,2024]]}},{"type":"Feature","geometry":{"type":"Polygon","coordinates":[[[-86.059,37.14796],[-86.05753,37.14919],[-86.05817,37.15095],[-86.06027,37.15147],[-86.06175,37.15023],[-86.06111,37.14848],[-86.059,37.14796]]]},"properties":{"cell":"89266bb10abffff","res":9,"coarsened":false,"count":3,"hv":3,"mp":0,"y0":2024,"y1":2024,"sp":[[64,1,1,0,2024,2024],[7,1,1,0,2024,2024],[45,1,1,0,2024,2024]]}},{"type":"Feature","geometry":{"type":"Polygon","coordinates":[[[-86.14729,37.15846],[-86.14582,37.15969],[-86.14646,37.16145],[-86.14857,37.16197],[-86.15004,37.16073],[-86.1494,37.15897],[-86.14729,37.15846]]]},"properties":{"cell":"89266bba05bffff","res":9,"coarsened":false,"count":2,"hv":2,"mp":0,"y0":2024,"y1":2024,"sp":[[2,2,2,0,2024,2024]]}},{"type":"Feature","geometry":{"type":"Polygon","coordinates":[[[-86.13753,37.20565],[-86.13606,37.20689],[-86.13669,37.20865],[-86.1388,37.20916],[-86.14028,37.20793],[-86.13964,37.20617],[-86.13753,37.20565]]]},"properties":{"cell":"89266b85d23ffff","res":9,"coarsened":false,"count":19,"hv":19,"mp":0,"y0":2013,"y1":2024,"sp":[[23,5,5,0,2013,2013],[45,3,3,0,2014,2014],[26,2,2,0,2014,2014],[13,2,2,0,2013,2013],[10,1,1,0,2024,2024],[8,1,1,0,2013,2013],[120,1,1,0,2013,2013],[44,1,1,0,2013,2013],[27,1,1,0,2013,2013],[15,1,1,0,2013,2013],[14,1,1,0,2013,2013]]}},{"type":"Feature","geometry":{"type":"Polygon","coordinates":[[[-86.09491,37.18878],[-86.09343,37.19002],[-86.09407,37.19178],[-86.09618,37.19229],[-86.09765,37.19106],[-86.09701,37.1893],[-86.09491,37.18878]]]},"properties":{"cell":"89266b84b97ffff","res":9,"coarsened":false,"count":2,"hv":2,"mp":0,"y0":2024,"y1":2025,"sp":[[3,1,1,0,2024,2024],[4,1,1,0,2025,2025]]}},{"type":"Feature","geometry":{"type":"Polygon","coordinates":[[[-86.07259,37.19609],[-86.07112,37.19732],[-86.07176,37.19908],[-86.07386,37.1996],[-86.07534,37.19836],[-86.0747,37.19661],[-86.07259,37.19609]]]},"properties":{"cell":"89266b84993ffff","res":9,"coarsened":false,"count":22,"hv":22,"mp":0,"y0":2024,"y1":2025,"sp":[[57,1,1,0,2024,2024],[34,1,1,0,2024,2024],[81,1,1,0,2024,2024],[98,1,1,0,2024,2024],[99,1,1,0,2024,2024],[10,1,1,0,2024,2024],[14,1,1,0,2024,2024],[100,1,1,0,2024,2024],[24,1,1,0,2024,2024],[13,1,1,0,2024,2024],[97,1,1,0,2024,2024],[11,1,1,0,2024,2024],[44,1,1,0,2024,2024],[26,1,1,0,2024,2024],[43,1,1,0,2024,2024],[25,1,1,0,2024,2024],[23,1,1,0,2024,2024],[60,1,1,0,2024,2024],[55,1,1,0,2024,2024],[7,1,1,0,2024,2024],[22,1,1,0,2024,2024],[20,1,1,0,2025,2025]]}},{"type":"Feature","geometry":{"type":"Polygon","coordinates":[[[-86.11424,37.16794],[-86.11276,37.16918],[-86.1134,37.17093],[-86.11551,37.17145],[-86.11698,37.17021],[-86.11634,37.16846],[-86.11424,37.16794]]]},"properties":{"cell":"89266bba5c3ffff","res":9,"coarsened":false,"count":2,"hv":2,"mp":0,"y0":2024,"y1":2024,"sp":[[71,1,1,0,2024,2024],[8,1,1,0,2024,2024]]}},{"type":"Feature","geometry":{"type":"Polygon","coordinates":[[[-86.11531,37.1762],[-86.11384,37.17744],[-86.11448,37.1792],[-86.11659,37.17971],[-86.11806,37.17848],[-86.11742,37.17672],[-86.11531,37.1762]]]},"properties":{"cell":"89266bba4b7ffff","res":9,"coarsened":false,"count":1,"hv":1,"mp":0,"y0":2024,"y1":2024,"sp":[[19,1,1,0,2024,2024]]}},{"type":"Feature","geometry":{"type":"Polygon","coordinates":[[[-86.07784,37.18938],[-86.07637,37.19062],[-86.07701,37.19238],[-86.07911,37.1929],[-86.08059,37.19166],[-86.07995,37.1899],[-86.07784,37.18938]]]},"properties":{"cell":"89266b84913ffff","res":9,"coarsened":false,"count":1,"hv":1,"mp":0,"y0":2024,"y1":2024,"sp":[[85,1,1,0,2024,2024]]}},{"type":"Feature","geometry":{"type":"Polygon","coordinates":[[[-86.0577,37.12844],[-86.05623,37.12968],[-86.05686,37.13143],[-86.05897,37.13195],[-86.06044,37.13071],[-86.0598,37.12896],[-86.0577,37.12844]]]},"properties":{"cell":"89266bb13b7ffff","res":9,"coarsened":false,"count":2,"hv":2,"mp":0,"y0":2024,"y1":2024,"sp":[[47,1,1,0,2024,2024],[52,1,1,0,2024,2024]]}},{"type":"Feature","geometry":{"type":"Polygon","coordinates":[[[-86.11305,37.19644],[-86.11158,37.19768],[-86.11221,37.19943],[-86.11432,37.19995],[-86.1158,37.19871],[-86.11516,37.19696],[-86.11305,37.19644]]]},"properties":{"cell":"89266b84aa3ffff","res":9,"coarsened":false,"count":1,"hv":1,"mp":0,"y0":2024,"y1":2024,"sp":[[2,1,1,0,2024,2024]]}},{"type":"Feature","geometry":{"type":"Polygon","coordinates":[[[-86.11663,37.19572],[-86.11516,37.19696],[-86.1158,37.19871],[-86.1179,37.19923],[-86.11938,37.198],[-86.11874,37.19624],[-86.11663,37.19572]]]},"properties":{"cell":"89266b84aabffff","res":9,"coarsened":false,"count":1,"hv":1,"mp":0,"y0":2024,"y1":2024,"sp":[[4,1,1,0,2024,2024]]}},{"type":"Feature","geometry":{"type":"Polygon","coordinates":[[[-86.04921,37.19513],[-86.04774,37.19636],[-86.04837,37.19812],[-86.05048,37.19864],[-86.05195,37.1974],[-86.05131,37.19565],[-86.04921,37.19513]]]},"properties":{"cell":"89266bb328fffff","res":9,"coarsened":false,"count":1,"hv":1,"mp":0,"y0":2024,"y1":2024,"sp":[[52,1,1,0,2024,2024]]}},{"type":"Feature","geometry":{"type":"Polygon","coordinates":[[[-86.04693,37.21535],[-86.04546,37.21659],[-86.0461,37.21835],[-86.0482,37.21887],[-86.04968,37.21763],[-86.04904,37.21587],[-86.04693,37.21535]]]},"properties":{"cell":"89266bb3613ffff","res":9,"coarsened":false,"count":3,"hv":3,"mp":0,"y0":2024,"y1":2026,"sp":[[83,1,1,0,2024,2024],[22,1,1,0,2026,2026],[13,1,1,0,2026,2026]]}},{"type":"Feature","geometry":{"type":"Polygon","coordinates":[[[-86.1004,37.19333],[-86.09892,37.19457],[-86.09956,37.19632],[-86.10167,37.19684],[-86.10314,37.19561],[-86.10251,37.19385],[-86.1004,37.19333]]]},"properties":{"cell":"89266b84867ffff","res":9,"coarsened":false,"count":2,"hv":2,"mp":0,"y0":2024,"y1":2024,"sp":[[2,2,2,0,2024,2024]]}},{"type":"Feature","geometry":{"type":"Polygon","coordinates":[[[-86.22345,37.22511],[-86.22198,37.22634],[-86.22262,37.2281],[-86.22473,37.22862],[-86.2262,37.22738],[-86.22556,37.22562],[-86.22345,37.22511]]]},"properties":{"cell":"89266b8ec27ffff","res":9,"coarsened":false,"count":1,"hv":1,"mp":0,"y0":2024,"y1":2024,"sp":[[61,1,1,0,2024,2024]]}},{"type":"Feature","geometry":{"type":"Polygon","coordinates":[[[-86.10279,37.22111],[-86.10132,37.22234],[-86.10195,37.2241],[-86.10406,37.22462],[-86.10553,37.22338],[-86.1049,37.22163],[-86.10279,37.22111]]]},"properties":{"cell":"89266b84c4fffff","res":9,"coarsened":false,"count":1,"hv":1,"mp":0,"y0":2024,"y1":2024,"sp":[[107,1,1,0,2024,2024]]}},{"type":"Feature","geometry":{"type":"Polygon","coordinates":[[[-86.05493,37.21093],[-86.05346,37.21216],[-86.05409,37.21392],[-86.0562,37.21444],[-86.05767,37.2132],[-86.05704,37.21145],[-86.05493,37.21093]]]},"properties":{"cell":"89266bb3647ffff","res":9,"coarsened":false,"count":1,"hv":1,"mp":0,"y0":2025,"y1":2025,"sp":[[64,1,1,0,2025,2025]]}},{"type":"Feature","geometry":{"type":"Polygon","coordinates":[[[-86.14013,37.1599],[-86.13866,37.16114],[-86.1393,37.16289],[-86.14141,37.16341],[-86.14288,37.16217],[-86.14224,37.16042],[-86.14013,37.1599]]]},"properties":{"cell":"89266bba0cfffff","res":9,"coarsened":false,"count":1,"hv":1,"mp":0,"y0":2025,"y1":2025,"sp":[[109,1,1,0,2025,2025]]}},{"type":"Feature","geometry":{"type":"Polygon","coordinates":[[[-86.11854,37.20099],[-86.11707,37.20223],[-86.11771,37.20398],[-86.11982,37.2045],[-86.12129,37.20326],[-86.12065,37.20151],[-86.11854,37.20099]]]},"properties":{"cell":"89266b84a8fffff","res":9,"coarsened":false,"count":1,"hv":1,"mp":0,"y0":2010,"y1":2010,"sp":[[110,1,1,0,2010,2010]]}},{"type":"Feature","geometry":{"type":"Polygon","coordinates":[[[-86.13561,37.20038],[-86.13414,37.20162],[-86.13478,37.20338],[-86.13689,37.2039],[-86.13836,37.20266],[-86.13772,37.2009],[-86.13561,37.20038]]]},"properties":{"cell":"89266b84a5bffff","res":9,"coarsened":false,"count":1,"hv":1,"mp":0,"y0":2025,"y1":2025,"sp":[[68,1,1,0,2025,2025]]}},{"type":"Feature","geometry":{"type":"Polygon","coordinates":[[[-86.22787,37.22139],[-86.22639,37.22263],[-86.22703,37.22438],[-86.22915,37.2249],[-86.23062,37.22366],[-86.22998,37.2219],[-86.22787,37.22139]]]},"properties":{"cell":"89266b8e897ffff","res":9,"coarsened":false,"count":1,"hv":1,"mp":0,"y0":2025,"y1":2025,"sp":[[30,1,1,0,2025,2025]]}},{"type":"Feature","geometry":{"type":"Polygon","coordinates":[[[-86.15284,37.24779],[-86.15137,37.24903],[-86.15201,37.25078],[-86.15412,37.2513],[-86.15559,37.25006],[-86.15495,37.24831],[-86.15284,37.24779]]]},"properties":{"cell":"89266b84207ffff","res":9,"coarsened":false,"count":1,"hv":1,"mp":0,"y0":2025,"y1":2025,"sp":[[2,1,1,0,2025,2025]]}},{"type":"Feature","geometry":{"type":"Polygon","coordinates":[[[-86.10398,37.19261],[-86.10251,37.19385],[-86.10314,37.19561],[-86.10525,37.19612],[-86.10672,37.19489],[-86.10609,37.19313],[-86.10398,37.19261]]]},"properties":{"cell":"89266b8486fffff","res":9,"coarsened":false,"count":2,"hv":2,"mp":0,"y0":2025,"y1":2026,"sp":[[2,1,1,0,2025,2025],[66,1,1,0,2026,2026]]}},{"type":"Feature","geometry":{"type":"Polygon","coordinates":[[[-86.14719,37.19523],[-86.14572,37.19647],[-86.14636,37.19822],[-86.14847,37.19874],[-86.14994,37.1975],[-86.1493,37.19575],[-86.14719,37.19523]]]},"properties":{"cell":"89266b85913ffff","res":9,"coarsened":false,"count":26,"hv":26,"mp":0,"y0":2024,"y1":2026,"sp":[[4,2,2,0,2024,2026],[7,2,2,0,2026,2026],[31,2,2,0,2026,2026],[12,2,2,0,2026,2026],[0,2,2,0,2026,2026],[39,1,1,0,2026,2026],[120,1,1,0,2026,2026],[28,1,1,0,2026,2026],[85,1,1,0,2026,2026],[51,1,1,0,2026,2026],[32,1,1,0,2026,2026],[78,1,1,0,2026,2026],[84,1,1,0,2026,2026],[54,1,1,0,2026,2026],[113,1,1,0,2026,2026],[41,1,1,0,2026,2026],[57,1,1,0,2026,2026],[15,1,1,0,2026,2026],[10,1,1,0,2026,2026],[29,1,1,0,2026,2026],[71,1,1,0,2026,2026]]}},{"type":"Feature","geometry":{"type":"Polygon","coordinates":[[[-86.06723,37.15478],[-86.06576,37.15602],[-86.06639,37.15777],[-86.0685,37.15829],[-86.06997,37.15706],[-86.06934,37.1553],[-86.06723,37.15478]]]},"properties":{"cell":"89266bb10c7ffff","res":9,"coarsened":false,"count":1,"hv":1,"mp":0,"y0":2025,"y1":2025,"sp":[[38,1,1,0,2025,2025]]}},{"type":"Feature","geometry":{"type":"Polygon","coordinates":[[[-86.04419,37.21308],[-86.04272,37.21432],[-86.04335,37.21607],[-86.04546,37.21659],[-86.04693,37.21535],[-86.0463,37.2136],[-86.04419,37.21308]]]},"properties":{"cell":"89266bb3617ffff","res":9,"coarsened":false,"count":1,"hv":1,"mp":0,"y0":2025,"y1":2025,"sp":[[38,1,1,0,2025,2025]]}},{"type":"Feature","geometry":{"type":"Polygon","coordinates":[[[-86.10099,37.17908],[-86.09952,37.18032],[-86.10016,37.18208],[-86.10226,37.18259],[-86.10374,37.18136],[-86.1031,37.1796],[-86.10099,37.17908]]]},"properties":{"cell":"89266b84b07ffff","res":9,"coarsened":false,"count":6,"hv":6,"mp":0,"y0":2024,"y1":2026,"sp":[[35,2,2,0,2026,2026],[42,1,1,0,2025,2025],[2,1,1,0,2025,2025],[54,1,1,0,2026,2026],[4,1,1,0,2024,2024]]}},{"type":"Feature","geometry":{"type":"Polygon","coordinates":[[[-86.10457,37.17836],[-86.1031,37.1796],[-86.10374,37.18136],[-86.10584,37.18187],[-86.10732,37.18064],[-86.10668,37.17888],[-86.10457,37.17836]]]},"properties":{"cell":"89266b84b0fffff","res":9,"coarsened":false,"count":2,"hv":2,"mp":0,"y0":2025,"y1":2026,"sp":[[15,1,1,0,2025,2025],[2,1,1,0,2026,2026]]}},{"type":"Feature","geometry":{"type":"Polygon","coordinates":[[[-86.13012,37.19584],[-86.12865,37.19707],[-86.12929,37.19883],[-86.1314,37.19935],[-86.13287,37.19811],[-86.13223,37.19635],[-86.13012,37.19584]]]},"properties":{"cell":"89266b84a47ffff","res":9,"coarsened":false,"count":1,"hv":1,"mp":0,"y0":2025,"y1":2025,"sp":[[3,1,1,0,2025,2025]]}},{"type":"Feature","geometry":{"type":"Polygon","coordinates":[[[-86.14803,37.19223],[-86.14656,37.19347],[-86.14719,37.19523],[-86.1493,37.19575],[-86.15078,37.19451],[-86.15014,37.19275],[-86.14803,37.19223]]]},"properties":{"cell":"89266b85903ffff","res":9,"coarsened":false,"count":1,"hv":1,"mp":0,"y0":2025,"y1":2025,"sp":[[29,1,1,0,2025,2025]]}},{"type":"Feature","geometry":{"type":"Polygon","coordinates":[[[-86.15887,37.15329],[-86.1574,37.15453],[-86.15803,37.15629],[-86.16014,37.15681],[-86.16162,37.15557],[-86.16098,37.15381],[-86.15887,37.15329]]]},"properties":{"cell":"89266bba213ffff","res":9,"coarsened":false,"count":4,"hv":4,"mp":0,"y0":2025,"y1":2026,"sp":[[37,1,1,0,2025,2025],[84,1,1,0,2025,2025],[89,1,1,0,2026,2026],[66,1,1,0,2026,2026]]}},{"type":"Feature","geometry":{"type":"Polygon","coordinates":[[[-86.06794,37.18855],[-86.06647,37.18978],[-86.0671,37.19154],[-86.06921,37.19206],[-86.07068,37.19082],[-86.07005,37.18906],[-86.06794,37.18855]]]},"properties":{"cell":"89266b849b3ffff","res":9,"coarsened":false,"count":1,"hv":1,"mp":0,"y0":2025,"y1":2025,"sp":[[4,1,1,0,2025,2025]]}},{"type":"Feature","geometry":{"type":"Polygon","coordinates":[[[-86.08918,37.17298],[-86.08771,37.17422],[-86.08834,37.17597],[-86.09045,37.17649],[-86.09192,37.17525],[-86.09129,37.1735],[-86.08918,37.17298]]]},"properties":{"cell":"89266bb16c3ffff","res":9,"coarsened":false,"count":3,"hv":3,"mp":0,"y0":2023,"y1":2025,"sp":[[2,1,1,0,2025,2025],[4,1,1,0,2025,2025],[47,1,1,0,2023,2023]]}},{"type":"Feature","geometry":{"type":"Polygon","coordinates":[[[-86.05219,37.20865],[-86.05071,37.20989],[-86.05135,37.21165],[-86.05346,37.21216],[-86.05493,37.21093],[-86.05429,37.20917],[-86.05219,37.20865]]]},"properties":{"cell":"89266bb3673ffff","res":9,"coarsened":false,"count":1,"hv":1,"mp":0,"y0":2025,"y1":2025,"sp":[[83,1,1,0,2025,2025]]}},{"type":"Feature","geometry":{"type":"Polygon","coordinates":[[[-86.11496,37.20171],[-86.11349,37.20295],[-86.11413,37.2047],[-86.11624,37.20522],[-86.11771,37.20398],[-86.11707,37.20223],[-86.11496,37.20171]]]},"properties":{"cell":"89266b84a87ffff","res":9,"coarsened":false,"count":1,"hv":1,"mp":0,"y0":2025,"y1":2025,"sp":[[2,1,1,0,2025,2025]]}},{"type":"Feature","geometry":{"type":"Polygon","coordinates":[[[-86.11747,37.19273],[-86.11599,37.19397],[-86.11663,37.19572],[-86.11874,37.19624],[-86.12021,37.195],[-86.11957,37.19325],[-86.11747,37.19273]]]},"properties":{"cell":"89266b84a33ffff","res":9,"coarsened":false,"count":1,"hv":1,"mp":0,"y0":2025,"y1":2025,"sp":[[116,1,1,0,2025,2025]]}},{"type":"Feature","geometry":{"type":"Polygon","coordinates":[[[-86.13238,37.17559],[-86.13091,37.17683],[-86.13155,37.17859],[-86.13365,37.17911],[-86.13513,37.17787],[-86.13449,37.17611],[-86.13238,37.17559]]]},"properties":{"cell":"89266bba40bffff","res":9,"coarsened":false,"count":1,"hv":1,"mp":0,"y0":2025,"y1":2025,"sp":[[66,1,1,0,2025,2025]]}},{"type":"Feature","geometry":{"type":"Polygon","coordinates":[[[-86.12796,37.17931],[-86.12649,37.18055],[-86.12713,37.1823],[-86.12924,37.18282],[-86.13071,37.18158],[-86.13007,37.17983],[-86.12796,37.17931]]]},"properties":{"cell":"89266bba413ffff","res":9,"coarsened":false,"count":1,"hv":1,"mp":0,"y0":2025,"y1":2025,"sp":[[33,1,1,0,2025,2025]]}},{"type":"Feature","geometry":{"type":"Polygon","coordinates":[[[-86.12737,37.19356],[-86.1259,37.1948],[-86.12654,37.19656],[-86.12865,37.19707],[-86.13012,37.19584],[-86.12948,37.19408],[-86.12737,37.19356]]]},"properties":{"cell":"89266b84a73ffff","res":9,"coarsened":false,"count":1,"hv":1,"mp":0,"y0":2025,"y1":2025,"sp":[[117,1,1,0,2025,2025]]}},{"type":"Feature","geometry":{"type":"Polygon","coordinates":[[[-86.15254,37.15174],[-86.15107,37.15298],[-86.15171,37.15474],[-86.15382,37.15526],[-86.15529,37.15402],[-86.15465,37.15226],[-86.15254,37.15174]]]},"properties":{"cell":"89266bba2bbffff","res":9,"coarsened":false,"count":1,"hv":1,"mp":0,"y0":2026,"y1":2026,"sp":[[31,1,1,0,2026,2026]]}},{"type":"Feature","geometry":{"type":"Polygon","coordinates":[[[-86.09562,37.22254],[-86.09415,37.22378],[-86.09479,37.22554],[-86.0969,37.22605],[-86.09837,37.22482],[-86.09773,37.22306],[-86.09562,37.22254]]]},"properties":{"cell":"89266b84c0bffff","res":9,"coarsened":false,"count":1,"hv":1,"mp":0,"y0":2026,"y1":2026,"sp":[[121,1,1,0,2026,2026]]}},{"type":"Feature","geometry":{"type":"Polygon","coordinates":[[[-86.13429,37.18086],[-86.13282,37.1821],[-86.13346,37.18386],[-86.13557,37.18438],[-86.13704,37.18314],[-86.1364,37.18138],[-86.13429,37.18086]]]},"properties":{"cell":"89266bba4cfffff","res":9,"coarsened":false,"count":1,"hv":1,"mp":0,"y0":2022,"y1":2022,"sp":[[83,1,1,0,2022,2022]]}},{"type":"Feature","geometry":{"type":"Polygon","coordinates":[[[-86.10183,37.17609],[-86.10035,37.17733],[-86.10099,37.17908],[-86.1031,37.1796],[-86.10457,37.17836],[-86.10393,37.17661],[-86.10183,37.17609]]]},"properties":{"cell":"89266b84b3bffff","res":9,"coarsened":false,"count":1,"hv":1,"mp":0,"y0":2026,"y1":2026,"sp":[[85,1,1,0,2026,2026]]}},{"type":"Feature","geometry":{"type":"Polygon","coordinates":[[[-86.12904,37.18757],[-86.12757,37.18881],[-86.12821,37.19057],[-86.13032,37.19109],[-86.13179,37.18985],[-86.13115,37.18809],[-86.12904,37.18757]]]},"properties":{"cell":"89266b84a6fffff","res":9,"coarsened":false,"count":1,"hv":1,"mp":0,"y0":2026,"y1":2026,"sp":[[14,1,1,0,2026,2026]]}},{"type":"Feature","geometry":{"type":"Polygon","coordinates":[[[-86.07331,37.14508],[-86.07184,37.14632],[-86.07248,37.14807],[-86.07459,37.14859],[-86.07606,37.14735],[-86.07542,37.1456],[-86.07331,37.14508]]]},"properties":{"cell":"89266bb107bffff","res":9,"coarsened":false,"count":2,"hv":2,"mp":0,"y0":2026,"y1":2026,"sp":[[4,2,2,0,2026,2026]]}},{"type":"Feature","geometry":{"type":"Polygon","coordinates":[[[-86.10887,37.21141],[-86.1074,37.21265],[-86.10804,37.2144],[-86.11015,37.21492],[-86.11162,37.21368],[-86.11098,37.21193],[-86.10887,37.21141]]]},"properties":{"cell":"89266b84e37ffff","res":9,"coarsened":false,"count":1,"hv":1,"mp":0,"y0":2026,"y1":2026,"sp":[[121,1,1,0,2026,2026]]}},{"type":"Feature","geometry":{"type":"Polygon","coordinates":[[[-86.09574,37.18579],[-86.09427,37.18703],[-86.09491,37.18878],[-86.09701,37.1893],[-86.09849,37.18806],[-86.09785,37.18631],[-86.09574,37.18579]]]},"properties":{"cell":"89266b84b87ffff","res":9,"coarsened":false,"count":1,"hv":1,"mp":0,"y0":2026,"y1":2026,"sp":[[23,1,1,0,2026,2026]]}},{"type":"Feature","geometry":{"type":"Polygon","coordinates":[[[-86.10433,37.16711],[-86.10286,37.16834],[-86.1035,37.1701],[-86.1056,37.17062],[-86.10708,37.16938],[-86.10644,37.16762],[-86.10433,37.16711]]]},"properties":{"cell":"89266bba583ffff","res":9,"coarsened":false,"count":1,"hv":1,"mp":0,"y0":2026,"y1":2026,"sp":[[52,1,1,0,2026,2026]]}},{"type":"Feature","geometry":{"type":"Polygon","coordinates":[[[-86.13478,37.20338],[-86.13331,37.20462],[-86.13395,37.20637],[-86.13606,37.20689],[-86.13753,37.20565],[-86.13689,37.2039],[-86.13478,37.20338]]]},"properties":{"cell":"89266b85d27ffff","res":9,"coarsened":false,"count":1,"hv":1,"mp":0,"y0":2026,"y1":2026,"sp":[[42,1,1,0,2026,2026]]}},{"type":"Feature","geometry":{"type":"Polygon","coordinates":[[[-86.06271,37.11047],[-86.06124,37.11171],[-86.06187,37.11347],[-86.06398,37.11398],[-86.06545,37.11275],[-86.06481,37.11099],[-86.06271,37.11047]]]},"properties":{"cell":"89266bb1e4fffff","res":9,"coarsened":false,"count":1,"hv":1,"mp":0,"y0":2026,"y1":2026,"sp":[[85,1,1,0,2026,2026]]}},{"type":"Feature","geometry":{"type":"Polygon","coordinates":[[[-86.13728,37.19439],[-86.13581,37.19563],[-86.13645,37.19739],[-86.13856,37.19791],[-86.14003,37.19667],[-86.13939,37.19491],[-86.13728,37.19439]]]},"properties":{"cell":"89266b859b3ffff","res":9,"coarsened":false,"count":1,"hv":1,"mp":0,"y0":2026,"y1":2026,"sp":[[23,1,1,0,2026,2026]]}},{"type":"Feature","geometry":{"type":"Polygon","coordinates":[[[-86.15769,37.18181],[-86.15622,37.18304],[-86.15686,37.1848],[-86.15897,37.18532],[-86.16044,37.18408],[-86.1598,37.18232],[-86.15769,37.18181]]]},"properties":{"cell":"89266bba6d3ffff","res":9,"coarsened":false,"count":1,"hv":1,"mp":0,"y0":2026,"y1":2026,"sp":[[4,1,1,0,2026,2026]]}},{"type":"Feature","geometry":{"type":"Polygon","coordinates":[[[-86.19501,37.12054],[-86.19354,37.12178],[-86.19418,37.12354],[-86.19629,37.12405],[-86.19776,37.12281],[-86.19712,37.12106],[-86.19501,37.12054]]]},"properties":{"cell":"89266bb8673ffff","res":9,"coarsened":false,"count":1,"hv":1,"mp":0,"y0":2025,"y1":2025,"sp":[[33,1,1,0,2025,2025]]}},{"type":"Feature","geometry":{"type":"Polygon","coordinates":[[[-86.19859,37.11982],[-86.19712,37.12106],[-86.19776,37.12281],[-86.19987,37.12333],[-86.20134,37.12209],[-86.2007,37.12033],[-86.19859,37.11982]]]},"properties":{"cell":"89266bb867bffff","res":9,"coarsened":false,"count":1,"hv":1,"mp":0,"y0":2025,"y1":2025,"sp":[[112,1,1,0,2025,2025]]}},{"type":"Feature","geometry":{"type":"Polygon","coordinates":[[[-86.14386,37.2072],[-86.14239,37.20844],[-86.14302,37.2102],[-86.14513,37.21072],[-86.14661,37.20948],[-86.14597,37.20772],[-86.14386,37.2072]]]},"properties":{"cell":"89266b85d77ffff","res":9,"coarsened":false,"count":1,"hv":1,"mp":0,"y0":2025,"y1":2025,"sp":[[44,1,1,0,2025,2025]]}},{"type":"Feature","geometry":{"type":"Polygon","coordinates":[[[-86.11197,37.18818],[-86.1105,37.18942],[-86.11114,37.19117],[-86.11325,37.19169],[-86.11472,37.19045],[-86.11408,37.1887],[-86.11197,37.18818]]]},"properties":{"cell":"89266b84bcbffff","res":9,"coarsened":false,"count":1,"hv":1,"mp":0,"y0":2025,"y1":2025,"sp":[[14,1,1,0,2025,2025]]}},{"type":"Feature","geometry":{"type":"Polygon","coordinates":[[[-86.15294,37.21103],[-86.15146,37.21227],[-86.1521,37.21403],[-86.15421,37.21454],[-86.15569,37.21331],[-86.15505,37.21155],[-86.15294,37.21103]]]},"properties":{"cell":"89266b85d4fffff","res":9,"coarsened":false,"count":1,"hv":1,"mp":0,"y0":2025,"y1":2025,"sp":[[48,1,1,0,2025,2025]]}},{"type":"Feature","geometry":{"type":"Polygon","coordinates":[[[-86.08393,37.17968],[-86.08246,37.18092],[-86.08309,37.18268],[-86.0852,37.1832],[-86.08667,37.18196],[-86.08604,37.1802],[-86.08393,37.17968]]]},"properties":{"cell":"89266b84963ffff","res":9,"coarsened":false,"count":1,"hv":1,"mp":0,"y0":2025,"y1":2025,"sp":[[48,1,1,0,2025,2025]]}},{"type":"Feature","geometry":{"type":"Polygon","coordinates":[[[-86.12713,37.1823],[-86.12566,37.18354],[-86.1263,37.1853],[-86.12841,37.18582],[-86.12988,37.18458],[-86.12924,37.18282],[-86.12713,37.1823]]]},"properties":{"cell":"89266bba48bffff","res":9,"coarsened":false,"count":1,"hv":1,"mp":0,"y0":2025,"y1":2025,"sp":[[61,1,1,0,2025,2025]]}},{"type":"Feature","geometry":{"type":"Polygon","coordinates":[[[-86.10863,37.20015],[-86.10716,37.20139],[-86.1078,37.20315],[-86.10991,37.20367],[-86.11138,37.20243],[-86.11074,37.20067],[-86.10863,37.20015]]]},"properties":{"cell":"89266b8484fffff","res":9,"coarsened":false,"count":1,"hv":1,"mp":0,"y0":2025,"y1":2025,"sp":[[13,1,1,0,2025,2025]]}},{"type":"Feature","geometry":{"type":"Polygon","coordinates":[[[-86.06187,37.11347],[-86.0604,37.1147],[-86.06104,37.11646],[-86.06314,37.11698],[-86.06462,37.11574],[-86.06398,37.11398],[-86.06187,37.11347]]]},"properties":{"cell":"89266bb1e43ffff","res":9,"coarsened":false,"count":6,"hv":6,"mp":0,"y0":2024,"y1":2024,"sp":[[25,1,1,0,2024,2024],[4,1,1,0,2024,2024],[57,1,1,0,2024,2024],[49,1,1,0,2024,2024],[66,1,1,0,2024,2024],[11,1,1,0,2024,2024]]}},{"type":"Feature","geometry":{"type":"Polygon","coordinates":[[[-86.05913,37.11119],[-86.05766,37.11243],[-86.0583,37.11418],[-86.0604,37.1147],[-86.06187,37.11347],[-86.06124,37.11171],[-86.05913,37.11119]]]},"properties":{"cell":"89266bb1e47ffff","res":9,"coarsened":false,"count":1,"hv":1,"mp":0,"y0":2024,"y1":2024,"sp":[[124,1,1,0,2024,2024]]}},{"type":"Feature","geometry":{"type":"Polygon","coordinates":[[[-86.25136,37.18553],[-86.24989,37.18677],[-86.25053,37.18853],[-86.25264,37.18904],[-86.25411,37.1878],[-86.25347,37.18605],[-86.25136,37.18553]]]},"properties":{"cell":"89266b8eb6bffff","res":9,"coarsened":false,"count":1,"hv":1,"mp":0,"y0":2024,"y1":2024,"sp":[[89,1,1,0,2024,2024]]}},{"type":"Feature","geometry":{"type":"Polygon","coordinates":[[[-86.21309,37.16498],[-86.21162,37.16622],[-86.21226,37.16797],[-86.21437,37.16849],[-86.21584,37.16725],[-86.21521,37.16549],[-86.21309,37.16498]]]},"properties":{"cell":"89266bbb053ffff","res":9,"coarsened":false,"count":1,"hv":1,"mp":0,"y0":2023,"y1":2023,"sp":[[84,1,1,0,2023,2023]]}},{"type":"Feature","geometry":{"type":"Polygon","coordinates":[[[-86.20527,37.21746],[-86.2038,37.2187],[-86.20444,37.22045],[-86.20655,37.22097],[-86.20802,37.21973],[-86.20738,37.21798],[-86.20527,37.21746]]]},"properties":{"cell":"89266b8edabffff","res":9,"coarsened":false,"count":3,"hv":3,"mp":0,"y0":2013,"y1":2013,"sp":[[44,2,2,0,2013,2013],[35,1,1,0,2013,2013]]}}],"park":"mammoth_cave","h3_res":9,"species_index":[{"n":"Parkesia motacilla","c":"Louisiana Waterthrush","k":"Aves"},{"n":"Setophaga dominica","c":"Yellow-throated Warbler","k":"Aves"},{"n":"Odocoileus virginianus","c":"White-tailed Deer","k":"Mammalia"},{"n":"Sciurus carolinensis","c":"Eastern Gray Squirrel","k":"Mammalia"},{"n":"Meleagris gallopavo","c":"Wild Turkey","k":"Aves"},{"n":"Neotoma magister","c":"Allegheny Woodrat","k":"Mammalia"},{"n":"Vireo flavifrons","c":"Yellow-throated Vireo","k":"Aves"},{"n":"Vireo olivaceus","c":"Red-eyed Vireo","k":"Aves"},{"n":"Seiurus aurocapilla","c":"Ovenbird","k":"Aves"},{"n":"Setophaga cerulea","c":"Cerulean Warbler","k":"Aves"},{"n":"Setophaga americana","c":"Northern Parula","k":"Aves"},{"n":"Setophaga discolor","c":"Prairie Warbler","k":"Aves"},{"n":"Spizella passerina","c":"Chipping Sparrow","k":"Aves"},{"n":"Piranga olivacea","c":"Scarlet Tanager","k":"Aves"},{"n":"Piranga rubra","c":"Summer Tanager","k":"Aves"},{"n":"Passerina cyanea","c":"Indigo Bunting","k":"Aves"},{"n":"Myiarchus crinitus","c":"Great Crested Flycatcher","k":"Aves"},{"n":"Branta canadensis","c":"Canada Goose","k":"Aves"},{"n":"Leuconotopicus villosus","c":"Hairy Woodpecker","k":"Aves"},{"n":"Aix sponsa","c":"Wood Duck","k":"Aves"},{"n":"Setophaga virens","c":"Black-throated Green Warbler","k":"Aves"},{"n":"Setophaga castanea","c":"Bay-breasted Warbler","k":"Aves"},{"n":"Polioptila caerulea","c":"Blue-gray Gnatcatcher","k":"Aves"},{"n":"Setophaga citrina","c":"Hooded Warbler","k":"Aves"},{"n":"Sialia sialis","c":"Eastern Bluebird","k":"Aves"},{"n":"Spinus tristis","c":"American Goldfinch","k":"Aves"},{"n":"Zonotrichia albicollis","c":"White-throated Sparrow","k":"Aves"},{"n":"Poecile carolinensis","c":"Carolina Chickadee","k":"Aves"},{"n":"Melanerpes erythrocephalus","c":"Red-headed Woodpecker","k":"Aves"},{"n":"Molothrus ater","c":"Brown-headed Cowbird","k":"Aves"},{"n":"Tamias striatus","c":"Eastern Chipmunk","k":"Mammalia"},{"n":"Sayornis phoebe","c":"Eastern Phoebe","k":"Aves"},{"n":"Turdus migratorius","c":"American Robin","k":"Aves"},{"n":"Zenaida macroura","c":"Mourning Dove","k":"Aves"},{"n":"Sitta carolinensis","c":"White-breasted Nuthatch","k":"Aves"},{"n":"Dryocopus pileatus","c":"Pileated Woodpecker","k":"Aves"},{"n":"Haliaeetus leucocephalus","c":"Bald Eagle","k":"Aves"},{"n":"Empidonax virescens","c":"Acadian Flycatcher","k":"Aves"},{"n":"Strix varia","c":"Barred Owl","k":"Aves"},{"n":"Protonotaria citrea","c":"Prothonotary Warbler","k":"Aves"},{"n":"Cardinalis cardinalis","c":"Northern Cardinal","k":"Aves"},{"n":"Dryobates pubescens","c":"Downy Woodpecker","k":"Aves"},{"n":"Hylocichla mustelina","c":"Wood Thrush","k":"Aves"},{"n":"Mniotilta varia","c":"Black-and-white Warbler","k":"Aves"},{"n":"Geothlypis formosa","c":"Kentucky Warbler","k":"Aves"},{"n":"Thryothorus ludovicianus","c":"Carolina Wren","k":"Aves"},{"n":"Pipilo erythrophthalmus","c":"Eastern Towhee","k":"Aves"},{"n":"Buteo lineatus","c":"Red-shouldered Hawk","k":"Aves"},{"n":"Archilochus colubris","c":"Ruby-throated Hummingbird","k":"Aves"},{"n":"Geothlypis trichas","c":"Common Yellowthroat","k":"Aves"},{"n":"Glaucomys volans","c":"Southern Flying Squirrel","k":"Mammalia"},{"n":"Quiscalus quiscula","c":"Common Grackle","k":"Aves"},{"n":"Contopus virens","c":"Eastern Wood-Pewee","k":"Aves"},{"n":"Leiothlypis peregrina","c":"Tennessee Warbler","k":"Aves"},{"n":"Cyanocitta cristata","c":"Blue Jay","k":"Aves"},{"n":"Baeolophus bicolor","c":"Tufted Titmouse","k":"Aves"},{"n":"Corynorhinus","c":"American Big-eared Bats","k":"Mammalia"},{"n":"Vireo griseus","c":"White-eyed Vireo","k":"Aves"},{"n":"Sylvilagus floridanus","c":"Eastern Cottontail","k":"Mammalia"},{"n":"Megascops asio","c":"Eastern Screech-Owl","k":"Aves"},{"n":"Buteo platypterus","c":"Broad-winged Hawk","k":"Aves"},{"n":"Coccyzus americanus","c":"Yellow-billed Cuckoo","k":"Aves"},{"n":"Blarina brevicauda","c":"Northern Short-tailed Shrew","k":"Mammalia"},{"n":"Peromyscus leucopus","c":"White-footed Mouse","k":"Mammalia"},{"n":"Eptesicus fuscus","c":"Big Brown Bat","k":"Mammalia"},{"n":"Regulus satrapa","c":"Golden-crowned Kinglet","k":"Aves"},{"n":"Cathartes aura","c":"Turkey Vulture","k":"Aves"},{"n":"Mimus polyglottos","c":"Northern Mockingbird","k":"Aves"},{"n":"Scolopax minor","c":"American Woodcock","k":"Aves"},{"n":"Setophaga pensylvanica","c":"Chestnut-sided Warbler","k":"Aves"},{"n":"Vireo philadelphicus","c":"Philadelphia Vireo","k":"Aves"},{"n":"Catharus fuscescens","c":"Veery","k":"Aves"},{"n":"Antrostomus vociferus","c":"Eastern Whip-poor-will","k":"Aves"},{"n":"Icterus spurius","c":"Orchard Oriole","k":"Aves"},{"n":"Marmota monax","c":"Groundhog","k":"Mammalia"},{"n":"Sphyrapicus varius","c":"Yellow-bellied Sapsucker","k":"Aves"},{"n":"Haemorhous purpureus","c":"Purple Finch","k":"Aves"},{"n":"Dumetella carolinensis","c":"Gray Catbird","k":"Aves"},{"n":"Melanerpes carolinus","c":"Red-bellied Woodpecker","k":"Aves"},{"n":"Corthylio calendula","c":"Ruby-crowned Kinglet","k":"Aves"},{"n":"Setophaga pinus","c":"Pine Warbler","k":"Aves"},{"n":"Setophaga coronata","c":"Yellow-rumped Warbler","k":"Aves"},{"n":"Castor canadensis","c":"American Beaver","k":"Mammalia"},{"n":"Corynorhinus rafinesquii","c":"Rafinesque's Big-eared Bat","k":"Mammalia"},{"n":"Corvus brachyrhynchos","c":"American Crow","k":"Aves"},{"n":"Hirundo rustica","c":"Barn Swallow","k":"Aves"},{"n":"Canis latrans","c":"Coyote","k":"Mammalia"},{"n":"Didelphis virginiana","c":"Virginia Opossum","k":"Mammalia"},{"n":"Buteo jamaicensis","c":"Red-tailed Hawk","k":"Aves"},{"n":"Coragyps atratus","c":"Black Vulture","k":"Aves"},{"n":"Neogale vison","c":"American Mink","k":"Mammalia"},{"n":"Agelaius phoeniceus","c":"Red-winged Blackbird","k":"Aves"},{"n":"Egretta caerulea","c":"Little Blue Heron","k":"Aves"},{"n":"Butorides virescens","c":"Green Heron","k":"Aves"},{"n":"Tyrannus tyrannus","c":"Eastern Kingbird","k":"Aves"},{"n":"Pheucticus ludovicianus","c":"Rose-breasted Grosbeak","k":"Aves"},{"n":"Junco hyemalis","c":"Dark-eyed Junco","k":"Aves"},{"n":"Catharus guttatus","c":"Hermit Thrush","k":"Aves"},{"n":"Setophaga palmarum","c":"Palm Warbler","k":"Aves"},{"n":"Helmitheros vermivorum","c":"Worm-eating Warbler","k":"Aves"},{"n":"Leiothlypis celata","c":"Orange-crowned Warbler","k":"Aves"},{"n":"Bombycilla cedrorum","c":"Cedar Waxwing","k":"Aves"},{"n":"Setophaga ruticilla","c":"American Redstart","k":"Aves"},{"n":"Catharus minimus","c":"Gray-cheeked Thrush","k":"Aves"},{"n":"Stelgidopteryx serripennis","c":"Northern Rough-winged Swallow","k":"Aves"},{"n":"Colaptes auratus","c":"Northern Flicker","k":"Aves"},{"n":"Mephitis mephitis","c":"Striped Skunk","k":"Mammalia"},{"n":"Lynx rufus","c":"Bobcat","k":"Mammalia"},{"n":"Cryptotis parvus","c":"North American Least Shrew","k":"Mammalia"},{"n":"Dasypus mexicanus","c":"Mexican Long-nosed Armadillo","k":"Mammalia"},{"n":"Cygnus olor","c":"Mute Swan","k":"Aves"},{"n":"Lophodytes cucullatus","c":"Hooded Merganser","k":"Aves"},{"n":"Ardea herodias","c":"Great Blue Heron","k":"Aves"},{"n":"Catharus ustulatus","c":"Swainson's Thrush","k":"Aves"},{"n":"Tachycineta bicolor","c":"Tree Swallow","k":"Aves"},{"n":"Troglodytes aedon","c":"Northern House Wren","k":"Aves"},{"n":"Progne subis","c":"Purple Martin","k":"Aves"},{"n":"Sturnus vulgaris","c":"European Starling","k":"Aves"},{"n":"Actitis macularius","c":"Spotted Sandpiper","k":"Aves"},{"n":"Haemorhous mexicanus","c":"House Finch","k":"Aves"},{"n":"Chaetura pelagica","c":"Chimney Swift","k":"Aves"},{"n":"Mergus merganser","c":"Common Merganser","k":"Aves"},{"n":"Icteria virens","c":"Yellow-breasted Chat","k":"Aves"},{"n":"Vermivora cyanoptera","c":"Blue-winged Warbler","k":"Aves"},{"n":"Toxostoma rufum","c":"Brown Thrasher","k":"Aves"},{"n":"Icterus galbula","c":"Baltimore Oriole","k":"Aves"},{"n":"Chordeiles minor","c":"Common Nighthawk","k":"Aves"},{"n":"Colinus virginianus","c":"Northern Bobwhite","k":"Aves"}],"entry":["species_index","count","human_verified","model_predicted","first_year","last_year"],"suppressed":{"excluded":{},"coarsened":{"Haliaeetus leucocephalus":10}},"merged_names":{"Meleagris gallopavo silvestris":"Meleagris gallopavo","Buteo jamaicensis borealis":"Buteo jamaicensis","Thryothorus ludovicianus ludovicianus":"Thryothorus ludovicianus","Sialia sialis sialis":"Sialia sialis","Setophaga discolor discolor":"Setophaga discolor","Coragyps atratus atratus":"Coragyps atratus","Cathartes aura septentrionalis":"Cathartes aura"}}