{"type":"Feature","geometry":{"type":"MultiPolygon","coordinates":[[[[-81.7562,24.5662],[-81.7562,24.5669],[-81.7558,24.5671],[-81.7555,24.5664],[-81.7562,24.5662]]],[[[-82.7959,24.7242],[-82.7652,24.7016],[-82.7654,24.6687],[-82.799,24.6176],[-82.9004,24.5662],[-82.9679,24.5653],[-82.9677,24.649],[-82.8997,24.7169],[-82.8665,24.7254],[-82.7985,24.7261],[-82.7959,24.7242]]]]},"properties":{"park":"dry_tortugas","name":"Dry Tortugas National Park","source":"iNaturalist place","place_id":70571,"source_url":"https://www.inaturalist.org/places/70571"}}