{"type":"FeatureCollection","features":[{"type":"Feature","geometry":{"type":"Polygon","coordinates":[[[-82.87341,24.62559],[-82.87212,24.62691],[-82.87261,24.62867],[-82.87441,24.6291],[-82.87571,24.62777],[-82.87521,24.62602],[-82.87341,24.62559]]]},"properties":{"cell":"89441436ba3ffff","res":9,"coarsened":false,"count":2164,"hv":2164,"mp":0,"y0":1988,"y1":2026,"sp":[[2,164,164,0,1988,2026],[4,128,128,0,1991,2026],[8,95,95,0,1994,2026],[0,94,94,0,1998,2026],[6,81,81,0,2000,2026],[51,76,76,0,1990,2026],[23,75,75,0,1994,2026],[44,64,64,0,2017,2026],[46,63,63,0,2005,2026],[15,61,61,0,1988,2026],[41,58,58,0,2005,2026],[18,54,54,0,1995,2026],[37,48,48,0,2001,2026],[42,45,45,0,1991,2026],[27,42,42,0,2001,2026],[64,34,34,0,2007,2026],[14,31,31,0,1991,2026],[32,31,31,0,2001,2026],[16,26,26,0,1994,2026],[50,25,25,0,1991,2026],[59,25,25,0,2001,2026],[28,22,22,0,1991,2026],[5,21,21,0,2012,2025],[30,20,20,0,2010,2026],[22,19,19,0,2005,2020],[79,19,19,0,2007,2026],[12,17,17,0,1991,2026],[25,17,17,0,2015,2025],[13,17,17,0,2005,2026],[55,17,17,0,1994,2026],[76,17,17,0,2011,2026],[95,17,17,0,2015,2026],[180,17,17,0,1994,2025],[26,16,16,0,2005,2026],[36,16,16,0,2005,2026],[19,16,16,0,1994,2024],[47,15,15,0,2013,2026],[53,15,15,0,2007,2026],[43,15,15,0,2005,2026],[10,14,14,0,1990,2026],[48,14,14,0,2001,2026],[66,14,14,0,2010,2026],[9,14,14,0,1994,2025],[31,13,13,0,1990,2024],[38,13,13,0,2011,2024],[80,13,13,0,2007,2026],[81,13,13,0,2010,2026],[45,12,12,0,2011,2026],[52,12,12,0,2001,2026],[73,12,12,0,2014,2025],[34,11,11,0,2014,2026],[96,11,11,0,2010,2026],[104,11,11,0,2013,2026],[35,10,10,0,2014,2026],[39,10,10,0,2007,2017],[78,10,10,0,2001,2026],[88,10,10,0,2007,2026],[100,10,10,0,1994,2026],[124,10,10,0,2012,2026],[84,9,9,0,2024,2025],[24,8,8,0,2015,2024],[54,8,8,0,2010,2026],[61,8,8,0,2005,2023],[69,8,8,0,2016,2025],[98,8,8,0,2010,2026],[118,8,8,0,2018,2025],[83,8,8,0,2011,2026],[136,8,8,0,2005,2026],[57,7,7,0,2001,2018],[67,7,7,0,1994,2025],[70,7,7,0,2005,2025],[49,6,6,0,2015,2025],[33,6,6,0,1991,2023],[29,6,6,0,2007,2025],[178,6,6,0,1994,2024],[77,5,5,0,2013,2023],[110,5,5,0,2017,2025],[103,5,5,0,2007,2025],[121,5,5,0,2021,2026],[116,5,5,0,2017,2026],[11,4,4,0,1991,2018],[56,4,4,0,2010,2026],[60,4,4,0,2015,2023],[74,4,4,0,2013,2026],[7,4,4,0,1994,2025],[129,4,4,0,2022,2022],[122,4,4,0,2022,2023],[141,4,4,0,2018,2018],[131,4,4,0,2018,2025],[72,4,4,0,1994,2007],[63,3,3,0,2017,2024],[68,3,3,0,2013,2015],[108,3,3,0,2007,2020],[107,3,3,0,2017,2024],[40,3,3,0,2013,2024],[123,3,3,0,2012,2026],[101,3,3,0,2018,2018],[137,3,3,0,2023,2023],[106,3,3,0,2010,2026],[162,3,3,0,2026,2026],[181,3,3,0,2011,2016],[21,2,2,0,2000,2025],[62,2,2,0,2017,2017],[65,2,2,0,2014,2015],[82,2,2,0,2016,2024],[86,2,2,0,2005,2019],[87,2,2,0,2013,2019],[113,2,2,0,2016,2021],[120,2,2,0,2021,2025],[127,2,2,0,2005,2018],[128,2,2,0,2011,2022],[130,2,2,0,2005,2015],[135,2,2,0,2015,2022],[92,2,2,0,2023,2023],[102,2,2,0,2024,2024],[151,2,2,0,2024,2024],[152,2,2,0,2007,2026],[155,2,2,0,2025,2025],[156,2,2,0,2024,2025],[71,2,2,0,2010,2011],[179,2,2,0,2024,2025],[1,1,1,0,2009,2009],[3,1,1,0,1991,1991],[20,1,1,0,2000,2000],[58,1,1,0,2017,2017],[94,1,1,0,2019,2019],[97,1,1,0,2010,2010],[99,1,1,0,2015,2015],[109,1,1,0,2017,2017],[90,1,1,0,2015,2015],[111,1,1,0,2015,2015],[112,1,1,0,2019,2019],[115,1,1,0,2018,2018],[119,1,1,0,2021,2021],[126,1,1,0,2014,2014],[117,1,1,0,2023,2023],[138,1,1,0,2023,2023],[139,1,1,0,2007,2007],[140,1,1,0,2011,2011],[105,1,1,0,2023,2023],[93,1,1,0,2023,2023],[144,1,1,0,2023,2023],[145,1,1,0,2024,2024],[146,1,1,0,2024,2024],[147,1,1,0,2024,2024],[148,1,1,0,2024,2024],[153,1,1,0,2007,2007],[159,1,1,0,2025,2025],[75,1,1,0,2023,2023],[187,1,1,0,2013,2013],[188,1,1,0,2011,2011],[163,1,1,0,2011,2011],[85,1,1,0,2011,2011],[189,1,1,0,2011,2011],[190,1,1,0,2011,2011],[91,1,1,0,2008,2008],[143,1,1,0,2008,2008],[142,1,1,0,1994,1994],[164,1,1,0,1994,1994]]}},{"type":"Feature","geometry":{"type":"Polygon","coordinates":[[[-82.87261,24.62867],[-82.87132,24.62999],[-82.87181,24.63175],[-82.87361,24.63218],[-82.87491,24.63085],[-82.87441,24.6291],[-82.87261,24.62867]]]},"properties":{"cell":"89441436bafffff","res":9,"coarsened":false,"count":301,"hv":301,"mp":0,"y0":1983,"y1":2026,"sp":[[2,65,65,0,1983,2026],[8,27,27,0,1983,2026],[15,16,16,0,1999,2026],[0,15,15,0,2001,2026],[4,10,10,0,2001,2026],[23,9,9,0,1991,2026],[41,8,8,0,2001,2026],[64,8,8,0,2013,2025],[9,8,8,0,2022,2025],[16,8,8,0,2002,2026],[28,6,6,0,2016,2026],[44,6,6,0,2018,2026],[74,4,4,0,2016,2025],[45,4,4,0,2020,2026],[37,4,4,0,2022,2025],[30,4,4,0,2023,2023],[5,3,3,0,2016,2025],[6,3,3,0,2020,2022],[50,3,3,0,2019,2026],[14,3,3,0,2019,2025],[52,3,3,0,2017,2026],[136,3,3,0,2023,2025],[19,3,3,0,2008,2024],[18,3,3,0,2016,2025],[96,3,3,0,2026,2026],[3,2,2,0,2009,2026],[39,2,2,0,2008,2015],[46,2,2,0,2019,2024],[83,2,2,0,2017,2023],[73,2,2,0,2021,2024],[72,2,2,0,2008,2020],[42,2,2,0,1990,2023],[95,2,2,0,2023,2026],[25,2,2,0,2024,2025],[26,2,2,0,2019,2025],[106,2,2,0,2024,2026],[51,2,2,0,2025,2025],[17,2,2,0,2025,2026],[120,2,2,0,2025,2025],[131,2,2,0,2025,2025],[116,2,2,0,2019,2025],[49,2,2,0,2025,2025],[87,2,2,0,2001,2026],[105,2,2,0,2026,2026],[162,2,2,0,2026,2026],[180,2,2,0,2008,2008],[66,1,1,0,2008,2008],[91,1,1,0,2019,2019],[92,1,1,0,2017,2017],[117,1,1,0,2017,2017],[107,1,1,0,2022,2022],[134,1,1,0,2022,2022],[29,1,1,0,2023,2023],[104,1,1,0,2023,2023],[10,1,1,0,2023,2023],[137,1,1,0,2023,2023],[130,1,1,0,2021,2021],[141,1,1,0,2023,2023],[35,1,1,0,2023,2023],[94,1,1,0,2024,2024],[79,1,1,0,2024,2024],[32,1,1,0,2024,2024],[31,1,1,0,2024,2024],[27,1,1,0,2015,2015],[142,1,1,0,1986,1986],[154,1,1,0,2025,2025],[80,1,1,0,2025,2025],[12,1,1,0,2025,2025],[55,1,1,0,2025,2025],[84,1,1,0,2025,2025],[109,1,1,0,2026,2026],[88,1,1,0,2026,2026],[68,1,1,0,2026,2026],[40,1,1,0,2026,2026],[7,1,1,0,2026,2026],[179,1,1,0,2016,2016]]}},{"type":"Feature","geometry":{"type":"Polygon","coordinates":[[[-82.87032,24.62648],[-82.86902,24.62781],[-82.86952,24.62956],[-82.87132,24.62999],[-82.87261,24.62867],[-82.87212,24.62691],[-82.87032,24.62648]]]},"properties":{"cell":"89441436babffff","res":9,"coarsened":false,"count":864,"hv":864,"mp":0,"y0":1985,"y1":2026,"sp":[[8,188,188,0,1990,2026],[2,149,149,0,1985,2026],[4,72,72,0,1986,2026],[0,59,59,0,1990,2026],[41,31,31,0,1994,2026],[9,22,22,0,2007,2025],[23,19,19,0,2008,2026],[15,17,17,0,1990,2026],[28,16,16,0,2013,2026],[6,15,15,0,1988,2026],[44,15,15,0,2016,2026],[18,15,15,0,2014,2026],[88,12,12,0,2013,2026],[43,10,10,0,2008,2026],[7,9,9,0,2017,2025],[95,9,9,0,2013,2026],[19,8,8,0,1994,2024],[64,7,7,0,2018,2026],[16,7,7,0,1994,2026],[22,6,6,0,2000,2014],[37,6,6,0,2015,2023],[50,6,6,0,2017,2026],[5,5,5,0,1994,2023],[40,5,5,0,2015,2026],[51,5,5,0,2005,2019],[32,5,5,0,2008,2018],[46,5,5,0,2015,2021],[180,5,5,0,2016,2024],[36,4,4,0,2015,2026],[14,4,4,0,2018,2026],[27,4,4,0,2012,2025],[104,4,4,0,2014,2025],[39,3,3,0,1995,2008],[83,3,3,0,2019,2026],[84,3,3,0,2019,2022],[79,3,3,0,2015,2023],[92,3,3,0,2013,2023],[96,3,3,0,1994,2022],[131,3,3,0,2022,2026],[66,3,3,0,2024,2026],[49,3,3,0,2025,2025],[94,3,3,0,2025,2026],[97,3,3,0,2025,2026],[57,2,2,0,2018,2019],[48,2,2,0,2008,2018],[30,2,2,0,2017,2018],[102,2,2,0,2018,2025],[10,2,2,0,2018,2025],[103,2,2,0,2017,2018],[132,2,2,0,2018,2022],[105,2,2,0,2014,2026],[136,2,2,0,2023,2024],[118,2,2,0,2023,2025],[117,2,2,0,1994,2023],[77,2,2,0,2024,2024],[143,2,2,0,2008,2008],[69,2,2,0,2017,2024],[73,2,2,0,2025,2025],[120,2,2,0,2025,2026],[45,2,2,0,2025,2026],[13,1,1,0,1991,1991],[29,1,1,0,2015,2015],[33,1,1,0,2015,2015],[25,1,1,0,2016,2016],[72,1,1,0,2008,2008],[75,1,1,0,2018,2018],[76,1,1,0,2018,2018],[85,1,1,0,2019,2019],[12,1,1,0,2019,2019],[90,1,1,0,2019,2019],[62,1,1,0,2015,2015],[101,1,1,0,2018,2018],[34,1,1,0,2018,2018],[114,1,1,0,2014,2014],[108,1,1,0,2014,2014],[110,1,1,0,2013,2013],[116,1,1,0,2002,2002],[81,1,1,0,2021,2021],[121,1,1,0,2021,2021],[3,1,1,0,2015,2015],[42,1,1,0,2022,2022],[115,1,1,0,2018,2018],[65,1,1,0,2022,2022],[125,1,1,0,2023,2023],[47,1,1,0,2023,2023],[141,1,1,0,2023,2023],[21,1,1,0,2023,2023],[89,1,1,0,2023,2023],[142,1,1,0,1986,1986],[113,1,1,0,2012,2012],[146,1,1,0,2024,2024],[91,1,1,0,2008,2008],[149,1,1,0,2024,2024],[59,1,1,0,2015,2015],[122,1,1,0,2015,2015],[150,1,1,0,2024,2024],[35,1,1,0,2024,2024],[156,1,1,0,2025,2025],[11,1,1,0,2017,2017],[56,1,1,0,2025,2025],[55,1,1,0,2001,2001],[160,1,1,0,2026,2026],[123,1,1,0,2026,2026],[161,1,1,0,2026,2026],[126,1,1,0,2026,2026],[53,1,1,0,2026,2026],[17,1,1,0,2026,2026],[54,1,1,0,2026,2026],[145,1,1,0,2026,2026],[165,1,1,0,2024,2024],[166,1,1,0,2024,2024],[87,1,1,0,2024,2024],[186,1,1,0,2019,2019]]}},{"type":"Feature","geometry":{"type":"Polygon","coordinates":[[[-82.92123,24.62885],[-82.91993,24.63017],[-82.92043,24.63193],[-82.92223,24.63236],[-82.92353,24.63103],[-82.92303,24.62928],[-82.92123,24.62885]]]},"properties":{"cell":"894415d9b0bffff","res":9,"coarsened":false,"count":2,"hv":2,"mp":0,"y0":1996,"y1":1996,"sp":[[7,1,1,0,1996,1996],[16,1,1,0,1996,1996]]}},{"type":"Feature","geometry":{"type":"Polygon","coordinates":[[[-82.86723,24.62738],[-82.86593,24.6287],[-82.86643,24.63046],[-82.86822,24.63089],[-82.86952,24.62956],[-82.86902,24.62781],[-82.86723,24.62738]]]},"properties":{"cell":"89441436b07ffff","res":9,"coarsened":false,"count":153,"hv":153,"mp":0,"y0":1988,"y1":2026,"sp":[[2,58,58,0,1996,2026],[8,24,24,0,1988,2026],[41,6,6,0,2020,2026],[17,5,5,0,1996,2026],[7,5,5,0,2025,2026],[23,4,4,0,2018,2025],[0,4,4,0,2019,2020],[43,4,4,0,2023,2026],[9,3,3,0,1988,1996],[16,3,3,0,1988,2026],[88,3,3,0,2018,2020],[96,3,3,0,2020,2026],[156,3,3,0,2026,2026],[4,2,2,0,2020,2020],[6,2,2,0,2020,2023],[105,2,2,0,2020,2020],[125,2,2,0,2022,2023],[136,2,2,0,2023,2026],[167,2,2,0,2026,2026],[5,1,1,0,2020,2020],[104,1,1,0,2020,2020],[90,1,1,0,2020,2020],[106,1,1,0,2020,2020],[114,1,1,0,2022,2022],[92,1,1,0,2023,2023],[51,1,1,0,2023,2023],[28,1,1,0,2023,2023],[93,1,1,0,2025,2025],[95,1,1,0,2025,2025],[49,1,1,0,2025,2025],[94,1,1,0,2026,2026],[50,1,1,0,2021,2021],[154,1,1,0,2026,2026],[19,1,1,0,2022,2022],[180,1,1,0,2019,2019]]}},{"type":"Feature","geometry":{"type":"Polygon","coordinates":[[[-82.89887,24.62677],[-82.89757,24.6281],[-82.89807,24.62985],[-82.89986,24.63028],[-82.90116,24.62896],[-82.90066,24.6272],[-82.89887,24.62677]]]},"properties":{"cell":"894415cb4c3ffff","res":9,"coarsened":false,"count":2,"hv":2,"mp":0,"y0":1991,"y1":2007,"sp":[[16,1,1,0,1991,1991],[15,1,1,0,2007,2007]]}},{"type":"Feature","geometry":{"type":"Polygon","coordinates":[[[-82.92433,24.62795],[-82.92303,24.62928],[-82.92353,24.63103],[-82.92533,24.63146],[-82.92663,24.63014],[-82.92613,24.62838],[-82.92433,24.62795]]]},"properties":{"cell":"894415d9b03ffff","res":9,"coarsened":false,"count":9,"hv":9,"mp":0,"y0":2013,"y1":2026,"sp":[[6,2,2,0,2013,2024],[18,1,1,0,2013,2013],[2,1,1,0,2013,2013],[8,1,1,0,2013,2013],[16,1,1,0,2013,2013],[19,1,1,0,2013,2013],[77,1,1,0,2026,2026],[41,1,1,0,2024,2024]]}},{"type":"Feature","geometry":{"type":"Polygon","coordinates":[[[-82.87112,24.6234],[-82.86982,24.62473],[-82.87032,24.62648],[-82.87212,24.62691],[-82.87341,24.62559],[-82.87292,24.62383],[-82.87112,24.6234]]]},"properties":{"cell":"89441436bbbffff","res":9,"coarsened":false,"count":30,"hv":30,"mp":0,"y0":2000,"y1":2026,"sp":[[18,8,8,0,2024,2026],[0,6,6,0,2021,2026],[6,4,4,0,2018,2024],[2,2,2,0,2000,2022],[36,2,2,0,2016,2018],[27,2,2,0,2021,2026],[44,2,2,0,2021,2021],[41,1,1,0,2021,2021],[16,1,1,0,2022,2022],[8,1,1,0,2021,2021],[4,1,1,0,2024,2024]]}},{"type":"Feature","geometry":{"type":"Polygon","coordinates":[[[-82.85085,24.64635],[-82.84955,24.64767],[-82.85005,24.64943],[-82.85184,24.64986],[-82.85314,24.64854],[-82.85264,24.64678],[-82.85085,24.64635]]]},"properties":{"cell":"89441434d43ffff","res":9,"coarsened":false,"count":60,"hv":60,"mp":0,"y0":1999,"y1":2026,"sp":[[19,47,47,0,1999,2026],[16,3,3,0,2019,2024],[2,2,2,0,2001,2018],[6,2,2,0,2025,2025],[15,1,1,0,2015,2015],[5,1,1,0,2024,2024],[121,1,1,0,2018,2018],[92,1,1,0,2025,2025],[18,1,1,0,2025,2025],[0,1,1,0,2025,2025]]}},{"type":"Feature","geometry":{"type":"Polygon","coordinates":[[[-82.86483,24.63661],[-82.86353,24.63794],[-82.86402,24.63969],[-82.86582,24.64012],[-82.86712,24.6388],[-82.86662,24.63705],[-82.86483,24.63661]]]},"properties":{"cell":"89441434d93ffff","res":9,"coarsened":false,"count":1,"hv":1,"mp":0,"y0":2015,"y1":2015,"sp":[[8,1,1,0,2015,2015]]}},{"type":"Feature","geometry":{"type":"Polygon","coordinates":[[[-82.87021,24.63791],[-82.86892,24.63923],[-82.86941,24.64099],[-82.87121,24.64142],[-82.87251,24.64009],[-82.87201,24.63834],[-82.87021,24.63791]]]},"properties":{"cell":"894415cb65bffff","res":9,"coarsened":false,"count":3,"hv":3,"mp":0,"y0":2016,"y1":2024,"sp":[[16,1,1,0,2016,2016],[8,1,1,0,2017,2017],[0,1,1,0,2024,2024]]}},{"type":"Feature","geometry":{"type":"Polygon","coordinates":[[[-82.86493,24.62519],[-82.86363,24.62651],[-82.86413,24.62827],[-82.86593,24.6287],[-82.86723,24.62738],[-82.86673,24.62562],[-82.86493,24.62519]]]},"properties":{"cell":"89441436b03ffff","res":9,"coarsened":false,"count":68,"hv":68,"mp":0,"y0":1991,"y1":2026,"sp":[[2,13,13,0,2019,2026],[7,11,11,0,2025,2026],[96,7,7,0,2026,2026],[66,6,6,0,2023,2026],[8,3,3,0,1991,2025],[0,3,3,0,2019,2026],[88,3,3,0,2020,2026],[97,3,3,0,2025,2025],[4,2,2,0,2020,2026],[41,2,2,0,2024,2025],[77,2,2,0,2025,2025],[43,2,2,0,2026,2026],[92,1,1,0,2020,2020],[125,1,1,0,2021,2021],[71,1,1,0,2022,2022],[23,1,1,0,2018,2018],[16,1,1,0,2025,2025],[87,1,1,0,2025,2025],[6,1,1,0,2025,2025],[18,1,1,0,2026,2026],[75,1,1,0,2026,2026],[40,1,1,0,2026,2026],[156,1,1,0,2026,2026]]}},{"type":"Feature","geometry":{"type":"Polygon","coordinates":[[[-82.88388,24.66245],[-82.88258,24.66377],[-82.88308,24.66553],[-82.88487,24.66596],[-82.88617,24.66463],[-82.88567,24.66288],[-82.88388,24.66245]]]},"properties":{"cell":"894415cb2a3ffff","res":9,"coarsened":false,"count":1,"hv":1,"mp":0,"y0":1991,"y1":1991,"sp":[[52,1,1,0,1991,1991]]}},{"type":"Feature","geometry":{"type":"Polygon","coordinates":[[[-82.85165,24.64327],[-82.85035,24.6446],[-82.85085,24.64635],[-82.85264,24.64678],[-82.85394,24.64546],[-82.85344,24.6437],[-82.85165,24.64327]]]},"properties":{"cell":"89441434d53ffff","res":9,"coarsened":false,"count":1,"hv":1,"mp":0,"y0":2017,"y1":2017,"sp":[[19,1,1,0,2017,2017]]}},{"type":"Feature","geometry":{"type":"Polygon","coordinates":[[[-82.87043,24.61506],[-82.86913,24.61638],[-82.86963,24.61814],[-82.87142,24.61857],[-82.87272,24.61724],[-82.87222,24.61549],[-82.87043,24.61506]]]},"properties":{"cell":"89441436b93ffff","res":9,"coarsened":false,"count":2,"hv":2,"mp":0,"y0":2017,"y1":2023,"sp":[[18,1,1,0,2017,2017],[19,1,1,0,2023,2023]]}},{"type":"Feature","geometry":{"type":"Polygon","coordinates":[[[-82.8788,24.62688],[-82.87751,24.6282],[-82.878,24.62996],[-82.8798,24.63039],[-82.8811,24.62906],[-82.8806,24.62731],[-82.8788,24.62688]]]},"properties":{"cell":"8944143696bffff","res":9,"coarsened":false,"count":28,"hv":28,"mp":0,"y0":2013,"y1":2026,"sp":[[8,19,19,0,2017,2023],[16,2,2,0,2013,2017],[6,2,2,0,2023,2023],[18,2,2,0,2023,2023],[7,1,1,0,2023,2023],[41,1,1,0,2023,2023],[0,1,1,0,2026,2026]]}},{"type":"Feature","geometry":{"type":"Polygon","coordinates":[[[-82.87571,24.62777],[-82.87441,24.6291],[-82.87491,24.63085],[-82.8767,24.63128],[-82.878,24.62996],[-82.87751,24.6282],[-82.87571,24.62777]]]},"properties":{"cell":"89441436ba7ffff","res":9,"coarsened":false,"count":7,"hv":7,"mp":0,"y0":2010,"y1":2026,"sp":[[27,1,1,0,2014,2014],[71,1,1,0,2013,2013],[41,1,1,0,2014,2014],[8,1,1,0,2012,2012],[19,1,1,0,2024,2024],[2,1,1,0,2026,2026],[180,1,1,0,2010,2010]]}},{"type":"Feature","geometry":{"type":"Polygon","coordinates":[[[-82.84855,24.64416],[-82.84726,24.64549],[-82.84775,24.64724],[-82.84955,24.64767],[-82.85085,24.64635],[-82.85035,24.6446],[-82.84855,24.64416]]]},"properties":{"cell":"89441434d5bffff","res":9,"coarsened":false,"count":4,"hv":4,"mp":0,"y0":2016,"y1":2024,"sp":[[19,4,4,0,2016,2024]]}},{"type":"Feature","geometry":{"type":"Polygon","coordinates":[[[-82.92043,24.63193],[-82.91913,24.63325],[-82.91963,24.63501],[-82.92143,24.63544],[-82.92273,24.63411],[-82.92223,24.63236],[-82.92043,24.63193]]]},"properties":{"cell":"894415d9b73ffff","res":9,"coarsened":false,"count":40,"hv":40,"mp":0,"y0":2007,"y1":2026,"sp":[[41,4,4,0,2025,2025],[88,4,4,0,2025,2025],[2,3,3,0,2007,2025],[28,3,3,0,2025,2025],[6,3,3,0,2025,2025],[96,3,3,0,2025,2025],[18,2,2,0,2017,2025],[4,2,2,0,2019,2025],[84,2,2,0,null,null],[51,2,2,0,null,null],[78,1,1,0,2014,2014],[31,1,1,0,2017,2017],[122,1,1,0,2017,2017],[66,1,1,0,2025,2025],[15,1,1,0,2025,2025],[158,1,1,0,2025,2025],[40,1,1,0,2025,2025],[3,1,1,0,2026,2026],[177,1,1,0,2025,2025],[80,1,1,0,null,null],[45,1,1,0,null,null],[57,1,1,0,null,null]]}},{"type":"Feature","geometry":{"type":"Polygon","coordinates":[[[-82.87731,24.62161],[-82.87601,24.62294],[-82.87651,24.62469],[-82.87831,24.62512],[-82.8796,24.6238],[-82.87911,24.62204],[-82.87731,24.62161]]]},"properties":{"cell":"8944143694fffff","res":9,"coarsened":false,"count":2,"hv":2,"mp":0,"y0":2018,"y1":2024,"sp":[[8,1,1,0,2018,2018],[69,1,1,0,2024,2024]]}},{"type":"Feature","geometry":{"type":"Polygon","coordinates":[[[-82.87101,24.63483],[-82.86972,24.63615],[-82.87021,24.63791],[-82.87201,24.63834],[-82.87331,24.63701],[-82.87281,24.63526],[-82.87101,24.63483]]]},"properties":{"cell":"89441436b27ffff","res":9,"coarsened":false,"count":1,"hv":1,"mp":0,"y0":2016,"y1":2016,"sp":[[16,1,1,0,2016,2016]]}},{"type":"Feature","geometry":{"type":"Polygon","coordinates":[[[-82.85394,24.64546],[-82.85264,24.64678],[-82.85314,24.64854],[-82.85494,24.64897],[-82.85624,24.64764],[-82.85574,24.64589],[-82.85394,24.64546]]]},"properties":{"cell":"89441434d57ffff","res":9,"coarsened":false,"count":13,"hv":13,"mp":0,"y0":2001,"y1":2026,"sp":[[19,12,12,0,2001,2026],[16,1,1,0,2024,2024]]}},{"type":"Feature","geometry":{"type":"Polygon","coordinates":[[[-82.86563,24.63353],[-82.86433,24.63486],[-82.86483,24.63661],[-82.86662,24.63705],[-82.86792,24.63572],[-82.86742,24.63397],[-82.86563,24.63353]]]},"properties":{"cell":"89441436b2bffff","res":9,"coarsened":false,"count":1,"hv":1,"mp":0,"y0":2015,"y1":2015,"sp":[[8,1,1,0,2015,2015]]}},{"type":"Feature","geometry":{"type":"Polygon","coordinates":[[[-82.86803,24.6243],[-82.86673,24.62562],[-82.86723,24.62738],[-82.86902,24.62781],[-82.87032,24.62648],[-82.86982,24.62473],[-82.86803,24.6243]]]},"properties":{"cell":"89441436b17ffff","res":9,"coarsened":false,"count":61,"hv":61,"mp":0,"y0":1999,"y1":2026,"sp":[[2,9,9,0,2018,2026],[8,5,5,0,2014,2026],[125,5,5,0,2021,2023],[0,5,5,0,1999,2026],[18,4,4,0,2020,2026],[96,3,3,0,2020,2026],[41,3,3,0,2018,2024],[15,2,2,0,2019,2026],[23,2,2,0,2020,2026],[92,2,2,0,2020,2024],[6,2,2,0,2024,2026],[36,1,1,0,2019,2019],[105,1,1,0,2020,2020],[5,1,1,0,2020,2020],[88,1,1,0,2020,2020],[107,1,1,0,2020,2020],[64,1,1,0,2020,2020],[19,1,1,0,2020,2020],[4,1,1,0,2021,2021],[35,1,1,0,2022,2022],[94,1,1,0,2023,2023],[89,1,1,0,2023,2023],[121,1,1,0,2018,2018],[131,1,1,0,2018,2018],[145,1,1,0,2025,2025],[43,1,1,0,2026,2026],[77,1,1,0,2026,2026],[57,1,1,0,2026,2026],[66,1,1,0,2026,2026],[180,1,1,0,2025,2025]]}},{"type":"Feature","geometry":{"type":"Polygon","coordinates":[[[-82.85474,24.64238],[-82.85344,24.6437],[-82.85394,24.64546],[-82.85574,24.64589],[-82.85704,24.64456],[-82.85654,24.64281],[-82.85474,24.64238]]]},"properties":{"cell":"89441434dcfffff","res":9,"coarsened":false,"count":3,"hv":3,"mp":0,"y0":2019,"y1":2024,"sp":[[19,1,1,0,2019,2019],[16,1,1,0,2023,2023],[2,1,1,0,2024,2024]]}},{"type":"Feature","geometry":{"type":"Polygon","coordinates":[[[-82.84626,24.64198],[-82.84496,24.6433],[-82.84546,24.64506],[-82.84726,24.64549],[-82.84855,24.64416],[-82.84806,24.64241],[-82.84626,24.64198]]]},"properties":{"cell":"89441434c2fffff","res":9,"coarsened":false,"count":1,"hv":1,"mp":0,"y0":2016,"y1":2016,"sp":[[71,1,1,0,2016,2016]]}},{"type":"Feature","geometry":{"type":"Polygon","coordinates":[[[-82.86701,24.65023],[-82.86571,24.65155],[-82.86621,24.6533],[-82.86801,24.65374],[-82.86931,24.65241],[-82.86881,24.65066],[-82.86701,24.65023]]]},"properties":{"cell":"89441434dafffff","res":9,"coarsened":false,"count":1,"hv":1,"mp":0,"y0":2016,"y1":2016,"sp":[[19,1,1,0,2016,2016]]}},{"type":"Feature","geometry":{"type":"Polygon","coordinates":[[[-82.83549,24.6394],[-82.83419,24.64072],[-82.83469,24.64247],[-82.83648,24.64291],[-82.83778,24.64158],[-82.83728,24.63983],[-82.83549,24.6394]]]},"properties":{"cell":"89441434c6bffff","res":9,"coarsened":false,"count":1,"hv":1,"mp":0,"y0":2019,"y1":2019,"sp":[[19,1,1,0,2019,2019]]}},{"type":"Feature","geometry":{"type":"Polygon","coordinates":[[[-82.84546,24.64506],[-82.84416,24.64638],[-82.84466,24.64814],[-82.84646,24.64857],[-82.84775,24.64724],[-82.84726,24.64549],[-82.84546,24.64506]]]},"properties":{"cell":"89441434897ffff","res":9,"coarsened":false,"count":1,"hv":1,"mp":0,"y0":2019,"y1":2019,"sp":[[19,1,1,0,2019,2019]]}},{"type":"Feature","geometry":{"type":"Polygon","coordinates":[[[-82.86173,24.63751],[-82.86043,24.63883],[-82.86093,24.64059],[-82.86273,24.64102],[-82.86402,24.63969],[-82.86353,24.63794],[-82.86173,24.63751]]]},"properties":{"cell":"89441434d9bffff","res":9,"coarsened":false,"count":2,"hv":2,"mp":0,"y0":2019,"y1":2021,"sp":[[8,1,1,0,2019,2019],[16,1,1,0,2021,2021]]}},{"type":"Feature","geometry":{"type":"Polygon","coordinates":[[[-82.87421,24.62251],[-82.87292,24.62383],[-82.87341,24.62559],[-82.87521,24.62602],[-82.87651,24.62469],[-82.87601,24.62294],[-82.87421,24.62251]]]},"properties":{"cell":"89441436bb3ffff","res":9,"coarsened":false,"count":9,"hv":9,"mp":0,"y0":2019,"y1":2025,"sp":[[2,3,3,0,2019,2025],[0,2,2,0,2019,2024],[41,1,1,0,2019,2019],[45,1,1,0,2022,2022],[18,1,1,0,2024,2024],[19,1,1,0,2024,2024]]}},{"type":"Feature","geometry":{"type":"Polygon","coordinates":[[[-82.81177,24.62062],[-82.81047,24.62195],[-82.81097,24.6237],[-82.81276,24.62413],[-82.81406,24.62281],[-82.81357,24.62105],[-82.81177,24.62062]]]},"properties":{"cell":"894414343bbffff","res":9,"coarsened":false,"count":1,"hv":1,"mp":0,"y0":2019,"y1":2019,"sp":[[89,1,1,0,2019,2019]]}},{"type":"Feature","geometry":{"type":"Polygon","coordinates":[[[-82.86264,24.623],[-82.86134,24.62433],[-82.86184,24.62608],[-82.86363,24.62651],[-82.86493,24.62519],[-82.86443,24.62344],[-82.86264,24.623]]]},"properties":{"cell":"89441436b1bffff","res":9,"coarsened":false,"count":31,"hv":31,"mp":0,"y0":1997,"y1":2026,"sp":[[2,16,16,0,1997,2026],[92,2,2,0,2019,2023],[0,2,2,0,1997,2023],[36,2,2,0,2023,2026],[93,1,1,0,2019,2019],[15,1,1,0,2019,2019],[8,1,1,0,2022,2022],[17,1,1,0,2024,2024],[5,1,1,0,2024,2024],[95,1,1,0,2024,2024],[96,1,1,0,2026,2026],[45,1,1,0,2026,2026],[156,1,1,0,2026,2026]]}},{"type":"Feature","geometry":{"type":"Polygon","coordinates":[[[-82.81395,24.63423],[-82.81265,24.63555],[-82.81315,24.63731],[-82.81494,24.63774],[-82.81624,24.63641],[-82.81574,24.63466],[-82.81395,24.63423]]]},"properties":{"cell":"89441434e53ffff","res":9,"coarsened":false,"count":1,"hv":1,"mp":0,"y0":2015,"y1":2015,"sp":[[19,1,1,0,2015,2015]]}},{"type":"Feature","geometry":{"type":"Polygon","coordinates":[[[-82.88169,24.64883],[-82.88039,24.65016],[-82.88089,24.65191],[-82.88268,24.65234],[-82.88398,24.65102],[-82.88348,24.64926],[-82.88169,24.64883]]]},"properties":{"cell":"894415cb62bffff","res":9,"coarsened":false,"count":2,"hv":2,"mp":0,"y0":2013,"y1":2013,"sp":[[16,1,1,0,2013,2013],[71,1,1,0,2013,2013]]}},{"type":"Feature","geometry":{"type":"Polygon","coordinates":[[[-82.88099,24.64049],[-82.87969,24.64181],[-82.88019,24.64357],[-82.88199,24.644],[-82.88329,24.64267],[-82.88279,24.64092],[-82.88099,24.64049]]]},"properties":{"cell":"894415cb603ffff","res":9,"coarsened":false,"count":1,"hv":1,"mp":0,"y0":2013,"y1":2013,"sp":[[19,1,1,0,2013,2013]]}},{"type":"Feature","geometry":{"type":"Polygon","coordinates":[[[-82.8795,24.63522],[-82.8782,24.63655],[-82.8787,24.6383],[-82.88049,24.63873],[-82.88179,24.63741],[-82.88129,24.63565],[-82.8795,24.63522]]]},"properties":{"cell":"894415cb6c7ffff","res":9,"coarsened":false,"count":1,"hv":1,"mp":0,"y0":2017,"y1":2017,"sp":[[19,1,1,0,2017,2017]]}},{"type":"Feature","geometry":{"type":"Polygon","coordinates":[[[-82.88868,24.64396],[-82.88738,24.64529],[-82.88788,24.64704],[-82.88967,24.64747],[-82.89097,24.64615],[-82.89047,24.64439],[-82.88868,24.64396]]]},"properties":{"cell":"894415cb6afffff","res":9,"coarsened":false,"count":3,"hv":3,"mp":0,"y0":2017,"y1":2017,"sp":[[30,1,1,0,2017,2017],[81,1,1,0,2017,2017],[25,1,1,0,2017,2017]]}},{"type":"Feature","geometry":{"type":"Polygon","coordinates":[[[-82.87779,24.65281],[-82.87649,24.65413],[-82.87699,24.65589],[-82.87879,24.65632],[-82.88009,24.65499],[-82.87959,24.65324],[-82.87779,24.65281]]]},"properties":{"cell":"894415cb29bffff","res":9,"coarsened":false,"count":1,"hv":1,"mp":0,"y0":2017,"y1":2017,"sp":[[67,1,1,0,2017,2017]]}},{"type":"Feature","geometry":{"type":"Polygon","coordinates":[[[-82.88409,24.63959],[-82.88279,24.64092],[-82.88329,24.64267],[-82.88508,24.6431],[-82.88638,24.64178],[-82.88588,24.64002],[-82.88409,24.63959]]]},"properties":{"cell":"894415cb617ffff","res":9,"coarsened":false,"count":1,"hv":1,"mp":0,"y0":2017,"y1":2017,"sp":[[55,1,1,0,2017,2017]]}},{"type":"Feature","geometry":{"type":"Polygon","coordinates":[[[-82.88788,24.64704],[-82.88658,24.64837],[-82.88708,24.65012],[-82.88887,24.65055],[-82.89017,24.64923],[-82.88967,24.64747],[-82.88788,24.64704]]]},"properties":{"cell":"894415cb637ffff","res":9,"coarsened":false,"count":1,"hv":1,"mp":0,"y0":2017,"y1":2017,"sp":[[7,1,1,0,2017,2017]]}},{"type":"Feature","geometry":{"type":"Polygon","coordinates":[[[-82.85554,24.6393],[-82.85424,24.64062],[-82.85474,24.64238],[-82.85654,24.64281],[-82.85784,24.64148],[-82.85734,24.63973],[-82.85554,24.6393]]]},"properties":{"cell":"89441434dc3ffff","res":9,"coarsened":false,"count":2,"hv":2,"mp":0,"y0":2012,"y1":2021,"sp":[[19,1,1,0,2021,2021],[16,1,1,0,2012,2012]]}},{"type":"Feature","geometry":{"type":"Polygon","coordinates":[[[-82.92273,24.63411],[-82.92143,24.63544],[-82.92193,24.6372],[-82.92373,24.63763],[-82.92503,24.6363],[-82.92453,24.63454],[-82.92273,24.63411]]]},"properties":{"cell":"894415d9b77ffff","res":9,"coarsened":false,"count":1,"hv":1,"mp":0,"y0":2017,"y1":2017,"sp":[[44,1,1,0,2017,2017]]}},{"type":"Feature","geometry":{"type":"Polygon","coordinates":[[[-82.86184,24.62608],[-82.86054,24.62741],[-82.86104,24.62916],[-82.86283,24.62959],[-82.86413,24.62827],[-82.86363,24.62651],[-82.86184,24.62608]]]},"properties":{"cell":"89441436b0bffff","res":9,"coarsened":false,"count":9,"hv":9,"mp":0,"y0":2014,"y1":2026,"sp":[[2,7,7,0,2022,2026],[19,1,1,0,2014,2014],[16,1,1,0,2026,2026]]}},{"type":"Feature","geometry":{"type":"Polygon","coordinates":[[[-82.86653,24.61903],[-82.86524,24.62036],[-82.86573,24.62211],[-82.86753,24.62254],[-82.86883,24.62122],[-82.86833,24.61946],[-82.86653,24.61903]]]},"properties":{"cell":"89441436b8bffff","res":9,"coarsened":false,"count":2,"hv":2,"mp":0,"y0":2022,"y1":2022,"sp":[[2,2,2,0,2022,2022]]}},{"type":"Feature","geometry":{"type":"Polygon","coordinates":[[[-82.86573,24.62211],[-82.86443,24.62344],[-82.86493,24.62519],[-82.86673,24.62562],[-82.86803,24.6243],[-82.86753,24.62254],[-82.86573,24.62211]]]},"properties":{"cell":"89441436b13ffff","res":9,"coarsened":false,"count":3,"hv":3,"mp":0,"y0":2022,"y1":2024,"sp":[[2,2,2,0,2022,2024],[71,1,1,0,2022,2022]]}},{"type":"Feature","geometry":{"type":"Polygon","coordinates":[[[-82.86413,24.62827],[-82.86283,24.62959],[-82.86333,24.63135],[-82.86513,24.63178],[-82.86643,24.63046],[-82.86593,24.6287],[-82.86413,24.62827]]]},"properties":{"cell":"89441436b0fffff","res":9,"coarsened":false,"count":2,"hv":2,"mp":0,"y0":2022,"y1":2022,"sp":[[2,2,2,0,2022,2022]]}},{"type":"Feature","geometry":{"type":"Polygon","coordinates":[[[-82.85533,24.66215],[-82.85403,24.66347],[-82.85453,24.66523],[-82.85632,24.66566],[-82.85762,24.66433],[-82.85712,24.66258],[-82.85533,24.66215]]]},"properties":{"cell":"8944143498bffff","res":9,"coarsened":false,"count":45,"hv":45,"mp":0,"y0":1993,"y1":2026,"sp":[[2,8,8,0,2012,2025],[8,5,5,0,2015,2025],[0,2,2,0,1996,2015],[19,2,2,0,2010,2015],[44,2,2,0,2023,2023],[7,2,2,0,2023,2024],[4,2,2,0,2025,2026],[41,2,2,0,2025,2025],[70,1,1,0,2012,2012],[60,1,1,0,2012,2012],[95,1,1,0,2024,2024],[50,1,1,0,2024,2024],[84,1,1,0,2024,2024],[83,1,1,0,2025,2025],[15,1,1,0,2025,2025],[96,1,1,0,2025,2025],[164,1,1,0,1993,1993],[46,1,1,0,2010,2010],[69,1,1,0,2010,2010],[168,1,1,0,2010,2010],[32,1,1,0,2010,2010],[68,1,1,0,2010,2010],[14,1,1,0,2010,2010],[54,1,1,0,2010,2010],[26,1,1,0,2010,2010],[59,1,1,0,2010,2010],[43,1,1,0,2026,2026],[88,1,1,0,2026,2026]]}},{"type":"Feature","geometry":{"type":"Polygon","coordinates":[[[-82.84339,24.62003],[-82.84209,24.62135],[-82.84259,24.62311],[-82.84438,24.62354],[-82.84568,24.62221],[-82.84518,24.62046],[-82.84339,24.62003]]]},"properties":{"cell":"89441436a6fffff","res":9,"coarsened":false,"count":1,"hv":1,"mp":0,"y0":2021,"y1":2021,"sp":[[69,1,1,0,2021,2021]]}},{"type":"Feature","geometry":{"type":"Polygon","coordinates":[[[-82.84189,24.61476],[-82.8406,24.61609],[-82.84109,24.61784],[-82.84289,24.61827],[-82.84419,24.61695],[-82.84369,24.61519],[-82.84189,24.61476]]]},"properties":{"cell":"89441436a7bffff","res":9,"coarsened":false,"count":1,"hv":1,"mp":0,"y0":2021,"y1":2021,"sp":[[16,1,1,0,2021,2021]]}},{"type":"Feature","geometry":{"type":"Polygon","coordinates":[[[-82.85325,24.63711],[-82.85195,24.63844],[-82.85245,24.64019],[-82.85424,24.64062],[-82.85554,24.6393],[-82.85505,24.63754],[-82.85325,24.63711]]]},"properties":{"cell":"89441434ddbffff","res":9,"coarsened":false,"count":2,"hv":2,"mp":0,"y0":2022,"y1":2022,"sp":[[19,2,2,0,2022,2022]]}},{"type":"Feature","geometry":{"type":"Polygon","coordinates":[[[-82.86952,24.62956],[-82.86822,24.63089],[-82.86872,24.63264],[-82.87052,24.63307],[-82.87181,24.63175],[-82.87132,24.62999],[-82.86952,24.62956]]]},"properties":{"cell":"89441436b33ffff","res":9,"coarsened":false,"count":15,"hv":15,"mp":0,"y0":2019,"y1":2026,"sp":[[9,4,4,0,2022,2025],[16,4,4,0,2024,2026],[8,2,2,0,2024,2025],[17,1,1,0,2024,2024],[2,1,1,0,2025,2025],[7,1,1,0,2019,2019],[36,1,1,0,2026,2026],[44,1,1,0,2026,2026]]}},{"type":"Feature","geometry":{"type":"Polygon","coordinates":[[[-82.84018,24.63234],[-82.83889,24.63367],[-82.83938,24.63542],[-82.84118,24.63585],[-82.84248,24.63453],[-82.84198,24.63277],[-82.84018,24.63234]]]},"properties":{"cell":"89441434c0bffff","res":9,"coarsened":false,"count":1,"hv":1,"mp":0,"y0":2022,"y1":2022,"sp":[[16,1,1,0,2022,2022]]}},{"type":"Feature","geometry":{"type":"Polygon","coordinates":[[[-82.878,24.62996],[-82.8767,24.63128],[-82.8772,24.63304],[-82.879,24.63347],[-82.8803,24.63214],[-82.8798,24.63039],[-82.878,24.62996]]]},"properties":{"cell":"894415cb6d3ffff","res":9,"coarsened":false,"count":2,"hv":2,"mp":0,"y0":2016,"y1":2022,"sp":[[44,1,1,0,2022,2022],[23,1,1,0,2016,2016]]}},{"type":"Feature","geometry":{"type":"Polygon","coordinates":[[[-82.83273,24.60602],[-82.83143,24.60735],[-82.83193,24.6091],[-82.83372,24.60953],[-82.83502,24.60821],[-82.83452,24.60645],[-82.83273,24.60602]]]},"properties":{"cell":"89441434193ffff","res":9,"coarsened":false,"count":9,"hv":9,"mp":0,"y0":2017,"y1":2025,"sp":[[2,4,4,0,2017,2025],[16,1,1,0,2022,2022],[59,1,1,0,2023,2023],[4,1,1,0,2022,2022],[8,1,1,0,2024,2024],[44,1,1,0,2025,2025]]}},{"type":"Feature","geometry":{"type":"Polygon","coordinates":[[[-82.89956,24.63512],[-82.89826,24.63644],[-82.89876,24.6382],[-82.90056,24.63863],[-82.90186,24.6373],[-82.90136,24.63555],[-82.89956,24.63512]]]},"properties":{"cell":"894415cb40bffff","res":9,"coarsened":false,"count":1,"hv":1,"mp":0,"y0":2018,"y1":2018,"sp":[[19,1,1,0,2018,2018]]}},{"type":"Feature","geometry":{"type":"Polygon","coordinates":[[[-82.86872,24.63264],[-82.86742,24.63397],[-82.86792,24.63572],[-82.86972,24.63615],[-82.87101,24.63483],[-82.87052,24.63307],[-82.86872,24.63264]]]},"properties":{"cell":"89441436b23ffff","res":9,"coarsened":false,"count":29,"hv":29,"mp":0,"y0":2007,"y1":2021,"sp":[[2,3,3,0,2007,2010],[37,2,2,0,2007,2007],[23,2,2,0,2007,2007],[50,2,2,0,2007,2007],[16,2,2,0,2010,2021],[0,1,1,0,2007,2007],[79,1,1,0,2007,2007],[4,1,1,0,2007,2007],[65,1,1,0,2007,2007],[21,1,1,0,2007,2007],[108,1,1,0,2007,2007],[36,1,1,0,2007,2007],[13,1,1,0,2007,2007],[32,1,1,0,2007,2007],[51,1,1,0,2007,2007],[8,1,1,0,2010,2010],[44,1,1,0,2010,2010],[18,1,1,0,2010,2010],[19,1,1,0,2010,2010],[141,1,1,0,2010,2010],[15,1,1,0,2010,2010],[100,1,1,0,2010,2010],[57,1,1,0,2010,2010]]}},{"type":"Feature","geometry":{"type":"Polygon","coordinates":[[[-82.87192,24.62032],[-82.87062,24.62165],[-82.87112,24.6234],[-82.87292,24.62383],[-82.87421,24.62251],[-82.87372,24.62075],[-82.87192,24.62032]]]},"properties":{"cell":"89441436b87ffff","res":9,"coarsened":false,"count":6,"hv":6,"mp":0,"y0":2016,"y1":2016,"sp":[[133,1,1,0,2016,2016],[4,1,1,0,2016,2016],[37,1,1,0,2016,2016],[15,1,1,0,2016,2016],[2,1,1,0,2016,2016],[110,1,1,0,2016,2016]]}},{"type":"Feature","geometry":{"type":"Polygon","coordinates":[[[-82.85416,24.62261],[-82.85286,24.62393],[-82.85336,24.62569],[-82.85515,24.62612],[-82.85645,24.62479],[-82.85595,24.62304],[-82.85416,24.62261]]]},"properties":{"cell":"89441436b5bffff","res":9,"coarsened":false,"count":1,"hv":1,"mp":0,"y0":2018,"y1":2018,"sp":[[19,1,1,0,2018,2018]]}},{"type":"Feature","geometry":{"type":"Polygon","coordinates":[[[-82.84488,24.62529],[-82.84358,24.62662],[-82.84408,24.62837],[-82.84587,24.6288],[-82.84717,24.62748],[-82.84667,24.62572],[-82.84488,24.62529]]]},"properties":{"cell":"89441434c8bffff","res":9,"coarsened":false,"count":1,"hv":1,"mp":0,"y0":2022,"y1":2022,"sp":[[109,1,1,0,2022,2022]]}},{"type":"Feature","geometry":{"type":"Polygon","coordinates":[[[-82.87651,24.62469],[-82.87521,24.62602],[-82.87571,24.62777],[-82.87751,24.6282],[-82.8788,24.62688],[-82.87831,24.62512],[-82.87651,24.62469]]]},"properties":{"cell":"89441436bb7ffff","res":9,"coarsened":false,"count":3,"hv":3,"mp":0,"y0":2016,"y1":2024,"sp":[[16,1,1,0,2016,2016],[2,1,1,0,2021,2021],[41,1,1,0,2024,2024]]}},{"type":"Feature","geometry":{"type":"Polygon","coordinates":[[[-82.89737,24.6215],[-82.89607,24.62283],[-82.89657,24.62459],[-82.89837,24.62502],[-82.89967,24.62369],[-82.89917,24.62193],[-82.89737,24.6215]]]},"properties":{"cell":"894414369a7ffff","res":9,"coarsened":false,"count":1,"hv":1,"mp":0,"y0":2016,"y1":2016,"sp":[[0,1,1,0,2016,2016]]}},{"type":"Feature","geometry":{"type":"Polygon","coordinates":[[[-82.89059,24.60352],[-82.88929,24.60485],[-82.88979,24.6066],[-82.89159,24.60703],[-82.89289,24.60571],[-82.89239,24.60395],[-82.89059,24.60352]]]},"properties":{"cell":"89441436d77ffff","res":9,"coarsened":false,"count":1,"hv":1,"mp":0,"y0":2016,"y1":2016,"sp":[[15,1,1,0,2016,2016]]}},{"type":"Feature","geometry":{"type":"Polygon","coordinates":[[[-82.88221,24.5917],[-82.88092,24.59303],[-82.88141,24.59478],[-82.88321,24.59521],[-82.88451,24.59389],[-82.88401,24.59213],[-82.88221,24.5917]]]},"properties":{"cell":"89441436c27ffff","res":9,"coarsened":false,"count":1,"hv":1,"mp":0,"y0":2016,"y1":2016,"sp":[[43,1,1,0,2016,2016]]}},{"type":"Feature","geometry":{"type":"Polygon","coordinates":[[[-82.87304,24.58297],[-82.87174,24.58429],[-82.87224,24.58605],[-82.87404,24.58648],[-82.87533,24.58515],[-82.87484,24.5834],[-82.87304,24.58297]]]},"properties":{"cell":"89441436c0bffff","res":9,"coarsened":false,"count":1,"hv":1,"mp":0,"y0":2016,"y1":2016,"sp":[[4,1,1,0,2016,2016]]}},{"type":"Feature","geometry":{"type":"Polygon","coordinates":[[[-82.95728,24.5671],[-82.95599,24.56842],[-82.95648,24.57018],[-82.95828,24.57061],[-82.95958,24.56928],[-82.95908,24.56753],[-82.95728,24.5671]]]},"properties":{"cell":"894415d806fffff","res":9,"coarsened":false,"count":1,"hv":1,"mp":0,"y0":2016,"y1":2016,"sp":[[79,1,1,0,2016,2016]]}},{"type":"Feature","geometry":{"type":"Polygon","coordinates":[[[-82.95958,24.56928],[-82.95828,24.57061],[-82.95878,24.57236],[-82.96058,24.57279],[-82.96188,24.57146],[-82.96138,24.56971],[-82.95958,24.56928]]]},"properties":{"cell":"894415d839bffff","res":9,"coarsened":false,"count":1,"hv":1,"mp":0,"y0":2016,"y1":2016,"sp":[[64,1,1,0,2016,2016]]}},{"type":"Feature","geometry":{"type":"Polygon","coordinates":[[[-82.95419,24.56799],[-82.95289,24.56932],[-82.95339,24.57108],[-82.95519,24.57151],[-82.95648,24.57018],[-82.95599,24.56842],[-82.95419,24.56799]]]},"properties":{"cell":"894415d83d3ffff","res":9,"coarsened":false,"count":1,"hv":1,"mp":0,"y0":2016,"y1":2016,"sp":[[12,1,1,0,2016,2016]]}},{"type":"Feature","geometry":{"type":"Polygon","coordinates":[[[-82.95109,24.56889],[-82.94979,24.57022],[-82.95029,24.57197],[-82.95209,24.5724],[-82.95339,24.57108],[-82.95289,24.56932],[-82.95109,24.56889]]]},"properties":{"cell":"894415d83dbffff","res":9,"coarsened":false,"count":1,"hv":1,"mp":0,"y0":2016,"y1":2016,"sp":[[124,1,1,0,2016,2016]]}},{"type":"Feature","geometry":{"type":"Polygon","coordinates":[[[-82.9495,24.57506],[-82.9482,24.57638],[-82.9487,24.57814],[-82.95049,24.57857],[-82.95179,24.57724],[-82.95129,24.57549],[-82.9495,24.57506]]]},"properties":{"cell":"894415d8353ffff","res":9,"coarsened":false,"count":1,"hv":1,"mp":0,"y0":2016,"y1":2016,"sp":[[46,1,1,0,2016,2016]]}},{"type":"Feature","geometry":{"type":"Polygon","coordinates":[[[-82.9433,24.57685],[-82.94201,24.57818],[-82.94251,24.57993],[-82.9443,24.58036],[-82.9456,24.57904],[-82.9451,24.57728],[-82.9433,24.57685]]]},"properties":{"cell":"894415d9c97ffff","res":9,"coarsened":false,"count":1,"hv":1,"mp":0,"y0":2016,"y1":2016,"sp":[[14,1,1,0,2016,2016]]}},{"type":"Feature","geometry":{"type":"Polygon","coordinates":[[[-82.93102,24.56901],[-82.92973,24.57034],[-82.93023,24.57209],[-82.93202,24.57252],[-82.93332,24.5712],[-82.93282,24.56944],[-82.93102,24.56901]]]},"properties":{"cell":"894415d91b7ffff","res":9,"coarsened":false,"count":1,"hv":1,"mp":0,"y0":2016,"y1":2016,"sp":[[46,1,1,0,2016,2016]]}},{"type":"Feature","geometry":{"type":"Polygon","coordinates":[[[-82.85005,24.64943],[-82.84875,24.65075],[-82.84925,24.65251],[-82.85104,24.65294],[-82.85234,24.65162],[-82.85184,24.64986],[-82.85005,24.64943]]]},"properties":{"cell":"89441434d4fffff","res":9,"coarsened":false,"count":1,"hv":1,"mp":0,"y0":2023,"y1":2023,"sp":[[19,1,1,0,2023,2023]]}},{"type":"Feature","geometry":{"type":"Polygon","coordinates":[[[-82.8796,24.6238],[-82.87831,24.62512],[-82.8788,24.62688],[-82.8806,24.62731],[-82.8819,24.62598],[-82.8814,24.62423],[-82.8796,24.6238]]]},"properties":{"cell":"8944143697bffff","res":9,"coarsened":false,"count":2,"hv":2,"mp":0,"y0":2023,"y1":2024,"sp":[[136,1,1,0,2023,2023],[2,1,1,0,2024,2024]]}},{"type":"Feature","geometry":{"type":"Polygon","coordinates":[[[-82.91814,24.62974],[-82.91684,24.63107],[-82.91734,24.63282],[-82.91913,24.63325],[-82.92043,24.63193],[-82.91993,24.63017],[-82.91814,24.62974]]]},"properties":{"cell":"894415d9b47ffff","res":9,"coarsened":false,"count":2,"hv":2,"mp":0,"y0":2023,"y1":2026,"sp":[[28,1,1,0,2023,2023],[43,1,1,0,2026,2026]]}},{"type":"Feature","geometry":{"type":"Polygon","coordinates":[[[-82.84098,24.62926],[-82.83969,24.63059],[-82.84018,24.63234],[-82.84198,24.63277],[-82.84328,24.63145],[-82.84278,24.6297],[-82.84098,24.62926]]]},"properties":{"cell":"89441434c1bffff","res":9,"coarsened":false,"count":1,"hv":1,"mp":0,"y0":2019,"y1":2019,"sp":[[71,1,1,0,2019,2019]]}},{"type":"Feature","geometry":{"type":"Polygon","coordinates":[[[-82.82712,24.62758],[-82.82582,24.6289],[-82.82632,24.63065],[-82.82812,24.63108],[-82.82941,24.62976],[-82.82892,24.62801],[-82.82712,24.62758]]]},"properties":{"cell":"89441434e93ffff","res":9,"coarsened":false,"count":1,"hv":1,"mp":0,"y0":2019,"y1":2019,"sp":[[16,1,1,0,2019,2019]]}},{"type":"Feature","geometry":{"type":"Polygon","coordinates":[[[-82.86333,24.63135],[-82.86203,24.63267],[-82.86253,24.63443],[-82.86433,24.63486],[-82.86563,24.63353],[-82.86513,24.63178],[-82.86333,24.63135]]]},"properties":{"cell":"89441436b77ffff","res":9,"coarsened":false,"count":1,"hv":1,"mp":0,"y0":2013,"y1":2013,"sp":[[19,1,1,0,2013,2013]]}},{"type":"Feature","geometry":{"type":"Polygon","coordinates":[[[-82.89876,24.6382],[-82.89746,24.63952],[-82.89796,24.64128],[-82.89976,24.64171],[-82.90106,24.64038],[-82.90056,24.63863],[-82.89876,24.6382]]]},"properties":{"cell":"894415cb473ffff","res":9,"coarsened":false,"count":1,"hv":1,"mp":0,"y0":2011,"y1":2011,"sp":[[36,1,1,0,2011,2011]]}},{"type":"Feature","geometry":{"type":"Polygon","coordinates":[[[-82.87811,24.61853],[-82.87681,24.61986],[-82.87731,24.62161],[-82.87911,24.62204],[-82.8804,24.62072],[-82.87991,24.61896],[-82.87811,24.61853]]]},"properties":{"cell":"89441436943ffff","res":9,"coarsened":false,"count":2,"hv":2,"mp":0,"y0":2024,"y1":2024,"sp":[[4,1,1,0,2024,2024],[41,1,1,0,2024,2024]]}},{"type":"Feature","geometry":{"type":"Polygon","coordinates":[[[-82.85874,24.62698],[-82.85745,24.6283],[-82.85794,24.63006],[-82.85974,24.63049],[-82.86104,24.62916],[-82.86054,24.62741],[-82.85874,24.62698]]]},"properties":{"cell":"89441436b47ffff","res":9,"coarsened":false,"count":1,"hv":1,"mp":0,"y0":2024,"y1":2024,"sp":[[4,1,1,0,2024,2024]]}},{"type":"Feature","geometry":{"type":"Polygon","coordinates":[[[-82.8764,24.63612],[-82.8751,24.63744],[-82.8756,24.6392],[-82.8774,24.63963],[-82.8787,24.6383],[-82.8782,24.63655],[-82.8764,24.63612]]]},"properties":{"cell":"894415cb6cfffff","res":9,"coarsened":false,"count":1,"hv":1,"mp":0,"y0":2024,"y1":2024,"sp":[[2,1,1,0,2024,2024]]}},{"type":"Feature","geometry":{"type":"Polygon","coordinates":[[[-82.86093,24.64059],[-82.85963,24.64191],[-82.86013,24.64367],[-82.86193,24.6441],[-82.86322,24.64277],[-82.86273,24.64102],[-82.86093,24.64059]]]},"properties":{"cell":"89441434d8bffff","res":9,"coarsened":false,"count":1,"hv":1,"mp":0,"y0":2024,"y1":2024,"sp":[[8,1,1,0,2024,2024]]}},{"type":"Feature","geometry":{"type":"Polygon","coordinates":[[[-82.87331,24.63701],[-82.87201,24.63834],[-82.87251,24.64009],[-82.8743,24.64052],[-82.8756,24.6392],[-82.8751,24.63744],[-82.87331,24.63701]]]},"properties":{"cell":"894415cb653ffff","res":9,"coarsened":false,"count":1,"hv":1,"mp":0,"y0":2024,"y1":2024,"sp":[[18,1,1,0,2024,2024]]}},{"type":"Feature","geometry":{"type":"Polygon","coordinates":[[[-82.85864,24.6384],[-82.85734,24.63973],[-82.85784,24.64148],[-82.85963,24.64191],[-82.86093,24.64059],[-82.86043,24.63883],[-82.85864,24.6384]]]},"properties":{"cell":"89441434dd7ffff","res":9,"coarsened":false,"count":2,"hv":2,"mp":0,"y0":2004,"y1":2024,"sp":[[19,1,1,0,2024,2024],[16,1,1,0,2004,2004]]}},{"type":"Feature","geometry":{"type":"Polygon","coordinates":[[[-82.80914,24.6527],[-82.80784,24.65402],[-82.80834,24.65578],[-82.81014,24.65621],[-82.81143,24.65488],[-82.81094,24.65313],[-82.80914,24.6527]]]},"properties":{"cell":"89441434acbffff","res":9,"coarsened":false,"count":2,"hv":2,"mp":0,"y0":2024,"y1":2026,"sp":[[42,1,1,0,2024,2024],[19,1,1,0,2026,2026]]}},{"type":"Feature","geometry":{"type":"Polygon","coordinates":[[[-82.86552,24.64496],[-82.86422,24.64628],[-82.86472,24.64804],[-82.86651,24.64847],[-82.86781,24.64715],[-82.86731,24.64539],[-82.86552,24.64496]]]},"properties":{"cell":"89441434dbbffff","res":9,"coarsened":false,"count":1,"hv":1,"mp":0,"y0":2016,"y1":2016,"sp":[[8,1,1,0,2016,2016]]}},{"type":"Feature","geometry":{"type":"Polygon","coordinates":[[[-82.89657,24.62459],[-82.89527,24.62591],[-82.89577,24.62767],[-82.89757,24.6281],[-82.89887,24.62677],[-82.89837,24.62502],[-82.89657,24.62459]]]},"properties":{"cell":"894415cb4dbffff","res":9,"coarsened":false,"count":1,"hv":1,"mp":0,"y0":2008,"y1":2008,"sp":[[2,1,1,0,2008,2008]]}},{"type":"Feature","geometry":{"type":"Polygon","coordinates":[[[-82.88259,24.63433],[-82.88129,24.63565],[-82.88179,24.63741],[-82.88359,24.63784],[-82.88489,24.63651],[-82.88439,24.63476],[-82.88259,24.63433]]]},"properties":{"cell":"894415cb68bffff","res":9,"coarsened":false,"count":1,"hv":1,"mp":0,"y0":2008,"y1":2008,"sp":[[4,1,1,0,2008,2008]]}},{"type":"Feature","geometry":{"type":"Polygon","coordinates":[[[-82.89108,24.63472],[-82.88978,24.63605],[-82.89028,24.6378],[-82.89207,24.63823],[-82.89337,24.63691],[-82.89287,24.63515],[-82.89108,24.63472]]]},"properties":{"cell":"894415cb44bffff","res":9,"coarsened":false,"count":1,"hv":1,"mp":0,"y0":2008,"y1":2008,"sp":[[4,1,1,0,2008,2008]]}},{"type":"Feature","geometry":{"type":"Polygon","coordinates":[[[-82.89188,24.63164],[-82.89058,24.63297],[-82.89108,24.63472],[-82.89287,24.63515],[-82.89417,24.63383],[-82.89367,24.63207],[-82.89188,24.63164]]]},"properties":{"cell":"894415cb45bffff","res":9,"coarsened":false,"count":1,"hv":1,"mp":0,"y0":2008,"y1":2008,"sp":[[111,1,1,0,2008,2008]]}},{"type":"Feature","geometry":{"type":"Polygon","coordinates":[[[-82.80685,24.65051],[-82.80555,24.65184],[-82.80605,24.65359],[-82.80784,24.65402],[-82.80914,24.6527],[-82.80865,24.65094],[-82.80685,24.65051]]]},"properties":{"cell":"89441435d37ffff","res":9,"coarsened":false,"count":16,"hv":16,"mp":0,"y0":2025,"y1":2026,"sp":[[19,14,14,0,2025,2026],[88,2,2,0,2025,2026]]}},{"type":"Feature","geometry":{"type":"Polygon","coordinates":[[[-82.8396,24.61258],[-82.8383,24.6139],[-82.8388,24.61566],[-82.8406,24.61609],[-82.84189,24.61476],[-82.8414,24.61301],[-82.8396,24.61258]]]},"properties":{"cell":"89441436a4fffff","res":9,"coarsened":false,"count":1,"hv":1,"mp":0,"y0":2025,"y1":2025,"sp":[[19,1,1,0,2025,2025]]}},{"type":"Feature","geometry":{"type":"Polygon","coordinates":[[[-82.81933,24.63552],[-82.81804,24.63684],[-82.81853,24.6386],[-82.82033,24.63903],[-82.82163,24.6377],[-82.82113,24.63595],[-82.81933,24.63552]]]},"properties":{"cell":"89441434e1bffff","res":9,"coarsened":false,"count":1,"hv":1,"mp":0,"y0":2025,"y1":2025,"sp":[[19,1,1,0,2025,2025]]}},{"type":"Feature","geometry":{"type":"Polygon","coordinates":[[[-82.79459,24.64266],[-82.7933,24.64399],[-82.79379,24.64574],[-82.79559,24.64617],[-82.79689,24.64485],[-82.79639,24.64309],[-82.79459,24.64266]]]},"properties":{"cell":"89441435d57ffff","res":9,"coarsened":false,"count":1,"hv":1,"mp":0,"y0":2025,"y1":2025,"sp":[[8,1,1,0,2025,2025]]}},{"type":"Feature","geometry":{"type":"Polygon","coordinates":[[[-82.87091,24.64625],[-82.86961,24.64758],[-82.87011,24.64933],[-82.8719,24.64976],[-82.8732,24.64844],[-82.8727,24.64668],[-82.87091,24.64625]]]},"properties":{"cell":"89441434db7ffff","res":9,"coarsened":false,"count":2,"hv":2,"mp":0,"y0":2024,"y1":2026,"sp":[[2,1,1,0,2024,2024],[0,1,1,0,2026,2026]]}},{"type":"Feature","geometry":{"type":"Polygon","coordinates":[[[-82.8025,24.6233],[-82.8012,24.62462],[-82.80169,24.62638],[-82.80349,24.62681],[-82.80479,24.62549],[-82.80429,24.62373],[-82.8025,24.6233]]]},"properties":{"cell":"8944143430bffff","res":9,"coarsened":false,"count":1,"hv":1,"mp":0,"y0":2013,"y1":2013,"sp":[[16,1,1,0,2013,2013]]}},{"type":"Feature","geometry":{"type":"Polygon","coordinates":[[[-82.84408,24.62837],[-82.84278,24.6297],[-82.84328,24.63145],[-82.84507,24.63188],[-82.84637,24.63056],[-82.84587,24.6288],[-82.84408,24.62837]]]},"properties":{"cell":"89441434c13ffff","res":9,"coarsened":false,"count":1,"hv":1,"mp":0,"y0":2025,"y1":2025,"sp":[[16,1,1,0,2025,2025]]}},{"type":"Feature","geometry":{"type":"Polygon","coordinates":[[[-81.75519,24.56619],[-81.7539,24.5675],[-81.75437,24.56924],[-81.75613,24.56968],[-81.75742,24.56838],[-81.75695,24.56663],[-81.75519,24.56619]]]},"properties":{"cell":"894416b8bb3ffff","res":9,"coarsened":false,"count":5,"hv":5,"mp":0,"y0":2025,"y1":2026,"sp":[[157,3,3,0,2025,2025],[51,1,1,0,2025,2025],[163,1,1,0,2026,2026]]}},{"type":"Feature","geometry":{"type":"Polygon","coordinates":[[[-82.86733,24.61595],[-82.86604,24.61728],[-82.86653,24.61903],[-82.86833,24.61946],[-82.86963,24.61814],[-82.86913,24.61638],[-82.86733,24.61595]]]},"properties":{"cell":"89441436b9bffff","res":9,"coarsened":false,"count":1,"hv":1,"mp":0,"y0":2010,"y1":2010,"sp":[[19,1,1,0,2010,2010]]}},{"type":"Feature","geometry":{"type":"Polygon","coordinates":[[[-82.91264,24.63988],[-82.91134,24.64121],[-82.91184,24.64296],[-82.91364,24.64339],[-82.91494,24.64207],[-82.91444,24.64031],[-82.91264,24.63988]]]},"properties":{"cell":"894415cb5dbffff","res":9,"coarsened":false,"count":1,"hv":1,"mp":0,"y0":2007,"y1":2007,"sp":[[2,1,1,0,2007,2007]]}},{"type":"Feature","geometry":{"type":"Polygon","coordinates":[[[-82.85955,24.6239],[-82.85825,24.62522],[-82.85874,24.62698],[-82.86054,24.62741],[-82.86184,24.62608],[-82.86134,24.62433],[-82.85955,24.6239]]]},"properties":{"cell":"89441436b57ffff","res":9,"coarsened":false,"count":1,"hv":1,"mp":0,"y0":2026,"y1":2026,"sp":[[2,1,1,0,2026,2026]]}},{"type":"Feature","geometry":{"type":"Polygon","coordinates":[[[-82.91734,24.63282],[-82.91604,24.63415],[-82.91654,24.63591],[-82.91833,24.63634],[-82.91963,24.63501],[-82.91913,24.63325],[-82.91734,24.63282]]]},"properties":{"cell":"894415d9b7bffff","res":9,"coarsened":false,"count":2,"hv":2,"mp":0,"y0":2026,"y1":2026,"sp":[[77,1,1,0,2026,2026],[88,1,1,0,2026,2026]]}},{"type":"Feature","geometry":{"type":"Polygon","coordinates":[[[-82.85645,24.62479],[-82.85515,24.62612],[-82.85565,24.62787],[-82.85745,24.6283],[-82.85874,24.62698],[-82.85825,24.62522],[-82.85645,24.62479]]]},"properties":{"cell":"89441436b43ffff","res":9,"coarsened":false,"count":1,"hv":1,"mp":0,"y0":2026,"y1":2026,"sp":[[15,1,1,0,2026,2026]]}},{"type":"Feature","geometry":{"type":"Polygon","coordinates":[[[-82.91104,24.64604],[-82.90974,24.64737],[-82.91024,24.64913],[-82.91204,24.64956],[-82.91334,24.64823],[-82.91284,24.64647],[-82.91104,24.64604]]]},"properties":{"cell":"894415cb553ffff","res":9,"coarsened":false,"count":1,"hv":1,"mp":0,"y0":2026,"y1":2026,"sp":[[59,1,1,0,2026,2026]]}},{"type":"Feature","geometry":{"type":"Polygon","coordinates":[[[-82.88009,24.65499],[-82.87879,24.65632],[-82.87929,24.65807],[-82.88108,24.6585],[-82.88238,24.65718],[-82.88188,24.65542],[-82.88009,24.65499]]]},"properties":{"cell":"894415cb283ffff","res":9,"coarsened":false,"count":1,"hv":1,"mp":0,"y0":2026,"y1":2026,"sp":[[50,1,1,0,2026,2026]]}},{"type":"Feature","geometry":{"type":"Polygon","coordinates":[[[-82.87859,24.64973],[-82.87729,24.65105],[-82.87779,24.65281],[-82.87959,24.65324],[-82.88089,24.65191],[-82.88039,24.65016],[-82.87859,24.64973]]]},"properties":{"cell":"894415cb667ffff","res":9,"coarsened":false,"count":2,"hv":2,"mp":0,"y0":2026,"y1":2026,"sp":[[15,1,1,0,2026,2026],[8,1,1,0,2026,2026]]}},{"type":"Feature","geometry":{"type":"Polygon","coordinates":[[[-82.87939,24.64665],[-82.87809,24.64797],[-82.87859,24.64973],[-82.88039,24.65016],[-82.88169,24.64883],[-82.88119,24.64708],[-82.87939,24.64665]]]},"properties":{"cell":"894415cb677ffff","res":9,"coarsened":false,"count":2,"hv":2,"mp":0,"y0":2025,"y1":2026,"sp":[[15,1,1,0,2026,2026],[135,1,1,0,2025,2025]]}},{"type":"Feature","geometry":{"type":"Polygon","coordinates":[[[-82.88089,24.65191],[-82.87959,24.65324],[-82.88009,24.65499],[-82.88188,24.65542],[-82.88318,24.6541],[-82.88268,24.65234],[-82.88089,24.65191]]]},"properties":{"cell":"894415cb293ffff","res":9,"coarsened":false,"count":1,"hv":1,"mp":0,"y0":2026,"y1":2026,"sp":[[8,1,1,0,2026,2026]]}},{"type":"Feature","geometry":{"type":"Polygon","coordinates":[[[-82.85896,24.60413],[-82.85766,24.60546],[-82.85816,24.60721],[-82.85996,24.60764],[-82.86125,24.60632],[-82.86076,24.60456],[-82.85896,24.60413]]]},"properties":{"cell":"8944143684bffff","res":9,"coarsened":false,"count":1,"hv":1,"mp":0,"y0":2026,"y1":2026,"sp":[[8,1,1,0,2026,2026]]}},{"type":"Feature","geometry":{"type":"Polygon","coordinates":[[[-82.81223,24.6518],[-82.81094,24.65313],[-82.81143,24.65488],[-82.81323,24.65531],[-82.81453,24.65399],[-82.81403,24.65224],[-82.81223,24.6518]]]},"properties":{"cell":"89441434ac3ffff","res":9,"coarsened":false,"count":1,"hv":1,"mp":0,"y0":2026,"y1":2026,"sp":[[19,1,1,0,2026,2026]]}},{"type":"Feature","geometry":{"type":"Polygon","coordinates":[[[-82.84109,24.61784],[-82.8398,24.61917],[-82.84029,24.62092],[-82.84209,24.62135],[-82.84339,24.62003],[-82.84289,24.61827],[-82.84109,24.61784]]]},"properties":{"cell":"89441436a6bffff","res":9,"coarsened":false,"count":1,"hv":1,"mp":0,"y0":2022,"y1":2022,"sp":[[19,1,1,0,2022,2022]]}},{"type":"Feature","geometry":{"type":"Polygon","coordinates":[[[-82.94611,24.69861],[-82.94481,24.69994],[-82.94531,24.70169],[-82.94711,24.70213],[-82.94841,24.7008],[-82.94791,24.69904],[-82.94611,24.69861]]]},"properties":{"cell":"894415c8513ffff","res":9,"coarsened":false,"count":1,"hv":1,"mp":0,"y0":2017,"y1":2017,"sp":[[135,1,1,0,2017,2017]]}},{"type":"Feature","geometry":{"type":"Polygon","coordinates":[[[-81.80079,24.56452],[-81.7995,24.56583],[-81.79998,24.56757],[-81.80174,24.56801],[-81.80303,24.56671],[-81.80256,24.56496],[-81.80079,24.56452]]]},"properties":{"cell":"894416a33c3ffff","res":9,"coarsened":false,"count":1,"hv":1,"mp":0,"y0":2016,"y1":2016,"sp":[[169,1,1,0,2016,2016]]}},{"type":"Feature","geometry":{"type":"Polygon","coordinates":[[[-82.0205,24.57823],[-82.01921,24.57954],[-82.01968,24.58129],[-82.02146,24.58172],[-82.02275,24.58041],[-82.02227,24.57867],[-82.0205,24.57823]]]},"properties":{"cell":"894416b6a67ffff","res":9,"coarsened":false,"count":1,"hv":1,"mp":0,"y0":1993,"y1":1993,"sp":[[135,1,1,0,1993,1993]]}},{"type":"Feature","geometry":{"type":"Polygon","coordinates":[[[-81.81993,24.59857],[-81.81864,24.59988],[-81.81911,24.60163],[-81.82088,24.60206],[-81.82217,24.60076],[-81.82169,24.59901],[-81.81993,24.59857]]]},"properties":{"cell":"894416a0293ffff","res":9,"coarsened":false,"count":2,"hv":2,"mp":0,"y0":1991,"y1":1993,"sp":[[135,1,1,0,1993,1993],[170,1,1,0,1991,1991]]}},{"type":"Feature","geometry":{"type":"Polygon","coordinates":[[[-81.81974,24.5676],[-81.81845,24.56891],[-81.81892,24.57065],[-81.82069,24.57109],[-81.82198,24.56979],[-81.8215,24.56804],[-81.81974,24.5676]]]},"properties":{"cell":"894416a3147ffff","res":9,"coarsened":false,"count":1,"hv":1,"mp":0,"y0":1990,"y1":1990,"sp":[[171,1,1,0,1990,1990]]}},{"type":"Feature","geometry":{"type":"Polygon","coordinates":[[[-82.099,24.58128],[-82.09771,24.58259],[-82.09819,24.58434],[-82.09997,24.58477],[-82.10126,24.58346],[-82.10078,24.58171],[-82.099,24.58128]]]},"properties":{"cell":"89441479b8bffff","res":9,"coarsened":false,"count":1,"hv":1,"mp":0,"y0":1981,"y1":1981,"sp":[[172,1,1,0,1981,1981]]}},{"type":"Feature","geometry":{"type":"Polygon","coordinates":[[[-81.83029,24.69719],[-81.829,24.69849],[-81.82948,24.70024],[-81.83124,24.70068],[-81.83254,24.69937],[-81.83206,24.69763],[-81.83029,24.69719]]]},"properties":{"cell":"894416ae08bffff","res":9,"coarsened":false,"count":1,"hv":1,"mp":0,"y0":1978,"y1":1978,"sp":[[173,1,1,0,1978,1978]]}},{"type":"Feature","geometry":{"type":"Polygon","coordinates":[[[-81.82929,24.62694],[-81.828,24.62825],[-81.82848,24.63],[-81.83024,24.63044],[-81.83154,24.62913],[-81.83106,24.62738],[-81.82929,24.62694]]]},"properties":{"cell":"894416a030fffff","res":9,"coarsened":false,"count":1,"hv":1,"mp":0,"y0":1977,"y1":1977,"sp":[[174,1,1,0,1977,1977]]}},{"type":"Feature","geometry":{"type":"Polygon","coordinates":[[[-82.74811,24.66745],[-82.74681,24.66877],[-82.7473,24.67053],[-82.7491,24.67096],[-82.75039,24.66964],[-82.7499,24.66788],[-82.74811,24.66745]]]},"properties":{"cell":"894414274d3ffff","res":9,"coarsened":false,"count":1,"hv":1,"mp":0,"y0":null,"y1":null,"sp":[[175,1,1,0,null,null]]}},{"type":"Feature","geometry":{"type":"Polygon","coordinates":[[[-82.91894,24.62666],[-82.91764,24.62799],[-82.91814,24.62974],[-82.91993,24.63017],[-82.92123,24.62885],[-82.92073,24.62709],[-82.91894,24.62666]]]},"properties":{"cell":"894415d9b57ffff","res":9,"coarsened":false,"count":1,"hv":1,"mp":0,"y0":1976,"y1":1976,"sp":[[175,1,1,0,1976,1976]]}},{"type":"Feature","geometry":{"type":"Polygon","coordinates":[[[-82.63727,24.66523],[-82.63597,24.66655],[-82.63646,24.6683],[-82.63825,24.66874],[-82.63955,24.66742],[-82.63906,24.66566],[-82.63727,24.66523]]]},"properties":{"cell":"89441421c83ffff","res":9,"coarsened":false,"count":1,"hv":1,"mp":0,"y0":null,"y1":null,"sp":[[176,1,1,0,null,null]]}},{"type":"Feature","geometry":{"type":"Polygon","coordinates":[[[-82.45395,24.58161],[-82.45265,24.58292],[-82.45314,24.58468],[-82.45492,24.58511],[-82.45622,24.58379],[-82.45573,24.58204],[-82.45395,24.58161]]]},"properties":{"cell":"8944147681bffff","res":9,"coarsened":false,"count":1,"hv":1,"mp":0,"y0":null,"y1":null,"sp":[[176,1,1,0,null,null]]}},{"type":"Feature","geometry":{"type":"Polygon","coordinates":[[[-82.76747,24.58219],[-82.76617,24.58351],[-82.76667,24.58527],[-82.76846,24.5857],[-82.76976,24.58437],[-82.76926,24.58262],[-82.76747,24.58219]]]},"properties":{"cell":"894414355dbffff","res":9,"coarsened":false,"count":1,"hv":1,"mp":0,"y0":null,"y1":null,"sp":[[176,1,1,0,null,null]]}},{"type":"Feature","geometry":{"type":"Polygon","coordinates":[[[-82.53374,24.58137],[-82.53245,24.58269],[-82.53294,24.58444],[-82.53472,24.58487],[-82.53602,24.58355],[-82.53553,24.5818],[-82.53374,24.58137]]]},"properties":{"cell":"89441439d0bffff","res":9,"coarsened":false,"count":5,"hv":5,"mp":0,"y0":2025,"y1":2025,"sp":[[13,1,1,0,2025,2025],[2,1,1,0,2025,2025],[95,1,1,0,2025,2025],[179,1,1,0,2025,2025],[4,1,1,0,2025,2025]]}},{"type":"Feature","geometry":{"type":"Polygon","coordinates":[[[-81.79468,24.56626],[-81.79339,24.56756],[-81.79387,24.56931],[-81.79563,24.56975],[-81.79692,24.56844],[-81.79645,24.5667],[-81.79468,24.56626]]]},"properties":{"cell":"894416a3227ffff","res":9,"coarsened":false,"count":5,"hv":5,"mp":0,"y0":2024,"y1":2025,"sp":[[0,1,1,0,2025,2025],[49,1,1,0,2025,2025],[181,1,1,0,2025,2025],[64,1,1,0,2025,2025],[132,1,1,0,2024,2024]]}},{"type":"Feature","geometry":{"type":"Polygon","coordinates":[[[-82.49317,24.57317],[-82.49188,24.57449],[-82.49236,24.57624],[-82.49415,24.57667],[-82.49544,24.57535],[-82.49496,24.5736],[-82.49317,24.57317]]]},"properties":{"cell":"89441439e47ffff","res":9,"coarsened":false,"count":4,"hv":4,"mp":0,"y0":2025,"y1":2025,"sp":[[178,1,1,0,2025,2025],[92,1,1,0,2025,2025],[104,1,1,0,2025,2025],[83,1,1,0,2025,2025]]}},{"type":"Feature","geometry":{"type":"Polygon","coordinates":[[[-82.83629,24.63632],[-82.83499,24.63764],[-82.83549,24.6394],[-82.83728,24.63983],[-82.83858,24.6385],[-82.83808,24.63675],[-82.83629,24.63632]]]},"properties":{"cell":"89441434c7bffff","res":9,"coarsened":false,"count":1,"hv":1,"mp":0,"y0":2025,"y1":2025,"sp":[[41,1,1,0,2025,2025]]}},{"type":"Feature","geometry":{"type":"Polygon","coordinates":[[[-81.76779,24.58235],[-81.7665,24.58365],[-81.76698,24.5854],[-81.76874,24.58584],[-81.77003,24.58453],[-81.76956,24.58279],[-81.76779,24.58235]]]},"properties":{"cell":"894416a16bbffff","res":9,"coarsened":false,"count":21,"hv":21,"mp":0,"y0":2025,"y1":2025,"sp":[[30,1,1,0,2025,2025],[41,1,1,0,2025,2025],[23,1,1,0,2025,2025],[87,1,1,0,2025,2025],[182,1,1,0,2025,2025],[183,1,1,0,2025,2025],[38,1,1,0,2025,2025],[96,1,1,0,2025,2025],[163,1,1,0,2025,2025],[104,1,1,0,2025,2025],[158,1,1,0,2025,2025],[28,1,1,0,2025,2025],[10,1,1,0,2025,2025],[178,1,1,0,2025,2025],[181,1,1,0,2025,2025],[4,1,1,0,2025,2025],[184,1,1,0,2025,2025],[45,1,1,0,2025,2025],[168,1,1,0,2025,2025],[51,1,1,0,2025,2025],[40,1,1,0,2025,2025]]}},{"type":"Feature","geometry":{"type":"Polygon","coordinates":[[[-81.76353,24.56664],[-81.76224,24.56795],[-81.76271,24.56969],[-81.76448,24.57013],[-81.76577,24.56883],[-81.7653,24.56708],[-81.76353,24.56664]]]},"properties":{"cell":"894416b8973ffff","res":9,"coarsened":false,"count":2,"hv":2,"mp":0,"y0":1996,"y1":2025,"sp":[[136,1,1,0,2025,2025],[93,1,1,0,1996,1996]]}},{"type":"Feature","geometry":{"type":"Polygon","coordinates":[[[-81.77696,24.57975],[-81.77567,24.58105],[-81.77614,24.5828],[-81.77791,24.58324],[-81.7792,24.58193],[-81.77872,24.58019],[-81.77696,24.57975]]]},"properties":{"cell":"894416a1447ffff","res":9,"coarsened":false,"count":5,"hv":5,"mp":0,"y0":2025,"y1":2025,"sp":[[163,1,1,0,2025,2025],[2,1,1,0,2025,2025],[177,1,1,0,2025,2025],[76,1,1,0,2025,2025],[147,1,1,0,2025,2025]]}},{"type":"Feature","geometry":{"type":"Polygon","coordinates":[[[-81.76882,24.56796],[-81.76753,24.56927],[-81.76801,24.57101],[-81.76977,24.57145],[-81.77106,24.57014],[-81.77059,24.5684],[-81.76882,24.56796]]]},"properties":{"cell":"894416b893bffff","res":9,"coarsened":false,"count":3,"hv":3,"mp":0,"y0":2025,"y1":2025,"sp":[[38,1,1,0,2025,2025],[92,1,1,0,2025,2025],[147,1,1,0,2025,2025]]}},{"type":"Feature","geometry":{"type":"Polygon","coordinates":[[[-81.76577,24.56883],[-81.76448,24.57013],[-81.76495,24.57188],[-81.76672,24.57232],[-81.76801,24.57101],[-81.76753,24.56927],[-81.76577,24.56883]]]},"properties":{"cell":"894416b8977ffff","res":9,"coarsened":false,"count":2,"hv":2,"mp":0,"y0":2025,"y1":2025,"sp":[[41,2,2,0,2025,2025]]}},{"type":"Feature","geometry":{"type":"Polygon","coordinates":[[[-81.76964,24.56491],[-81.76835,24.56621],[-81.76882,24.56796],[-81.77059,24.5684],[-81.77188,24.56709],[-81.7714,24.56535],[-81.76964,24.56491]]]},"properties":{"cell":"894416b8907ffff","res":9,"coarsened":false,"count":5,"hv":5,"mp":0,"y0":2022,"y1":2025,"sp":[[76,2,2,0,2025,2025],[182,1,1,0,2025,2025],[83,1,1,0,2025,2025],[163,1,1,0,2022,2022]]}},{"type":"Feature","geometry":{"type":"Polygon","coordinates":[[[-81.7739,24.58061],[-81.77261,24.58192],[-81.77309,24.58366],[-81.77485,24.5841],[-81.77614,24.5828],[-81.77567,24.58105],[-81.7739,24.58061]]]},"properties":{"cell":"894416a144fffff","res":9,"coarsened":false,"count":3,"hv":3,"mp":0,"y0":2025,"y1":2025,"sp":[[158,1,1,0,2025,2025],[185,1,1,0,2025,2025],[184,1,1,0,2025,2025]]}},{"type":"Feature","geometry":{"type":"Polygon","coordinates":[[[-81.77472,24.57756],[-81.77343,24.57887],[-81.7739,24.58061],[-81.77567,24.58105],[-81.77696,24.57975],[-81.77648,24.578],[-81.77472,24.57756]]]},"properties":{"cell":"894416a1443ffff","res":9,"coarsened":false,"count":3,"hv":3,"mp":0,"y0":2025,"y1":2025,"sp":[[96,1,1,0,2025,2025],[181,1,1,0,2025,2025],[184,1,1,0,2025,2025]]}},{"type":"Feature","geometry":{"type":"Polygon","coordinates":[[[-81.76659,24.56578],[-81.7653,24.56708],[-81.76577,24.56883],[-81.76753,24.56927],[-81.76882,24.56796],[-81.76835,24.56621],[-81.76659,24.56578]]]},"properties":{"cell":"894416b890fffff","res":9,"coarsened":false,"count":1,"hv":1,"mp":0,"y0":2025,"y1":2025,"sp":[[177,1,1,0,2025,2025]]}},{"type":"Feature","geometry":{"type":"Polygon","coordinates":[[[-81.77575,24.56317],[-81.77446,24.56448],[-81.77493,24.56623],[-81.7767,24.56666],[-81.77799,24.56536],[-81.77751,24.56361],[-81.77575,24.56317]]]},"properties":{"cell":"894416b89a3ffff","res":9,"coarsened":false,"count":3,"hv":3,"mp":0,"y0":2017,"y1":2024,"sp":[[177,1,1,0,2024,2024],[23,1,1,0,2024,2024],[41,1,1,0,2017,2017]]}},{"type":"Feature","geometry":{"type":"Polygon","coordinates":[[[-81.77635,24.57146],[-81.77506,24.57277],[-81.77554,24.57451],[-81.7773,24.57495],[-81.77859,24.57364],[-81.77812,24.5719],[-81.77635,24.57146]]]},"properties":{"cell":"894416a14cbffff","res":9,"coarsened":false,"count":1,"hv":1,"mp":0,"y0":2024,"y1":2024,"sp":[[168,1,1,0,2024,2024]]}},{"type":"Feature","geometry":{"type":"Polygon","coordinates":[[[-82.94291,24.62257],[-82.94161,24.6239],[-82.94211,24.62565],[-82.94391,24.62608],[-82.9452,24.62476],[-82.9447,24.623],[-82.94291,24.62257]]]},"properties":{"cell":"894415d990bffff","res":9,"coarsened":false,"count":6,"hv":6,"mp":0,"y0":2024,"y1":2024,"sp":[[8,1,1,0,2024,2024],[142,1,1,0,2024,2024],[180,1,1,0,2024,2024],[2,1,1,0,2024,2024],[28,1,1,0,2024,2024],[6,1,1,0,2024,2024]]}},{"type":"Feature","geometry":{"type":"Polygon","coordinates":[[[-82.84477,24.63671],[-82.84347,24.63804],[-82.84397,24.63979],[-82.84576,24.64022],[-82.84706,24.6389],[-82.84656,24.63714],[-82.84477,24.63671]]]},"properties":{"cell":"89441434c3bffff","res":9,"coarsened":false,"count":1,"hv":1,"mp":0,"y0":2024,"y1":2024,"sp":[[180,1,1,0,2024,2024]]}},{"type":"Feature","geometry":{"type":"Polygon","coordinates":[[[-82.87843,24.58426],[-82.87713,24.58558],[-82.87763,24.58734],[-82.87942,24.58776],[-82.88072,24.58644],[-82.88022,24.58468],[-82.87843,24.58426]]]},"properties":{"cell":"89441436c07ffff","res":9,"coarsened":false,"count":1,"hv":1,"mp":0,"y0":2024,"y1":2024,"sp":[[0,1,1,0,2024,2024]]}},{"type":"Feature","geometry":{"type":"Polygon","coordinates":[[[-82.92353,24.63103],[-82.92223,24.63236],[-82.92273,24.63411],[-82.92453,24.63454],[-82.92583,24.63322],[-82.92533,24.63146],[-82.92353,24.63103]]]},"properties":{"cell":"894415d9b0fffff","res":9,"coarsened":false,"count":3,"hv":3,"mp":0,"y0":2024,"y1":2024,"sp":[[0,1,1,0,2024,2024],[41,1,1,0,2024,2024],[179,1,1,0,2024,2024]]}},{"type":"Feature","geometry":{"type":"Polygon","coordinates":[[[-82.86541,24.65638],[-82.86411,24.65771],[-82.86461,24.65946],[-82.86641,24.65989],[-82.86771,24.65857],[-82.86721,24.65682],[-82.86541,24.65638]]]},"properties":{"cell":"89441434d27ffff","res":9,"coarsened":false,"count":1,"hv":1,"mp":0,"y0":2024,"y1":2024,"sp":[[2,1,1,0,2024,2024]]}},{"type":"Feature","geometry":{"type":"Polygon","coordinates":[[[-82.90854,24.66672],[-82.90724,24.66804],[-82.90774,24.6698],[-82.90954,24.67023],[-82.91084,24.6689],[-82.91034,24.66715],[-82.90854,24.66672]]]},"properties":{"cell":"894415cb1cfffff","res":9,"coarsened":false,"count":1,"hv":1,"mp":0,"y0":2024,"y1":2024,"sp":[[6,1,1,0,2024,2024]]}},{"type":"Feature","geometry":{"type":"Polygon","coordinates":[[[-81.7959,24.58283],[-81.7946,24.58414],[-81.79508,24.58588],[-81.79684,24.58632],[-81.79813,24.58502],[-81.79766,24.58327],[-81.7959,24.58283]]]},"properties":{"cell":"894416a15d3ffff","res":9,"coarsened":false,"count":1,"hv":1,"mp":0,"y0":2024,"y1":2024,"sp":[[45,1,1,0,2024,2024]]}},{"type":"Feature","geometry":{"type":"Polygon","coordinates":[[[-82.88339,24.63125],[-82.88209,24.63257],[-82.88259,24.63433],[-82.88439,24.63476],[-82.88569,24.63343],[-82.88519,24.63168],[-82.88339,24.63125]]]},"properties":{"cell":"894415cb69bffff","res":9,"coarsened":false,"count":1,"hv":1,"mp":0,"y0":2024,"y1":2024,"sp":[[2,1,1,0,2024,2024]]}},{"type":"Feature","geometry":{"type":"Polygon","coordinates":[[[-81.79692,24.56844],[-81.79563,24.56975],[-81.79611,24.57149],[-81.79787,24.57193],[-81.79916,24.57063],[-81.79869,24.56888],[-81.79692,24.56844]]]},"properties":{"cell":"894416a3353ffff","res":9,"coarsened":false,"count":1,"hv":1,"mp":0,"y0":2024,"y1":2024,"sp":[[132,1,1,0,2024,2024]]}},{"type":"Feature","geometry":{"type":"Polygon","coordinates":[[[-82.86162,24.64893],[-82.86033,24.65026],[-82.86082,24.65201],[-82.86262,24.65244],[-82.86392,24.65112],[-82.86342,24.64936],[-82.86162,24.64893]]]},"properties":{"cell":"89441434d07ffff","res":9,"coarsened":false,"count":1,"hv":1,"mp":0,"y0":2024,"y1":2024,"sp":[[2,1,1,0,2024,2024]]}},{"type":"Feature","geometry":{"type":"Polygon","coordinates":[[[-82.8819,24.62598],[-82.8806,24.62731],[-82.8811,24.62906],[-82.88289,24.62949],[-82.88419,24.62817],[-82.88369,24.62641],[-82.8819,24.62598]]]},"properties":{"cell":"89441436963ffff","res":9,"coarsened":false,"count":1,"hv":1,"mp":0,"y0":2024,"y1":2024,"sp":[[0,1,1,0,2024,2024]]}},{"type":"Feature","geometry":{"type":"Polygon","coordinates":[[[-82.88649,24.63035],[-82.88519,24.63168],[-82.88569,24.63343],[-82.88748,24.63386],[-82.88878,24.63254],[-82.88828,24.63078],[-82.88649,24.63035]]]},"properties":{"cell":"894415cb693ffff","res":9,"coarsened":false,"count":2,"hv":2,"mp":0,"y0":2024,"y1":2024,"sp":[[6,1,1,0,2024,2024],[178,1,1,0,2024,2024]]}},{"type":"Feature","geometry":{"type":"Polygon","coordinates":[[[-82.95,24.60627],[-82.9487,24.60759],[-82.9492,24.60935],[-82.951,24.60978],[-82.95229,24.60845],[-82.9518,24.6067],[-82.95,24.60627]]]},"properties":{"cell":"894415d9d77ffff","res":9,"coarsened":false,"count":2,"hv":2,"mp":0,"y0":2024,"y1":2024,"sp":[[4,1,1,0,2024,2024],[92,1,1,0,2024,2024]]}},{"type":"Feature","geometry":{"type":"Polygon","coordinates":[[[-82.88152,24.58336],[-82.88022,24.58468],[-82.88072,24.58644],[-82.88252,24.58687],[-82.88381,24.58554],[-82.88332,24.58379],[-82.88152,24.58336]]]},"properties":{"cell":"89441436cabffff","res":9,"coarsened":false,"count":1,"hv":1,"mp":0,"y0":2024,"y1":2024,"sp":[[41,1,1,0,2024,2024]]}},{"type":"Feature","geometry":{"type":"Polygon","coordinates":[[[-82.86392,24.65112],[-82.86262,24.65244],[-82.86312,24.6542],[-82.86491,24.65463],[-82.86621,24.6533],[-82.86571,24.65155],[-82.86392,24.65112]]]},"properties":{"cell":"89441434d33ffff","res":9,"coarsened":false,"count":1,"hv":1,"mp":0,"y0":2024,"y1":2024,"sp":[[2,1,1,0,2024,2024]]}},{"type":"Feature","geometry":{"type":"Polygon","coordinates":[[[-82.85565,24.62787],[-82.85435,24.6292],[-82.85485,24.63095],[-82.85665,24.63138],[-82.85794,24.63006],[-82.85745,24.6283],[-82.85565,24.62787]]]},"properties":{"cell":"89441436b4fffff","res":9,"coarsened":false,"count":1,"hv":1,"mp":0,"y0":2022,"y1":2022,"sp":[[16,1,1,0,2022,2022]]}},{"type":"Feature","geometry":{"type":"Polygon","coordinates":[[[-82.88398,24.65102],[-82.88268,24.65234],[-82.88318,24.6541],[-82.88498,24.65453],[-82.88628,24.6532],[-82.88578,24.65145],[-82.88398,24.65102]]]},"properties":{"cell":"894415cb62fffff","res":9,"coarsened":false,"count":1,"hv":1,"mp":0,"y0":2016,"y1":2016,"sp":[[16,1,1,0,2016,2016]]}},{"type":"Feature","geometry":{"type":"Polygon","coordinates":[[[-81.76271,24.56969],[-81.76142,24.571],[-81.7619,24.57274],[-81.76366,24.57318],[-81.76495,24.57188],[-81.76448,24.57013],[-81.76271,24.56969]]]},"properties":{"cell":"894416b8963ffff","res":9,"coarsened":false,"count":2,"hv":2,"mp":0,"y0":2011,"y1":2016,"sp":[[163,1,1,0,2016,2016],[43,1,1,0,2011,2011]]}},{"type":"Feature","geometry":{"type":"Polygon","coordinates":[[[-81.76435,24.56359],[-81.76306,24.5649],[-81.76353,24.56664],[-81.7653,24.56708],[-81.76659,24.56578],[-81.76611,24.56403],[-81.76435,24.56359]]]},"properties":{"cell":"894416b890bffff","res":9,"coarsened":false,"count":1,"hv":1,"mp":0,"y0":2012,"y1":2012,"sp":[[136,1,1,0,2012,2012]]}},{"type":"Feature","geometry":{"type":"Polygon","coordinates":[[[-82.93402,24.57954],[-82.93272,24.58087],[-82.93322,24.58263],[-82.93502,24.58306],[-82.93632,24.58173],[-82.93582,24.57997],[-82.93402,24.57954]]]},"properties":{"cell":"894415d9cc7ffff","res":9,"coarsened":false,"count":2,"hv":2,"mp":0,"y0":2012,"y1":2012,"sp":[[18,1,1,0,2012,2012],[39,1,1,0,2012,2012]]}},{"type":"Feature","geometry":{"type":"Polygon","coordinates":[[[-81.79081,24.57018],[-81.78952,24.57148],[-81.79,24.57323],[-81.79176,24.57367],[-81.79305,24.57236],[-81.79258,24.57062],[-81.79081,24.57018]]]},"properties":{"cell":"894416a1497ffff","res":9,"coarsened":false,"count":1,"hv":1,"mp":0,"y0":2012,"y1":2012,"sp":[[168,1,1,0,2012,2012]]}},{"type":"Feature","geometry":{"type":"Polygon","coordinates":[[[-81.77717,24.56841],[-81.77588,24.56972],[-81.77635,24.57146],[-81.77812,24.5719],[-81.77941,24.57059],[-81.77893,24.56885],[-81.77717,24.56841]]]},"properties":{"cell":"894416a14dbffff","res":9,"coarsened":false,"count":1,"hv":1,"mp":0,"y0":2012,"y1":2012,"sp":[[184,1,1,0,2012,2012]]}},{"type":"Feature","geometry":{"type":"Polygon","coordinates":[[[-81.77024,24.57319],[-81.76895,24.5745],[-81.76943,24.57625],[-81.77119,24.57668],[-81.77248,24.57538],[-81.77201,24.57363],[-81.77024,24.57319]]]},"properties":{"cell":"894416b892fffff","res":9,"coarsened":false,"count":1,"hv":1,"mp":0,"y0":2012,"y1":2012,"sp":[[183,1,1,0,2012,2012]]}},{"type":"Feature","geometry":{"type":"Polygon","coordinates":[[[-81.7847,24.57191],[-81.78341,24.57322],[-81.78388,24.57496],[-81.78565,24.5754],[-81.78694,24.57409],[-81.78647,24.57235],[-81.7847,24.57191]]]},"properties":{"cell":"894416a148bffff","res":9,"coarsened":false,"count":1,"hv":1,"mp":0,"y0":2012,"y1":2012,"sp":[[168,1,1,0,2012,2012]]}},{"type":"Feature","geometry":{"type":"Polygon","coordinates":[[[-82.85725,24.62171],[-82.85595,24.62304],[-82.85645,24.62479],[-82.85825,24.62522],[-82.85955,24.6239],[-82.85905,24.62214],[-82.85725,24.62171]]]},"properties":{"cell":"89441436b53ffff","res":9,"coarsened":false,"count":1,"hv":1,"mp":0,"y0":2010,"y1":2010,"sp":[[19,1,1,0,2010,2010]]}},{"type":"Feature","geometry":{"type":"Polygon","coordinates":[[[-82.86824,24.60145],[-82.86694,24.60277],[-82.86744,24.60453],[-82.86924,24.60496],[-82.87053,24.60363],[-82.87004,24.60188],[-82.86824,24.60145]]]},"properties":{"cell":"8944143681bffff","res":9,"coarsened":false,"count":3,"hv":3,"mp":0,"y0":null,"y1":null,"sp":[[191,1,1,0,null,null],[177,1,1,0,null,null],[84,1,1,0,null,null]]}},{"type":"Feature","geometry":{"type":"Polygon","coordinates":[[[-82.10369,24.57428],[-82.1024,24.57559],[-82.10288,24.57734],[-82.10466,24.57778],[-82.10595,24.57647],[-82.10547,24.57472],[-82.10369,24.57428]]]},"properties":{"cell":"8944147982bffff","res":9,"coarsened":false,"count":2,"hv":2,"mp":0,"y0":null,"y1":null,"sp":[[6,1,1,0,null,null],[151,1,1,0,null,null]]}},{"type":"Feature","geometry":{"type":"Polygon","coordinates":[[[-82.11678,24.66389],[-82.11549,24.6652],[-82.11597,24.66695],[-82.11774,24.66739],[-82.11904,24.66607],[-82.11855,24.66433],[-82.11678,24.66389]]]},"properties":{"cell":"8944146850fffff","res":9,"coarsened":false,"count":1,"hv":1,"mp":0,"y0":null,"y1":null,"sp":[[192,1,1,0,null,null]]}},{"type":"Feature","geometry":{"type":"Polygon","coordinates":[[[-82.26435,24.66427],[-82.26305,24.66558],[-82.26354,24.66733],[-82.26532,24.66777],[-82.26661,24.66645],[-82.26613,24.6647],[-82.26435,24.66427]]]},"properties":{"cell":"89441460eafffff","res":9,"coarsened":false,"count":1,"hv":1,"mp":0,"y0":null,"y1":null,"sp":[[2,1,1,0,null,null]]}},{"type":"Feature","geometry":{"type":"Polygon","coordinates":[[[-82.75429,24.66567],[-82.75299,24.66699],[-82.75349,24.66875],[-82.75528,24.66918],[-82.75658,24.66786],[-82.75608,24.6661],[-82.75429,24.66567]]]},"properties":{"cell":"89441435a67ffff","res":9,"coarsened":false,"count":1,"hv":1,"mp":0,"y0":null,"y1":null,"sp":[[2,1,1,0,null,null]]}},{"type":"Feature","geometry":{"type":"Polygon","coordinates":[[[-81.93208,24.58081],[-81.93079,24.58212],[-81.93127,24.58387],[-81.93304,24.5843],[-81.93433,24.583],[-81.93385,24.58125],[-81.93208,24.58081]]]},"properties":{"cell":"894416b53a7ffff","res":9,"coarsened":false,"count":2,"hv":2,"mp":0,"y0":null,"y1":null,"sp":[[181,1,1,0,null,null],[0,1,1,0,null,null]]}},{"type":"Feature","geometry":{"type":"Polygon","coordinates":[[[-81.90923,24.58167],[-81.90794,24.58297],[-81.90842,24.58472],[-81.91019,24.58516],[-81.91148,24.58385],[-81.911,24.5821],[-81.90923,24.58167]]]},"properties":{"cell":"894416a2cb3ffff","res":9,"coarsened":false,"count":1,"hv":1,"mp":0,"y0":null,"y1":null,"sp":[[0,1,1,0,null,null]]}},{"type":"Feature","geometry":{"type":"Polygon","coordinates":[[[-81.95188,24.58082],[-81.95059,24.58213],[-81.95107,24.58388],[-81.95284,24.58432],[-81.95413,24.58301],[-81.95365,24.58126],[-81.95188,24.58082]]]},"properties":{"cell":"894416b5ccbffff","res":9,"coarsened":false,"count":1,"hv":1,"mp":0,"y0":null,"y1":null,"sp":[[181,1,1,0,null,null]]}},{"type":"Feature","geometry":{"type":"Polygon","coordinates":[[[-82.04789,24.58173],[-82.04659,24.58304],[-82.04707,24.58478],[-82.04885,24.58522],[-82.05014,24.58391],[-82.04966,24.58216],[-82.04789,24.58173]]]},"properties":{"cell":"894416b6bb3ffff","res":9,"coarsened":false,"count":1,"hv":1,"mp":0,"y0":null,"y1":null,"sp":[[180,1,1,0,null,null]]}},{"type":"Feature","geometry":{"type":"Polygon","coordinates":[[[-81.86967,24.58163],[-81.86838,24.58293],[-81.86885,24.58468],[-81.87062,24.58512],[-81.87191,24.58381],[-81.87143,24.58206],[-81.86967,24.58163]]]},"properties":{"cell":"894416a2337ffff","res":9,"coarsened":false,"count":1,"hv":1,"mp":0,"y0":null,"y1":null,"sp":[[181,1,1,0,null,null]]}},{"type":"Feature","geometry":{"type":"Polygon","coordinates":[[[-81.90617,24.58254],[-81.90488,24.58384],[-81.90536,24.58559],[-81.90713,24.58603],[-81.90842,24.58472],[-81.90794,24.58297],[-81.90617,24.58254]]]},"properties":{"cell":"894416a2cbbffff","res":9,"coarsened":false,"count":1,"hv":1,"mp":0,"y0":null,"y1":null,"sp":[[181,1,1,0,null,null]]}},{"type":"Feature","geometry":{"type":"Polygon","coordinates":[[[-82.26324,24.58244],[-82.26195,24.58375],[-82.26243,24.5855],[-82.26421,24.58594],[-82.2655,24.58462],[-82.26502,24.58288],[-82.26324,24.58244]]]},"properties":{"cell":"894414622abffff","res":9,"coarsened":false,"count":1,"hv":1,"mp":0,"y0":null,"y1":null,"sp":[[193,1,1,0,null,null]]}},{"type":"Feature","geometry":{"type":"Polygon","coordinates":[[[-82.12417,24.58258],[-82.12288,24.58389],[-82.12336,24.58564],[-82.12513,24.58607],[-82.12643,24.58476],[-82.12595,24.58301],[-82.12417,24.58258]]]},"properties":{"cell":"894414799abffff","res":9,"coarsened":false,"count":1,"hv":1,"mp":0,"y0":null,"y1":null,"sp":[[181,1,1,0,null,null]]}},{"type":"Feature","geometry":{"type":"Polygon","coordinates":[[[-82.15037,24.66564],[-82.14907,24.66695],[-82.14956,24.6687],[-82.15133,24.66913],[-82.15263,24.66782],[-82.15215,24.66607],[-82.15037,24.66564]]]},"properties":{"cell":"8944146a8cfffff","res":9,"coarsened":false,"count":1,"hv":1,"mp":0,"y0":null,"y1":null,"sp":[[193,1,1,0,null,null]]}},{"type":"Feature","geometry":{"type":"Polygon","coordinates":[[[-82.60518,24.58068],[-82.60388,24.582],[-82.60437,24.58376],[-82.60616,24.58419],[-82.60746,24.58287],[-82.60696,24.58111],[-82.60518,24.58068]]]},"properties":{"cell":"89441438db3ffff","res":9,"coarsened":false,"count":1,"hv":1,"mp":0,"y0":null,"y1":null,"sp":[[192,1,1,0,null,null]]}},{"type":"Feature","geometry":{"type":"Polygon","coordinates":[[[-82.66882,24.66468],[-82.66752,24.666],[-82.66802,24.66776],[-82.66981,24.66819],[-82.67111,24.66687],[-82.67061,24.66511],[-82.66882,24.66468]]]},"properties":{"cell":"8944142017bffff","res":9,"coarsened":false,"count":1,"hv":1,"mp":0,"y0":null,"y1":null,"sp":[[16,1,1,0,null,null]]}},{"type":"Feature","geometry":{"type":"Polygon","coordinates":[[[-82.19012,24.66563],[-82.18882,24.66694],[-82.18931,24.66869],[-82.19109,24.66913],[-82.19238,24.66781],[-82.1919,24.66606],[-82.19012,24.66563]]]},"properties":{"cell":"89441461e6bffff","res":9,"coarsened":false,"count":1,"hv":1,"mp":0,"y0":null,"y1":null,"sp":[[194,1,1,0,null,null]]}},{"type":"Feature","geometry":{"type":"Polygon","coordinates":[[[-82.86456,24.58257],[-82.86326,24.5839],[-82.86376,24.58565],[-82.86556,24.58608],[-82.86685,24.58476],[-82.86636,24.583],[-82.86456,24.58257]]]},"properties":{"cell":"89441436c4bffff","res":9,"coarsened":false,"count":1,"hv":1,"mp":0,"y0":null,"y1":null,"sp":[[181,1,1,0,null,null]]}}],"park":"dry_tortugas","h3_res":9,"species_index":[{"n":"Pelecanus occidentalis","c":"Brown Pelican","k":"Aves"},{"n":"Larus","c":"Large White-headed Gulls","k":"Aves"},{"n":"Fregata magnificens","c":"Magnificent Frigatebird","k":"Aves"},{"n":"Athene cunicularia","c":"Burrowing Owl","k":"Aves"},{"n":"Arenaria interpres","c":"Ruddy Turnstone","k":"Aves"},{"n":"Falco peregrinus","c":"Peregrine Falcon","k":"Aves"},{"n":"Thalasseus maximus","c":"Royal Tern","k":"Aves"},{"n":"Sterna dougallii","c":"Roseate Tern","k":"Aves"},{"n":"Onychoprion fuscatus","c":"Sooty Tern","k":"Aves"},{"n":"Anous minutus","c":"Black Noddy","k":"Aves"},{"n":"Zenaida asiatica","c":"White-winged Dove","k":"Aves"},{"n":"Vireo griseus","c":"White-eyed Vireo","k":"Aves"},{"n":"Vireo altiloquus","c":"Black-whiskered Vireo","k":"Aves"},{"n":"Dumetella carolinensis","c":"Gray Catbird","k":"Aves"},{"n":"Mniotilta varia","c":"Black-and-white Warbler","k":"Aves"},{"n":"Ardea ibis","c":"Western Cattle-Egret","k":"Aves"},{"n":"Sula leucogaster","c":"Brown Booby","k":"Aves"},{"n":"Sula sula","c":"Red-footed Booby","k":"Aves"},{"n":"Thalasseus sandvicensis","c":"Sandwich Tern","k":"Aves"},{"n":"Sula dactylatra","c":"Masked Booby","k":"Aves"},{"n":"Tringa melanoleuca","c":"Greater Yellowlegs","k":"Aves"},{"n":"Tringa flavipes","c":"Lesser Yellowlegs","k":"Aves"},{"n":"Rynchops niger","c":"Black Skimmer","k":"Aves"},{"n":"Setophaga palmarum","c":"Palm Warbler","k":"Aves"},{"n":"Molothrus bonariensis","c":"Shiny Cowbird","k":"Aves"},{"n":"Setophaga striata","c":"Blackpoll Warbler","k":"Aves"},{"n":"Piranga rubra","c":"Summer Tanager","k":"Aves"},{"n":"Setophaga discolor","c":"Prairie Warbler","k":"Aves"},{"n":"Hirundo rustica","c":"Barn Swallow","k":"Aves"},{"n":"Passerina caerulea","c":"Blue Grosbeak","k":"Aves"},{"n":"Passerina cyanea","c":"Indigo Bunting","k":"Aves"},{"n":"Setophaga caerulescens","c":"Black-throated Blue Warbler","k":"Aves"},{"n":"Setophaga americana","c":"Northern Parula","k":"Aves"},{"n":"Geothlypis trichas","c":"Common Yellowthroat","k":"Aves"},{"n":"Contopus virens","c":"Eastern Wood-Pewee","k":"Aves"},{"n":"Tyrannus tyrannus","c":"Eastern Kingbird","k":"Aves"},{"n":"Nannopterum auritum","c":"Double-crested Cormorant","k":"Aves"},{"n":"Setophaga ruticilla","c":"American Redstart","k":"Aves"},{"n":"Streptopelia decaocto","c":"Eurasian Collared-Dove","k":"Aves"},{"n":"Numenius hudsonicus","c":"Hudsonian Whimbrel","k":"Aves"},{"n":"Actitis macularius","c":"Spotted Sandpiper","k":"Aves"},{"n":"Leucophaeus atricilla","c":"Laughing Gull","k":"Aves"},{"n":"Setophaga tigrina","c":"Cape May Warbler","k":"Aves"},{"n":"Nyctanassa violacea","c":"Yellow-crowned Night Heron","k":"Aves"},{"n":"Onychoprion anaethetus","c":"Bridled Tern","k":"Aves"},{"n":"Pandion haliaetus","c":"Osprey","k":"Aves"},{"n":"Setophaga citrina","c":"Hooded Warbler","k":"Aves"},{"n":"Piranga olivacea","c":"Scarlet Tanager","k":"Aves"},{"n":"Setophaga dominica","c":"Yellow-throated Warbler","k":"Aves"},{"n":"Cathartes aura","c":"Turkey Vulture","k":"Aves"},{"n":"Falco columbarius","c":"Merlin","k":"Aves"},{"n":"Tyrannus dominicensis","c":"Gray Kingbird","k":"Aves"},{"n":"Parkesia noveboracensis","c":"Northern Waterthrush","k":"Aves"},{"n":"Pheucticus ludovicianus","c":"Rose-breasted Grosbeak","k":"Aves"},{"n":"Vireo olivaceus","c":"Red-eyed Vireo","k":"Aves"},{"n":"Setophaga magnolia","c":"Magnolia Warbler","k":"Aves"},{"n":"Setophaga aestiva","c":"Northern Yellow Warbler","k":"Aves"},{"n":"Dolichonyx oryzivorus","c":"Bobolink","k":"Aves"},{"n":"Corthylio calendula","c":"Ruby-crowned Kinglet","k":"Aves"},{"n":"Seiurus aurocapilla","c":"Ovenbird","k":"Aves"},{"n":"Spiza americana","c":"Dickcissel","k":"Aves"},{"n":"Leiothlypis peregrina","c":"Tennessee Warbler","k":"Aves"},{"n":"Tyrannus verticalis","c":"Western Kingbird","k":"Aves"},{"n":"Icterus galbula","c":"Baltimore Oriole","k":"Aves"},{"n":"Falco sparverius","c":"American Kestrel","k":"Aves"},{"n":"Parkesia motacilla","c":"Louisiana Waterthrush","k":"Aves"},{"n":"Tringa semipalmata","c":"Willet","k":"Aves"},{"n":"Catharus ustulatus","c":"Swainson's Thrush","k":"Aves"},{"n":"Hylocichla mustelina","c":"Wood Thrush","k":"Aves"},{"n":"Protonotaria citrea","c":"Prothonotary Warbler","k":"Aves"},{"n":"Helmitheros vermivorum","c":"Worm-eating Warbler","k":"Aves"},{"n":"Morus bassanus","c":"Northern Gannet","k":"Aves"},{"n":"Asio flammeus","c":"Antillean Short-eared Owl","k":"Aves"},{"n":"Buteo platypterus","c":"Broad-winged Hawk","k":"Aves"},{"n":"Plegadis falcinellus","c":"Glossy Ibis","k":"Aves"},{"n":"Calidris pusilla","c":"Semipalmated Sandpiper","k":"Aves"},{"n":"Zenaida macroura","c":"Mourning Dove","k":"Aves"},{"n":"Sterna hirundo","c":"Common Tern","k":"Aves"},{"n":"Antrostomus carolinensis","c":"Chuck-will's-widow","k":"Aves"},{"n":"Coccyzus americanus","c":"Yellow-billed Cuckoo","k":"Aves"},{"n":"Chordeiles minor","c":"Common Nighthawk","k":"Aves"},{"n":"Catharus fuscescens","c":"Veery","k":"Aves"},{"n":"Setophaga virens","c":"Black-throated Green Warbler","k":"Aves"},{"n":"Columba livia","c":"Feral Pigeon","k":"Aves"},{"n":"Accipiter striatus","c":"Sharp-shinned Hawk","k":"Aves"},{"n":"Stercorarius pomarinus","c":"Pomarine Jaeger","k":"Aves"},{"n":"Setophaga pensylvanica","c":"Chestnut-sided Warbler","k":"Aves"},{"n":"Charadrius semipalmatus","c":"Semipalmated Plover","k":"Aves"},{"n":"Calidris alba","c":"Sanderling","k":"Aves"},{"n":"Spatula discors","c":"Blue-winged Teal","k":"Aves"},{"n":"Rattus rattus","c":"Black Rat","k":"Mammalia"},{"n":"Gallinago delicata","c":"Wilson's Snipe","k":"Aves"},{"n":"Ardea alba","c":"Great Egret","k":"Aves"},{"n":"Egretta thula","c":"Snowy Egret","k":"Aves"},{"n":"Circus hudsonius","c":"Northern Harrier","k":"Aves"},{"n":"Ardea herodias","c":"Great Blue Heron","k":"Aves"},{"n":"Pluvialis squatarola","c":"Black-bellied Plover","k":"Aves"},{"n":"Sterna forsteri","c":"Forster's Tern","k":"Aves"},{"n":"Chordeiles gundlachii","c":"Antillean Nighthawk","k":"Aves"},{"n":"Phalaropus tricolor","c":"Wilson's Phalarope","k":"Aves"},{"n":"Catharus minimus","c":"Gray-cheeked Thrush","k":"Aves"},{"n":"Sphyrapicus varius","c":"Yellow-bellied Sapsucker","k":"Aves"},{"n":"Stelgidopteryx serripennis","c":"Northern Rough-winged Swallow","k":"Aves"},{"n":"Icterus spurius","c":"Orchard Oriole","k":"Aves"},{"n":"Setophaga coronata","c":"Yellow-rumped Warbler","k":"Aves"},{"n":"Passerculus sandwichensis","c":"Savannah Sparrow","k":"Aves"},{"n":"Megaceryle alcyon","c":"Belted Kingfisher","k":"Aves"},{"n":"Tachycineta bicolor","c":"Tree Swallow","k":"Aves"},{"n":"Larus delawarensis","c":"Ring-billed Gull","k":"Aves"},{"n":"Anthus rubescens","c":"American Pipit","k":"Aves"},{"n":"Petrochelidon fulva","c":"Cave Swallow","k":"Aves"},{"n":"Fulica americana","c":"North American Coot","k":"Aves"},{"n":"Gavia immer","c":"Common Loon","k":"Aves"},{"n":"Limnothlypis swainsonii","c":"Swainson's Warbler","k":"Aves"},{"n":"Mergus serrator","c":"Red-breasted Merganser","k":"Aves"},{"n":"Phoenicopterus ruber","c":"American Flamingo","k":"Aves"},{"n":"Archilochus colubris","c":"Ruby-throated Hummingbird","k":"Aves"},{"n":"Calidris fuscicollis","c":"White-rumped Sandpiper","k":"Aves"},{"n":"Petrochelidon pyrrhonota","c":"Cliff Swallow","k":"Aves"},{"n":"Astur cooperii","c":"Cooper's Hawk","k":"Aves"},{"n":"Riparia riparia","c":"Bank Swallow","k":"Aves"},{"n":"Larus smithsonianus","c":"American Herring Gull","k":"Aves"},{"n":"Setophaga castanea","c":"Bay-breasted Warbler","k":"Aves"},{"n":"Limnodromus griseus","c":"Short-billed Dowitcher","k":"Aves"},{"n":"Polioptila caerulea","c":"Blue-gray Gnatcatcher","k":"Aves"},{"n":"Egretta rufescens","c":"Reddish Egret","k":"Aves"},{"n":"Himantopus mexicanus","c":"Black-necked Stilt","k":"Aves"},{"n":"Vermivora cyanoptera","c":"Blue-winged Warbler","k":"Aves"},{"n":"Larus fuscus","c":"Lesser Black-backed Gull","k":"Aves"},{"n":"Buteo lineatus","c":"Red-shouldered Hawk","k":"Aves"},{"n":"Geothlypis formosa","c":"Kentucky Warbler","k":"Aves"},{"n":"Progne subis","c":"Purple Martin","k":"Aves"},{"n":"Charadrius vociferus","c":"Killdeer","k":"Aves"},{"n":"Bombycilla cedrorum","c":"Cedar Waxwing","k":"Aves"},{"n":"Empidonax virescens","c":"Acadian Flycatcher","k":"Aves"},{"n":"Tursiops truncatus","c":"Common Bottlenose Dolphin","k":"Mammalia"},{"n":"Butorides virescens","c":"Green Heron","k":"Aves"},{"n":"Lonchura malacca","c":"Tricolored Munia","k":"Aves"},{"n":"Coccyzus erythropthalmus","c":"Black-billed Cuckoo","k":"Aves"},{"n":"Corvus ossifragus","c":"Fish Crow","k":"Aves"},{"n":"Asio otus","c":"Long-eared Owl","k":"Aves"},{"n":"Egretta caerulea","c":"Little Blue Heron","k":"Aves"},{"n":"Phaethon lepturus","c":"White-tailed Tropicbird","k":"Aves"},{"n":"Tyrannus caudifasciatus","c":"Loggerhead Kingbird","k":"Aves"},{"n":"Porzana carolina","c":"Sora","k":"Aves"},{"n":"Egretta tricolor","c":"Tricolored Heron","k":"Aves"},{"n":"Pluvialis dominica","c":"American Golden-Plover","k":"Aves"},{"n":"Patagioenas leucocephala","c":"White-crowned Pigeon","k":"Aves"},{"n":"Chordeiles","c":"Typical Nighthawks","k":"Aves"},{"n":"Myiarchus crinitus","c":"Great Crested Flycatcher","k":"Aves"},{"n":"Crotophaga ani","c":"Smooth-billed Ani","k":"Aves"},{"n":"Nycticorax nycticorax","c":"Black-crowned Night Heron","k":"Aves"},{"n":"Porphyrio martinica","c":"Purple Gallinule","k":"Aves"},{"n":"Vireo solitarius","c":"Blue-headed Vireo","k":"Aves"},{"n":"Tringa solitaria","c":"Solitary Sandpiper","k":"Aves"},{"n":"Leiothlypis ruficapilla","c":"Nashville Warbler","k":"Aves"},{"n":"Calidris minutilla","c":"Least Sandpiper","k":"Aves"},{"n":"Gallus gallus","c":"Domestic Chicken","k":"Aves"},{"n":"Molothrus ater","c":"Brown-headed Cowbird","k":"Aves"},{"n":"Sayornis phoebe","c":"Eastern Phoebe","k":"Aves"},{"n":"Chroicocephalus philadelphia","c":"Bonaparte's Gull","k":"Aves"},{"n":"Hydroprogne caspia","c":"Caspian Tern","k":"Aves"},{"n":"Contopus caribaeus","c":"Cuban Pewee","k":"Aves"},{"n":"Eudocimus albus","c":"White Ibis","k":"Aves"},{"n":"Puffinus lherminieri","c":"Sargasso Shearwater","k":"Aves"},{"n":"Xanthocephalus xanthocephalus","c":"Yellow-headed Blackbird","k":"Aves"},{"n":"Calidris bairdii","c":"Baird's Sandpiper","k":"Aves"},{"n":"Calidris mauri","c":"Western Sandpiper","k":"Aves"},{"n":"Mimus polyglottos","c":"Northern Mockingbird","k":"Aves"},{"n":"Trichechus manatus","c":"Florida manatee","k":"Mammalia"},{"n":"Globicephala macrorhynchus","c":null,"k":"Mammalia"},{"n":"Cetacea","c":null,"k":"Mammalia"},{"n":"Lagenodelphis hosei","c":null,"k":"Mammalia"},{"n":"Kogia breviceps","c":null,"k":"Mammalia"},{"n":"Physeter macrocephalus","c":null,"k":"Mammalia"},{"n":"Pseudorca crassidens","c":null,"k":"Mammalia"},{"n":"Delphinidae","c":"Unidentified Dolphin","k":"Mammalia"},{"n":"Sternula antillarum","c":"Least Tern","k":"Aves"},{"n":"Bubulcus ibis","c":"Western Cattle Egret","k":"Aves"},{"n":"Thalasseus acuflavidus","c":"Cabot's Tern","k":"Aves"},{"n":"Anous stolidus","c":"Brown Noddy","k":"Aves"},{"n":"Phalacrocorax auritus","c":"Double-crested Cormorant","k":"Aves"},{"n":"Columbina passerina","c":"Common Ground Dove","k":"Aves"},{"n":"Melanerpes carolinus","c":"Red-bellied Woodpecker","k":"Aves"},{"n":"Quiscalus quiscula","c":"Common Grackle","k":"Aves"},{"n":"Agelaius phoeniceus","c":"Red-winged Blackbird","k":"Aves"},{"n":"Botaurus Stephens, 1819","c":"Least Bittern","k":"Aves"},{"n":"Numenius phaeopus","c":null,"k":"Aves"},{"n":"Leiothlypis celata","c":null,"k":"Aves"},{"n":"Sturnus vulgaris","c":null,"k":"Aves"},{"n":"Stercorarius parasiticus","c":null,"k":"Aves"},{"n":"Vireo flavifrons","c":"Yellow-throated Vireo","k":"Aves"},{"n":"Sterna Linnaeus, 1758","c":"Unidentified small Tern","k":"Aves"},{"n":"Aves","c":"Unidentified Bird","k":"Aves"},{"n":"Phalacrocorax Brisson, 1760","c":"Unidentified Cormorant","k":"Aves"}],"entry":["species_index","count","human_verified","model_predicted","first_year","last_year"],"suppressed":{"excluded":{},"coarsened":{}},"merged_names":{"Pelecanus occidentalis carolinensis":"Pelecanus occidentalis","Thalasseus sandvicensis acuflavidus":"Thalasseus sandvicensis","Hirundo rustica erythrogaster":"Hirundo rustica","Asio flammeus domingensis":"Asio flammeus","Columba livia domestica":"Columba livia","Sula leucogaster leucogaster":"Sula leucogaster","Setophaga palmarum palmarum":"Setophaga palmarum","Setophaga palmarum hypochrysea":"Setophaga palmarum","Athene cunicularia floridana":"Athene cunicularia","Ardea herodias occidentalis":"Ardea herodias","Leucophaeus atricilla megalopterus":"Leucophaeus atricilla","Sula dactylatra dactylatra":"Sula dactylatra","Tringa semipalmata inornata":"Tringa semipalmata","Fregata magnificens rothschildi":"Fregata magnificens","Onychoprion fuscatus fuscatus":"Onychoprion fuscatus","Setophaga dominica albilora":"Setophaga dominica","Falco columbarius columbarius":"Falco columbarius","Setophaga coronata coronata":"Setophaga coronata","Falco sparverius sparverius":"Falco sparverius","Setophaga dominica dominica":"Setophaga dominica","Fulica americana americana":"Fulica americana","Gallus gallus domesticus":"Gallus gallus","Pandion haliaetus ridgwayi":"Pandion haliaetus"}}