{"type":"Feature","geometry":{"type":"MultiPolygon","coordinates":[[[[-170.6671,-14.2428],[-170.669,-14.2464],[-170.6729,-14.2439],[-170.6773,-14.2449],[-170.677,-14.248],[-170.6802,-14.2517],[-170.6784,-14.252],[-170.6784,-14.2552],[-170.6757,-14.253],[-170.675,-14.2558],[-170.6737,-14.2539],[-170.6723,-14.2566],[-170.6692,-14.2566],[-170.6681,-14.2552],[-170.6693,-14.2506],[-170.663,-14.2427],[-170.6597,-14.2418],[-170.6575,-14.2478],[-170.6553,-14.2468],[-170.6554,-14.2616],[-170.6515,-14.2643],[-170.651,-14.267],[-170.6528,-14.2663],[-170.6515,-14.2687],[-170.6603,-14.2623],[-170.6634,-14.2617],[-170.6709,-14.2645],[-170.6769,-14.2627],[-170.6839,-14.2631],[-170.6881,-14.2655],[-170.7026,-14.2653],[-170.7091,-14.2684],[-170.7117,-14.2751],[-170.715,-14.2779],[-170.712,-14.2791],[-170.7133,-14.2806],[-170.7126,-14.2835],[-170.715,-14.2827],[-170.7151,-14.2809],[-170.7172,-14.2827],[-170.7208,-14.2803],[-170.7278,-14.2822],[-170.7259,-14.2709],[-170.7151,-14.2591],[-170.7127,-14.2573],[-170.7072,-14.2569],[-170.7042,-14.2508],[-170.6936,-14.2473],[-170.6754,-14.2348],[-170.6744,-14.2332],[-170.6763,-14.2266],[-170.6754,-14.2237],[-170.6717,-14.2241],[-170.6664,-14.2291],[-170.6656,-14.2378],[-170.6671,-14.2428]]],[[[-169.4324,-14.222],[-169.4296,-14.2277],[-169.4218,-14.2312],[-169.422,-14.2362],[-169.4176,-14.2363],[-169.419,-14.2561],[-169.4221,-14.2613],[-169.4266,-14.2615],[-169.4411,-14.2579],[-169.4507,-14.2516],[-169.4565,-14.252],[-169.4675,-14.2572],[-169.4802,-14.2727],[-169.4828,-14.2748],[-169.4877,-14.2754],[-169.4877,-14.2717],[-169.4856,-14.2704],[-169.4798,-14.2588],[-169.4783,-14.2516],[-169.4816,-14.2466],[-169.484,-14.2462],[-169.4859,-14.2438],[-169.4871,-14.2384],[-169.4802,-14.227],[-169.4763,-14.2251],[-169.4738,-14.2266],[-169.4717,-14.2244],[-169.4637,-14.2251],[-169.4324,-14.222]]],[[[-169.6349,-14.1684],[-169.6338,-14.1733],[-169.6447,-14.1744],[-169.652,-14.1821],[-169.6638,-14.1875],[-169.6639,-14.1838],[-169.6569,-14.1799],[-169.649,-14.1728],[-169.6391,-14.1701],[-169.6415,-14.1683],[-169.6349,-14.1684]]]]},"properties":{"park":"american_samoa","name":"National Park of American Samoa","source":"iNaturalist place","place_id":73645,"source_url":"https://www.inaturalist.org/places/73645"}}