{"type":"FeatureCollection","features":[{"type":"Feature","geometry":{"type":"Polygon","coordinates":[[[-170.65441,-14.25612],[-170.65357,-14.25444],[-170.65463,-14.25298],[-170.65653,-14.2532],[-170.65737,-14.25488],[-170.65631,-14.25633],[-170.65441,-14.25612]]]},"properties":{"cell":"899a140abb7ffff","res":9,"coarsened":false,"count":1,"hv":1,"mp":0,"y0":2016,"y1":2016,"sp":[[0,1,1,0,2016,2016]]}},{"type":"Feature","geometry":{"type":"Polygon","coordinates":[[[-170.67694,-14.26188],[-170.6761,-14.2602],[-170.67716,-14.25874],[-170.67905,-14.25896],[-170.67989,-14.26064],[-170.67883,-14.2621],[-170.67694,-14.26188]]]},"properties":{"cell":"899a140f4c3ffff","res":9,"coarsened":false,"count":1,"hv":1,"mp":0,"y0":2016,"y1":2016,"sp":[[1,1,1,0,2016,2016]]}},{"type":"Feature","geometry":{"type":"Polygon","coordinates":[[[-170.67147,-14.25809],[-170.67063,-14.25641],[-170.67169,-14.25495],[-170.67358,-14.25517],[-170.67442,-14.25685],[-170.67337,-14.25831],[-170.67147,-14.25809]]]},"properties":{"cell":"899a140a927ffff","res":9,"coarsened":false,"count":1,"hv":1,"mp":0,"y0":2016,"y1":2016,"sp":[[2,1,1,0,2016,2016]]}},{"type":"Feature","geometry":{"type":"Polygon","coordinates":[[[-170.67989,-14.26064],[-170.67905,-14.25896],[-170.68011,-14.2575],[-170.682,-14.25772],[-170.68284,-14.2594],[-170.68179,-14.26086],[-170.67989,-14.26064]]]},"properties":{"cell":"899a140f4c7ffff","res":9,"coarsened":false,"count":1,"hv":1,"mp":0,"y0":2016,"y1":2016,"sp":[[3,1,1,0,2016,2016]]}},{"type":"Feature","geometry":{"type":"Polygon","coordinates":[[[-170.69378,-14.26699],[-170.69294,-14.26531],[-170.694,-14.26385],[-170.69589,-14.26407],[-170.69673,-14.26575],[-170.69567,-14.2672],[-170.69378,-14.26699]]]},"properties":{"cell":"899a1401b43ffff","res":9,"coarsened":false,"count":1,"hv":1,"mp":0,"y0":2016,"y1":2016,"sp":[[4,1,1,0,2016,2016]]}},{"type":"Feature","geometry":{"type":"Polygon","coordinates":[[[-170.67529,-14.2443],[-170.67445,-14.24262],[-170.67551,-14.24117],[-170.6774,-14.24138],[-170.67824,-14.24306],[-170.67718,-14.24452],[-170.67529,-14.2443]]]},"properties":{"cell":"899a140f6a7ffff","res":9,"coarsened":false,"count":1,"hv":1,"mp":0,"y0":2016,"y1":2016,"sp":[[5,1,1,0,2016,2016]]}},{"type":"Feature","geometry":{"type":"Polygon","coordinates":[[[-170.65967,-14.26305],[-170.65883,-14.26137],[-170.65988,-14.25991],[-170.66178,-14.26013],[-170.66262,-14.26181],[-170.66156,-14.26327],[-170.65967,-14.26305]]]},"properties":{"cell":"899a140a90bffff","res":9,"coarsened":false,"count":1,"hv":1,"mp":0,"y0":2016,"y1":2016,"sp":[[6,1,1,0,2016,2016]]}},{"type":"Feature","geometry":{"type":"Polygon","coordinates":[[[-170.66579,-14.25743],[-170.66495,-14.25575],[-170.666,-14.25429],[-170.6679,-14.25451],[-170.66874,-14.25619],[-170.66768,-14.25765],[-170.66579,-14.25743]]]},"properties":{"cell":"899a140a92bffff","res":9,"coarsened":false,"count":1,"hv":1,"mp":0,"y0":2016,"y1":2016,"sp":[[7,1,1,0,2016,2016]]}},{"type":"Feature","geometry":{"type":"Polygon","coordinates":[[[-170.66348,-14.24926],[-170.66265,-14.24758],[-170.6637,-14.24612],[-170.6656,-14.24634],[-170.66644,-14.24802],[-170.66538,-14.24948],[-170.66348,-14.24926]]]},"properties":{"cell":"899a140f68bffff","res":9,"coarsened":false,"count":2,"hv":2,"mp":0,"y0":2016,"y1":2016,"sp":[[8,1,1,0,2016,2016],[6,1,1,0,2016,2016]]}},{"type":"Feature","geometry":{"type":"Polygon","coordinates":[[[-170.71292,-14.28026],[-170.71208,-14.27858],[-170.71314,-14.27712],[-170.71503,-14.27734],[-170.71587,-14.27902],[-170.71482,-14.28048],[-170.71292,-14.28026]]]},"properties":{"cell":"899a1401943ffff","res":9,"coarsened":false,"count":1,"hv":1,"mp":0,"y0":2016,"y1":2016,"sp":[[9,1,1,0,2016,2016]]}},{"type":"Feature","geometry":{"type":"Polygon","coordinates":[[[-170.71062,-14.27209],[-170.70978,-14.27041],[-170.71083,-14.26895],[-170.71273,-14.26917],[-170.71357,-14.27085],[-170.71251,-14.27231],[-170.71062,-14.27209]]]},"properties":{"cell":"899a1401ba3ffff","res":9,"coarsened":false,"count":1,"hv":1,"mp":0,"y0":2016,"y1":2016,"sp":[[10,1,1,0,2016,2016]]}},{"type":"Feature","geometry":{"type":"Polygon","coordinates":[[[-170.71904,-14.27464],[-170.7182,-14.27296],[-170.71925,-14.27151],[-170.72115,-14.27172],[-170.72199,-14.2734],[-170.72093,-14.27486],[-170.71904,-14.27464]]]},"properties":{"cell":"899a1401963ffff","res":9,"coarsened":false,"count":1,"hv":1,"mp":0,"y0":2016,"y1":2016,"sp":[[11,1,1,0,2016,2016]]}},{"type":"Feature","geometry":{"type":"Polygon","coordinates":[[[-170.65715,-14.25801],[-170.65631,-14.25633],[-170.65737,-14.25488],[-170.65926,-14.25509],[-170.6601,-14.25677],[-170.65904,-14.25823],[-170.65715,-14.25801]]]},"properties":{"cell":"899a140a97bffff","res":9,"coarsened":false,"count":1,"hv":1,"mp":0,"y0":2016,"y1":2016,"sp":[[12,1,1,0,2016,2016]]}},{"type":"Feature","geometry":{"type":"Polygon","coordinates":[[[-170.65376,-14.26553],[-170.65292,-14.26385],[-170.65398,-14.26239],[-170.65587,-14.26261],[-170.65671,-14.26429],[-170.65566,-14.26575],[-170.65376,-14.26553]]]},"properties":{"cell":"899a140a953ffff","res":9,"coarsened":false,"count":1,"hv":1,"mp":0,"y0":2016,"y1":2016,"sp":[[13,1,1,0,2016,2016]]}},{"type":"Feature","geometry":{"type":"Polygon","coordinates":[[[-170.66982,-14.24051],[-170.66898,-14.23883],[-170.67004,-14.23737],[-170.67193,-14.23759],[-170.67277,-14.23927],[-170.67172,-14.24073],[-170.66982,-14.24051]]]},"properties":{"cell":"899a140f633ffff","res":9,"coarsened":false,"count":4,"hv":4,"mp":0,"y0":2017,"y1":2018,"sp":[[18,2,2,0,2018,2018],[14,1,1,0,2017,2017],[15,1,1,0,2018,2018]]}},{"type":"Feature","geometry":{"type":"Polygon","coordinates":[[[-170.67255,-14.2424],[-170.67172,-14.24073],[-170.67277,-14.23927],[-170.67467,-14.23949],[-170.67551,-14.24117],[-170.67445,-14.24262],[-170.67255,-14.2424]]]},"properties":{"cell":"899a140f6afffff","res":9,"coarsened":false,"count":1,"hv":1,"mp":0,"y0":2017,"y1":2017,"sp":[[15,1,1,0,2017,2017]]}},{"type":"Feature","geometry":{"type":"Polygon","coordinates":[[[-170.67104,-14.26436],[-170.6702,-14.26268],[-170.67125,-14.26122],[-170.67315,-14.26144],[-170.67399,-14.26312],[-170.67293,-14.26458],[-170.67104,-14.26436]]]},"properties":{"cell":"899a140a9afffff","res":9,"coarsened":false,"count":1,"hv":1,"mp":0,"y0":2017,"y1":2017,"sp":[[16,1,1,0,2017,2017]]}},{"type":"Feature","geometry":{"type":"Polygon","coordinates":[[[-170.66327,-14.2524],[-170.66243,-14.25072],[-170.66348,-14.24926],[-170.66538,-14.24948],[-170.66622,-14.25116],[-170.66516,-14.25262],[-170.66327,-14.2524]]]},"properties":{"cell":"899a140f69bffff","res":9,"coarsened":false,"count":3,"hv":3,"mp":0,"y0":2010,"y1":2019,"sp":[[12,1,1,0,2017,2017],[18,1,1,0,2019,2019],[2,1,1,0,2010,2010]]}},{"type":"Feature","geometry":{"type":"Polygon","coordinates":[[[-170.71314,-14.27712],[-170.7123,-14.27545],[-170.71335,-14.27399],[-170.71525,-14.2742],[-170.71609,-14.27588],[-170.71503,-14.27734],[-170.71314,-14.27712]]]},"properties":{"cell":"899a140194fffff","res":9,"coarsened":false,"count":1,"hv":1,"mp":0,"y0":2017,"y1":2017,"sp":[[3,1,1,0,2017,2017]]}},{"type":"Feature","geometry":{"type":"Polygon","coordinates":[[[-170.71271,-14.2834],[-170.71187,-14.28172],[-170.71292,-14.28026],[-170.71482,-14.28048],[-170.71566,-14.28216],[-170.7146,-14.28362],[-170.71271,-14.2834]]]},"properties":{"cell":"899a1401953ffff","res":9,"coarsened":false,"count":10,"hv":10,"mp":0,"y0":2006,"y1":2023,"sp":[[1,6,6,0,2006,2006],[6,1,1,0,2017,2017],[23,1,1,0,2023,2023],[22,1,1,0,2006,2006],[8,1,1,0,2006,2006]]}},{"type":"Feature","geometry":{"type":"Polygon","coordinates":[[[-170.66032,-14.25364],[-170.65948,-14.25196],[-170.66053,-14.2505],[-170.66243,-14.25072],[-170.66327,-14.2524],[-170.66221,-14.25386],[-170.66032,-14.25364]]]},"properties":{"cell":"899a140a96fffff","res":9,"coarsened":false,"count":2,"hv":2,"mp":0,"y0":2018,"y1":2018,"sp":[[17,2,2,0,2018,2018]]}},{"type":"Feature","geometry":{"type":"Polygon","coordinates":[[[-170.65463,-14.25298],[-170.65379,-14.2513],[-170.65485,-14.24984],[-170.65674,-14.25006],[-170.65758,-14.25174],[-170.65653,-14.2532],[-170.65463,-14.25298]]]},"properties":{"cell":"899a140aba7ffff","res":9,"coarsened":false,"count":1,"hv":1,"mp":0,"y0":2018,"y1":2018,"sp":[[10,1,1,0,2018,2018]]}},{"type":"Feature","geometry":{"type":"Polygon","coordinates":[[[-170.65737,-14.25488],[-170.65653,-14.2532],[-170.65758,-14.25174],[-170.65948,-14.25196],[-170.66032,-14.25364],[-170.65926,-14.25509],[-170.65737,-14.25488]]]},"properties":{"cell":"899a140a96bffff","res":9,"coarsened":false,"count":2,"hv":2,"mp":0,"y0":2018,"y1":2019,"sp":[[19,1,1,0,2018,2018],[3,1,1,0,2019,2019]]}},{"type":"Feature","geometry":{"type":"Polygon","coordinates":[[[-169.44006,-14.24922],[-169.43923,-14.24753],[-169.44032,-14.24607],[-169.44223,-14.2463],[-169.44305,-14.24799],[-169.44197,-14.24945],[-169.44006,-14.24922]]]},"properties":{"cell":"899b8969c87ffff","res":9,"coarsened":false,"count":1,"hv":1,"mp":0,"y0":2017,"y1":2017,"sp":[[6,1,1,0,2017,2017]]}},{"type":"Feature","geometry":{"type":"Polygon","coordinates":[[[-169.44979,-14.23608],[-169.44897,-14.2344],[-169.45005,-14.23294],[-169.45196,-14.23317],[-169.45278,-14.23485],[-169.4517,-14.23631],[-169.44979,-14.23608]]]},"properties":{"cell":"899b8969dcfffff","res":9,"coarsened":false,"count":1,"hv":1,"mp":0,"y0":2017,"y1":2017,"sp":[[20,1,1,0,2017,2017]]}},{"type":"Feature","geometry":{"type":"Polygon","coordinates":[[[-169.42014,-14.24523],[-169.41931,-14.24354],[-169.4204,-14.24208],[-169.42231,-14.24231],[-169.42313,-14.244],[-169.42205,-14.24546],[-169.42014,-14.24523]]]},"properties":{"cell":"899b8969123ffff","res":9,"coarsened":false,"count":3,"hv":3,"mp":0,"y0":2016,"y1":2016,"sp":[[11,3,3,0,2016,2016]]}},{"type":"Feature","geometry":{"type":"Polygon","coordinates":[[[-170.66622,-14.25116],[-170.66538,-14.24948],[-170.66644,-14.24802],[-170.66833,-14.24824],[-170.66917,-14.24992],[-170.66811,-14.25138],[-170.66622,-14.25116]]]},"properties":{"cell":"899a140f683ffff","res":9,"coarsened":false,"count":3,"hv":3,"mp":0,"y0":2019,"y1":2026,"sp":[[5,1,1,0,2019,2019],[21,1,1,0,2019,2019],[8,1,1,0,2026,2026]]}},{"type":"Feature","geometry":{"type":"Polygon","coordinates":[[[-170.66053,-14.2505],[-170.65969,-14.24882],[-170.66075,-14.24736],[-170.66265,-14.24758],[-170.66348,-14.24926],[-170.66243,-14.25072],[-170.66053,-14.2505]]]},"properties":{"cell":"899a140f6d7ffff","res":9,"coarsened":false,"count":7,"hv":7,"mp":0,"y0":2014,"y1":2025,"sp":[[10,3,3,0,2014,2025],[8,2,2,0,2017,2025],[1,1,1,0,2014,2014],[21,1,1,0,2025,2025]]}},{"type":"Feature","geometry":{"type":"Polygon","coordinates":[[[-169.65358,-14.17954],[-169.65275,-14.17785],[-169.65382,-14.17639],[-169.65573,-14.17662],[-169.65656,-14.17831],[-169.65548,-14.17977],[-169.65358,-14.17954]]]},"properties":{"cell":"899b896c8a7ffff","res":9,"coarsened":false,"count":2,"hv":2,"mp":0,"y0":2019,"y1":2023,"sp":[[8,1,1,0,2019,2019],[24,1,1,0,2023,2023]]}},{"type":"Feature","geometry":{"type":"Polygon","coordinates":[[[-169.65905,-14.18337],[-169.65822,-14.18168],[-169.65929,-14.18022],[-169.6612,-14.18045],[-169.66203,-14.18214],[-169.66095,-14.1836],[-169.65905,-14.18337]]]},"properties":{"cell":"899b896cd63ffff","res":9,"coarsened":false,"count":1,"hv":1,"mp":0,"y0":2019,"y1":2019,"sp":[[10,1,1,0,2019,2019]]}},{"type":"Feature","geometry":{"type":"Polygon","coordinates":[[[-170.66075,-14.24736],[-170.65991,-14.24569],[-170.66097,-14.24423],[-170.66286,-14.24445],[-170.6637,-14.24612],[-170.66265,-14.24758],[-170.66075,-14.24736]]]},"properties":{"cell":"899a140f6c7ffff","res":9,"coarsened":false,"count":19,"hv":19,"mp":0,"y0":2023,"y1":2026,"sp":[[19,6,6,0,2023,2026],[26,3,3,0,2025,2026],[14,2,2,0,2023,2026],[15,2,2,0,2025,2026],[5,1,1,0,2023,2023],[18,1,1,0,2023,2023],[11,1,1,0,2023,2023],[8,1,1,0,2023,2023],[1,1,1,0,2023,2023],[25,1,1,0,2023,2023]]}},{"type":"Feature","geometry":{"type":"Polygon","coordinates":[[[-170.68809,-14.26633],[-170.68725,-14.26465],[-170.68831,-14.26319],[-170.69021,-14.26341],[-170.69105,-14.26509],[-170.68999,-14.26655],[-170.68809,-14.26633]]]},"properties":{"cell":"899a140f497ffff","res":9,"coarsened":false,"count":1,"hv":1,"mp":0,"y0":2023,"y1":2023,"sp":[[22,1,1,0,2023,2023]]}},{"type":"Feature","geometry":{"type":"Polygon","coordinates":[[[-170.70242,-14.2664],[-170.70158,-14.26472],[-170.70263,-14.26327],[-170.70453,-14.26348],[-170.70537,-14.26516],[-170.70431,-14.26662],[-170.70242,-14.2664]]]},"properties":{"cell":"899a1401b0fffff","res":9,"coarsened":false,"count":1,"hv":1,"mp":0,"y0":2023,"y1":2023,"sp":[[18,1,1,0,2023,2023]]}},{"type":"Feature","geometry":{"type":"Polygon","coordinates":[[[-170.68579,-14.25816],[-170.68495,-14.25648],[-170.68601,-14.25502],[-170.6879,-14.25524],[-170.68874,-14.25692],[-170.68769,-14.25838],[-170.68579,-14.25816]]]},"properties":{"cell":"899a140f417ffff","res":9,"coarsened":false,"count":1,"hv":1,"mp":0,"y0":2013,"y1":2013,"sp":[[3,1,1,0,2013,2013]]}},{"type":"Feature","geometry":{"type":"Polygon","coordinates":[[[-170.65988,-14.25991],[-170.65904,-14.25823],[-170.6601,-14.25677],[-170.66199,-14.25699],[-170.66283,-14.25867],[-170.66178,-14.26013],[-170.65988,-14.25991]]]},"properties":{"cell":"899a140a973ffff","res":9,"coarsened":false,"count":1,"hv":1,"mp":0,"y0":2025,"y1":2025,"sp":[[1,1,1,0,2025,2025]]}},{"type":"Feature","geometry":{"type":"Polygon","coordinates":[[[-169.64264,-14.17188],[-169.64181,-14.17019],[-169.64288,-14.16874],[-169.64479,-14.16896],[-169.64562,-14.17065],[-169.64454,-14.17211],[-169.64264,-14.17188]]]},"properties":{"cell":"899b896c877ffff","res":9,"coarsened":false,"count":1,"hv":1,"mp":0,"y0":2025,"y1":2025,"sp":[[21,1,1,0,2025,2025]]}},{"type":"Feature","geometry":{"type":"Polygon","coordinates":[[[-170.66097,-14.24423],[-170.66013,-14.24255],[-170.66118,-14.24109],[-170.66308,-14.24131],[-170.66392,-14.24299],[-170.66286,-14.24445],[-170.66097,-14.24423]]]},"properties":{"cell":"899a140f61bffff","res":9,"coarsened":false,"count":1,"hv":1,"mp":0,"y0":2023,"y1":2023,"sp":[[5,1,1,0,2023,2023]]}},{"type":"Feature","geometry":{"type":"Polygon","coordinates":[[[-170.65802,-14.24547],[-170.65718,-14.24379],[-170.65823,-14.24233],[-170.66013,-14.24255],[-170.66097,-14.24423],[-170.65991,-14.24569],[-170.65802,-14.24547]]]},"properties":{"cell":"899a140f6cfffff","res":9,"coarsened":false,"count":1,"hv":1,"mp":0,"y0":2023,"y1":2023,"sp":[[19,1,1,0,2023,2023]]}},{"type":"Feature","geometry":{"type":"Polygon","coordinates":[[[-170.62105,-14.20009],[-170.62021,-14.19841],[-170.62127,-14.19696],[-170.62316,-14.19718],[-170.624,-14.19885],[-170.62295,-14.20031],[-170.62105,-14.20009]]]},"properties":{"cell":"899a1408bc3ffff","res":9,"coarsened":false,"count":1,"hv":1,"mp":0,"y0":2006,"y1":2006,"sp":[[27,1,1,0,2006,2006]]}},{"type":"Feature","geometry":{"type":"Polygon","coordinates":[[[-170.5564,-14.26375],[-170.55557,-14.26207],[-170.55662,-14.26061],[-170.55852,-14.26083],[-170.55936,-14.26251],[-170.5583,-14.26397],[-170.5564,-14.26375]]]},"properties":{"cell":"899a1408657ffff","res":9,"coarsened":false,"count":1,"hv":1,"mp":0,"y0":2006,"y1":2006,"sp":[[28,1,1,0,2006,2006]]}},{"type":"Feature","geometry":{"type":"Polygon","coordinates":[[[-170.5298,-14.2749],[-170.52897,-14.27322],[-170.53002,-14.27176],[-170.53192,-14.27198],[-170.53276,-14.27366],[-170.5317,-14.27512],[-170.5298,-14.2749]]]},"properties":{"cell":"899a140b227ffff","res":9,"coarsened":false,"count":1,"hv":1,"mp":0,"y0":2006,"y1":2006,"sp":[[28,1,1,0,2006,2006]]}},{"type":"Feature","geometry":{"type":"Polygon","coordinates":[[[-170.44625,-14.27944],[-170.44542,-14.27775],[-170.44648,-14.2763],[-170.44837,-14.27652],[-170.44921,-14.2782],[-170.44815,-14.27966],[-170.44625,-14.27944]]]},"properties":{"cell":"899a1455d87ffff","res":9,"coarsened":false,"count":1,"hv":1,"mp":0,"y0":2006,"y1":2006,"sp":[[29,1,1,0,2006,2006]]}},{"type":"Feature","geometry":{"type":"Polygon","coordinates":[[[-170.54141,-14.27308],[-170.54057,-14.2714],[-170.54163,-14.26994],[-170.54352,-14.27016],[-170.54436,-14.27184],[-170.5433,-14.2733],[-170.54141,-14.27308]]]},"properties":{"cell":"899a140b303ffff","res":9,"coarsened":false,"count":1,"hv":1,"mp":0,"y0":2006,"y1":2006,"sp":[[28,1,1,0,2006,2006]]}},{"type":"Feature","geometry":{"type":"Polygon","coordinates":[[[-170.56143,-14.27382],[-170.5606,-14.27214],[-170.56165,-14.27068],[-170.56355,-14.2709],[-170.56439,-14.27258],[-170.56333,-14.27404],[-170.56143,-14.27382]]]},"properties":{"cell":"899a140869bffff","res":9,"coarsened":false,"count":1,"hv":1,"mp":0,"y0":2006,"y1":2006,"sp":[[28,1,1,0,2006,2006]]}},{"type":"Feature","geometry":{"type":"Polygon","coordinates":[[[-170.5587,-14.27192],[-170.55786,-14.27024],[-170.55892,-14.26878],[-170.56082,-14.269],[-170.56165,-14.27068],[-170.5606,-14.27214],[-170.5587,-14.27192]]]},"properties":{"cell":"899a14086d7ffff","res":9,"coarsened":false,"count":1,"hv":1,"mp":0,"y0":2006,"y1":2006,"sp":[[28,1,1,0,2006,2006]]}},{"type":"Feature","geometry":{"type":"Polygon","coordinates":[[[-170.64105,-14.20083],[-170.64022,-14.19915],[-170.64127,-14.19769],[-170.64317,-14.19791],[-170.64401,-14.19959],[-170.64295,-14.20105],[-170.64105,-14.20083]]]},"properties":{"cell":"899a140897bffff","res":9,"coarsened":false,"count":1,"hv":1,"mp":0,"y0":2006,"y1":2006,"sp":[[27,1,1,0,2006,2006]]}},{"type":"Feature","geometry":{"type":"Polygon","coordinates":[[[-170.58321,-14.24946],[-170.58238,-14.24778],[-170.58343,-14.24632],[-170.58533,-14.24654],[-170.58617,-14.24822],[-170.58511,-14.24968],[-170.58321,-14.24946]]]},"properties":{"cell":"899a1408077ffff","res":9,"coarsened":false,"count":1,"hv":1,"mp":0,"y0":2006,"y1":2006,"sp":[[28,1,1,0,2006,2006]]}},{"type":"Feature","geometry":{"type":"Polygon","coordinates":[[[-170.56363,-14.24244],[-170.5628,-14.24076],[-170.56385,-14.2393],[-170.56575,-14.23952],[-170.56659,-14.2412],[-170.56553,-14.24266],[-170.56363,-14.24244]]]},"properties":{"cell":"899a1408203ffff","res":9,"coarsened":false,"count":1,"hv":1,"mp":0,"y0":2006,"y1":2006,"sp":[[28,1,1,0,2006,2006]]}},{"type":"Feature","geometry":{"type":"Polygon","coordinates":[[[-170.50267,-14.25276],[-170.50184,-14.25108],[-170.5029,-14.24962],[-170.50479,-14.24985],[-170.50563,-14.25152],[-170.50457,-14.25298],[-170.50267,-14.25276]]]},"properties":{"cell":"899a140968bffff","res":9,"coarsened":false,"count":1,"hv":1,"mp":0,"y0":2006,"y1":2006,"sp":[[30,1,1,0,2006,2006]]}},{"type":"Feature","geometry":{"type":"Polygon","coordinates":[[[-170.55763,-14.20538],[-170.55679,-14.2037],[-170.55785,-14.20224],[-170.55975,-14.20246],[-170.56059,-14.20414],[-170.55953,-14.2056],[-170.55763,-14.20538]]]},"properties":{"cell":"899a14098dbffff","res":9,"coarsened":false,"count":1,"hv":1,"mp":0,"y0":2006,"y1":2006,"sp":[[30,1,1,0,2006,2006]]}},{"type":"Feature","geometry":{"type":"Polygon","coordinates":[[[-170.54185,-14.2668],[-170.54101,-14.26512],[-170.54207,-14.26366],[-170.54397,-14.26388],[-170.5448,-14.26556],[-170.54375,-14.26702],[-170.54185,-14.2668]]]},"properties":{"cell":"899a140b377ffff","res":9,"coarsened":false,"count":1,"hv":1,"mp":0,"y0":2006,"y1":2006,"sp":[[28,1,1,0,2006,2006]]}},{"type":"Feature","geometry":{"type":"Polygon","coordinates":[[[-170.65724,-14.21535],[-170.6564,-14.21367],[-170.65745,-14.21221],[-170.65935,-14.21243],[-170.66019,-14.21411],[-170.65913,-14.21556],[-170.65724,-14.21535]]]},"properties":{"cell":"899a140f24fffff","res":9,"coarsened":false,"count":1,"hv":1,"mp":0,"y0":2006,"y1":2006,"sp":[[31,1,1,0,2006,2006]]}},{"type":"Feature","geometry":{"type":"Polygon","coordinates":[[[-170.50814,-14.25656],[-170.50731,-14.25488],[-170.50837,-14.25342],[-170.51026,-14.25364],[-170.5111,-14.25532],[-170.51004,-14.25678],[-170.50814,-14.25656]]]},"properties":{"cell":"899a1409697ffff","res":9,"coarsened":false,"count":1,"hv":1,"mp":0,"y0":2006,"y1":2006,"sp":[[28,1,1,0,2006,2006]]}},{"type":"Feature","geometry":{"type":"Polygon","coordinates":[[[-170.61996,-14.21577],[-170.61912,-14.21409],[-170.62018,-14.21263],[-170.62207,-14.21285],[-170.62291,-14.21453],[-170.62186,-14.21599],[-170.61996,-14.21577]]]},"properties":{"cell":"899a1408857ffff","res":9,"coarsened":false,"count":1,"hv":1,"mp":0,"y0":2006,"y1":2006,"sp":[[32,1,1,0,2006,2006]]}},{"type":"Feature","geometry":{"type":"Polygon","coordinates":[[[-170.62882,-14.21205],[-170.62798,-14.21038],[-170.62903,-14.20892],[-170.63093,-14.20914],[-170.63177,-14.21082],[-170.63071,-14.21227],[-170.62882,-14.21205]]]},"properties":{"cell":"899a140883bffff","res":9,"coarsened":false,"count":1,"hv":1,"mp":0,"y0":2006,"y1":2006,"sp":[[32,1,1,0,2006,2006]]}},{"type":"Feature","geometry":{"type":"Polygon","coordinates":[[[-169.67048,-14.18474],[-169.66965,-14.18305],[-169.67073,-14.18159],[-169.67263,-14.18182],[-169.67346,-14.18351],[-169.67238,-14.18496],[-169.67048,-14.18474]]]},"properties":{"cell":"899b896cd27ffff","res":9,"coarsened":false,"count":15,"hv":15,"mp":0,"y0":2006,"y1":2016,"sp":[[1,5,5,0,2006,2016],[36,3,3,0,2006,2015],[21,2,2,0,2006,2006],[10,2,2,0,2006,2015],[9,2,2,0,2006,2006],[8,1,1,0,2015,2015]]}},{"type":"Feature","geometry":{"type":"Polygon","coordinates":[[[-170.54163,-14.26994],[-170.54079,-14.26826],[-170.54185,-14.2668],[-170.54375,-14.26702],[-170.54458,-14.2687],[-170.54352,-14.27016],[-170.54163,-14.26994]]]},"properties":{"cell":"899a140b30fffff","res":9,"coarsened":false,"count":1,"hv":1,"mp":0,"y0":2005,"y1":2005,"sp":[[28,1,1,0,2005,2005]]}},{"type":"Feature","geometry":{"type":"Polygon","coordinates":[[[-170.52204,-14.26292],[-170.5212,-14.26124],[-170.52226,-14.25978],[-170.52416,-14.26],[-170.525,-14.26168],[-170.52394,-14.26314],[-170.52204,-14.26292]]]},"properties":{"cell":"899a1409413ffff","res":9,"coarsened":false,"count":1,"hv":1,"mp":0,"y0":2005,"y1":2005,"sp":[[30,1,1,0,2005,2005]]}},{"type":"Feature","geometry":{"type":"Polygon","coordinates":[[[-170.59776,-14.2464],[-170.59692,-14.24472],[-170.59798,-14.24326],[-170.59988,-14.24348],[-170.60072,-14.24516],[-170.59966,-14.24662],[-170.59776,-14.2464]]]},"properties":{"cell":"899a1408157ffff","res":9,"coarsened":false,"count":1,"hv":1,"mp":0,"y0":2005,"y1":2005,"sp":[[28,1,1,0,2005,2005]]}},{"type":"Feature","geometry":{"type":"Polygon","coordinates":[[[-170.72408,-14.28471],[-170.72324,-14.28303],[-170.72429,-14.28157],[-170.72619,-14.28179],[-170.72703,-14.28347],[-170.72597,-14.28493],[-170.72408,-14.28471]]]},"properties":{"cell":"899a1401917ffff","res":9,"coarsened":false,"count":2,"hv":2,"mp":0,"y0":2003,"y1":2003,"sp":[[28,2,2,0,2003,2003]]}},{"type":"Feature","geometry":{"type":"Polygon","coordinates":[[[-170.68154,-14.27822],[-170.6807,-14.27654],[-170.68176,-14.27508],[-170.68365,-14.2753],[-170.68449,-14.27698],[-170.68344,-14.27844],[-170.68154,-14.27822]]]},"properties":{"cell":"899a1401a03ffff","res":9,"coarsened":false,"count":1,"hv":1,"mp":0,"y0":2024,"y1":2024,"sp":[[33,1,1,0,2024,2024]]}},{"type":"Feature","geometry":{"type":"Polygon","coordinates":[[[-169.61256,-14.18732],[-169.61173,-14.18564],[-169.61281,-14.18418],[-169.61471,-14.18441],[-169.61554,-14.18609],[-169.61447,-14.18755],[-169.61256,-14.18732]]]},"properties":{"cell":"899b896ce53ffff","res":9,"coarsened":false,"count":5,"hv":5,"mp":0,"y0":2015,"y1":2016,"sp":[[34,3,3,0,2016,2016],[10,1,1,0,2016,2016],[1,1,1,0,2015,2015]]}},{"type":"Feature","geometry":{"type":"Polygon","coordinates":[[[-169.65631,-14.18145],[-169.65548,-14.17977],[-169.65656,-14.17831],[-169.65846,-14.17854],[-169.65929,-14.18022],[-169.65822,-14.18168],[-169.65631,-14.18145]]]},"properties":{"cell":"899b896cd6bffff","res":9,"coarsened":false,"count":1,"hv":1,"mp":0,"y0":2016,"y1":2016,"sp":[[10,1,1,0,2016,2016]]}},{"type":"Feature","geometry":{"type":"Polygon","coordinates":[[[-169.64537,-14.17379],[-169.64454,-14.17211],[-169.64562,-14.17065],[-169.64752,-14.17088],[-169.64835,-14.17256],[-169.64728,-14.17402],[-169.64537,-14.17379]]]},"properties":{"cell":"899b896c83bffff","res":9,"coarsened":false,"count":1,"hv":1,"mp":0,"y0":2016,"y1":2016,"sp":[[8,1,1,0,2016,2016]]}},{"type":"Feature","geometry":{"type":"Polygon","coordinates":[[[-169.65954,-14.17708],[-169.65871,-14.17539],[-169.65979,-14.17393],[-169.66169,-14.17416],[-169.66252,-14.17585],[-169.66144,-14.17731],[-169.65954,-14.17708]]]},"properties":{"cell":"899b896c9d7ffff","res":9,"coarsened":false,"count":5,"hv":5,"mp":0,"y0":2015,"y1":2016,"sp":[[35,3,3,0,2015,2016],[6,2,2,0,2015,2016]]}},{"type":"Feature","geometry":{"type":"Polygon","coordinates":[[[-170.58463,-14.27018],[-170.58379,-14.2685],[-170.58485,-14.26704],[-170.58675,-14.26726],[-170.58759,-14.26894],[-170.58653,-14.2704],[-170.58463,-14.27018]]]},"properties":{"cell":"899a140842bffff","res":9,"coarsened":false,"count":5,"hv":5,"mp":0,"y0":2014,"y1":2014,"sp":[[1,2,2,0,2014,2014],[19,2,2,0,2014,2014],[37,1,1,0,2014,2014]]}},{"type":"Feature","geometry":{"type":"Polygon","coordinates":[[[-169.43733,-14.2473],[-169.4365,-14.24561],[-169.43758,-14.24415],[-169.43949,-14.24438],[-169.44032,-14.24607],[-169.43923,-14.24753],[-169.43733,-14.2473]]]},"properties":{"cell":"899b8969c8fffff","res":9,"coarsened":false,"count":17,"hv":17,"mp":0,"y0":2014,"y1":2014,"sp":[[35,6,6,0,2014,2014],[1,4,4,0,2014,2014],[36,2,2,0,2014,2014],[6,1,1,0,2014,2014],[8,1,1,0,2014,2014],[37,1,1,0,2014,2014],[4,1,1,0,2014,2014],[10,1,1,0,2014,2014]]}},{"type":"Feature","geometry":{"type":"Polygon","coordinates":[[[-169.61853,-14.18486],[-169.6177,-14.18318],[-169.61877,-14.18172],[-169.62068,-14.18195],[-169.62151,-14.18363],[-169.62043,-14.18509],[-169.61853,-14.18486]]]},"properties":{"cell":"899b896ce0bffff","res":9,"coarsened":false,"count":1,"hv":1,"mp":0,"y0":2006,"y1":2006,"sp":[[1,1,1,0,2006,2006]]}}],"park":"american_samoa","h3_res":9,"species_index":[{"n":"Gallirallus philippensis","c":"Buff-banded Rail","k":"Aves"},{"n":"Foulehaio carunculatus","c":"Polynesian Wattled Honeyeater","k":"Aves"},{"n":"Ptilinopus perousii","c":"Many-coloured Fruit Dove","k":"Aves"},{"n":"Ptilinopus porphyraceus","c":"Crimson-crowned Fruit Dove","k":"Aves"},{"n":"Ducula pacifica","c":"Pacific Imperial Pigeon","k":"Aves"},{"n":"Fregata ariel","c":"Lesser Frigatebird","k":"Aves"},{"n":"Aplonis tabuensis","c":"Polynesian Starling","k":"Aves"},{"n":"Gallus gallus","c":"Domestic Chicken","k":"Aves"},{"n":"Todiramphus sacer","c":"Tutuila Pacific Kingfisher","k":"Aves"},{"n":"Pluvialis fulva","c":"Pacific Golden-Plover","k":"Aves"},{"n":"Aplonis atrifusca","c":"Samoan Starling","k":"Aves"},{"n":"Anous minutus","c":"Black Noddy","k":"Aves"},{"n":"Porphyrio melanotus","c":"Australasian Swamphen","k":"Aves"},{"n":"Acridotheres tristis","c":"Common Myna","k":"Aves"},{"n":"Anous ceruleus","c":"Blue-gray Noddy","k":"Aves"},{"n":"Sula leucogaster","c":"Brown Booby","k":"Aves"},{"n":"Myzomela nigriventris","c":"Samoan Myzomela","k":"Aves"},{"n":"Gygis candida","c":"Blue-billed White-Tern","k":"Aves"},{"n":"Sula sula","c":"Red-footed Booby","k":"Aves"},{"n":"Anous stolidus","c":"Brown Noddy","k":"Aves"},{"n":"Pseudobulweria rostrata","c":"Tahiti Petrel","k":"Aves"},{"n":"Pteropus tonganus","c":"Pacific Flying-fox","k":"Mammalia"},{"n":"Aerodramus spodiopygius","c":"White-rumped Swiftlet (Samoa)","k":"Aves"},{"n":"Phaethon lepturus","c":"White-tailed Tropicbird","k":"Aves"},{"n":"Egretta sacra","c":"Pacific Reef Heron","k":"Aves"},{"n":"Sula dactylatra","c":"Masked Booby","k":"Aves"},{"n":"Tringa incana","c":"Wandering Tattler","k":"Aves"},{"n":"Physeter macrocephalus","c":"Sperm whale","k":"Mammalia"},{"n":"Stenella longirostris","c":"Spinner dolphin","k":"Mammalia"},{"n":"Kogia sima","c":"Dwarf sperm whale","k":"Mammalia"},{"n":"Steno bredanensis","c":"Rough-toothed dolphin","k":"Mammalia"},{"n":"Tursiops Gervais, 1855","c":"Bottlenose dolphins","k":"Mammalia"},{"n":"Pseudorca crassidens","c":"False killer whale","k":"Mammalia"},{"n":"Fregata minor","c":"Great Frigatebird","k":"Aves"},{"n":"Urodynamis taitensis","c":"Pacific Long-tailed Cuckoo","k":"Aves"},{"n":"Clytorhynchus vitiensis","c":"Fiji Shrikebill","k":"Aves"},{"n":"Vini australis","c":"Blue-crowned Lorikeet","k":"Aves"},{"n":"Gygis alba","c":"White Tern","k":"Aves"}],"entry":["species_index","count","human_verified","model_predicted","first_year","last_year"],"suppressed":{"excluded":{},"coarsened":{}},"merged_names":{"Gallus gallus domesticus":"Gallus gallus","Todiramphus sacer pealei":"Todiramphus sacer","Aplonis tabuensis manuae":"Aplonis tabuensis","Todiramphus sacer manuae":"Todiramphus sacer","Sula sula rubripes":"Sula sula","Aerodramus spodiopygius spodiopygius":"Aerodramus spodiopygius","Ptilinopus porphyraceus fasciatus":"Ptilinopus porphyraceus"}}