{"type":"Feature","geometry":{"type":"MultiPolygon","coordinates":[[[[-103.4608,43.6403],[-103.456,43.6404],[-103.4511,43.638],[-103.4486,43.6368],[-103.4461,43.6344],[-103.4449,43.6332],[-103.4411,43.6296],[-103.4362,43.6296],[-103.4312,43.6295],[-103.4262,43.6295],[-103.4212,43.6295],[-103.4162,43.6295],[-103.4112,43.6295],[-103.4062,43.6295],[-103.4012,43.6295],[-103.3962,43.6295],[-103.3912,43.6295],[-103.3863,43.6295],[-103.3813,43.6294],[-103.3763,43.6294],[-103.3713,43.6293],[-103.3663,43.6293],[-103.3613,43.6292],[-103.3563,43.6293],[-103.3512,43.6293],[-103.3512,43.6257],[-103.3462,43.6257],[-103.3411,43.6257],[-103.3368,43.6257],[-103.3369,43.6221],[-103.3368,43.6185],[-103.3368,43.6149],[-103.3368,43.6113],[-103.3368,43.6077],[-103.3411,43.6076],[-103.3411,43.604],[-103.3412,43.6004],[-103.3412,43.5968],[-103.3412,43.5932],[-103.3463,43.5932],[-103.3513,43.5933],[-103.3564,43.5933],[-103.3614,43.5933],[-103.3614,43.5897],[-103.3614,43.5861],[-103.3614,43.5824],[-103.3614,43.5788],[-103.3614,43.5752],[-103.3614,43.5716],[-103.3615,43.568],[-103.3665,43.568],[-103.3715,43.568],[-103.3765,43.568],[-103.3815,43.568],[-103.3814,43.5644],[-103.3864,43.5644],[-103.3914,43.5644],[-103.3964,43.5645],[-103.4014,43.5645],[-103.4063,43.5645],[-103.4113,43.5645],[-103.4113,43.5627],[-103.4113,43.5608],[-103.4114,43.5572],[-103.4114,43.5536],[-103.4064,43.5536],[-103.4014,43.5536],[-103.4014,43.55],[-103.4064,43.55],[-103.4064,43.5464],[-103.4065,43.5428],[-103.4015,43.5428],[-103.4015,43.5391],[-103.4065,43.5391],[-103.4115,43.5392],[-103.4164,43.5392],[-103.4214,43.5392],[-103.4214,43.5356],[-103.4215,43.5319],[-103.4215,43.5283],[-103.4215,43.5265],[-103.4215,43.5256],[-103.4216,43.5246],[-103.4216,43.5231],[-103.4216,43.521],[-103.4266,43.5211],[-103.4316,43.5211],[-103.434,43.5211],[-103.4416,43.5211],[-103.4416,43.5175],[-103.4416,43.5138],[-103.4416,43.5102],[-103.437,43.5102],[-103.4382,43.5094],[-103.4393,43.5088],[-103.4394,43.5086],[-103.4396,43.5086],[-103.4399,43.5084],[-103.4402,43.5082],[-103.441,43.5078],[-103.4416,43.5075],[-103.4427,43.5071],[-103.4441,43.5066],[-103.4445,43.5063],[-103.4448,43.5061],[-103.4452,43.5059],[-103.4456,43.5056],[-103.446,43.5054],[-103.4463,43.5051],[-103.4466,43.5048],[-103.4469,43.5045],[-103.4472,43.5043],[-103.4475,43.504],[-103.4485,43.503],[-103.4503,43.501],[-103.4504,43.5009],[-103.4506,43.5008],[-103.4507,43.5007],[-103.4508,43.5005],[-103.451,43.5004],[-103.4511,43.5003],[-103.4513,43.5002],[-103.4514,43.5001],[-103.4516,43.5],[-103.4517,43.4999],[-103.4519,43.4999],[-103.452,43.4998],[-103.4522,43.4997],[-103.4524,43.4997],[-103.4525,43.4996],[-103.4533,43.4993],[-103.4561,43.4983],[-103.4563,43.4982],[-103.4565,43.4981],[-103.4568,43.498],[-103.4571,43.498],[-103.4574,43.4979],[-103.4577,43.4978],[-103.458,43.4978],[-103.4583,43.4977],[-103.461,43.4972],[-103.461,43.4986],[-103.4609,43.4989],[-103.461,43.4992],[-103.461,43.4993],[-103.461,43.5005],[-103.4606,43.5029],[-103.4607,43.5029],[-103.4606,43.5037],[-103.4606,43.5038],[-103.4606,43.5039],[-103.4606,43.504],[-103.4606,43.5041],[-103.4606,43.5042],[-103.4606,43.5043],[-103.4606,43.5044],[-103.4607,43.5044],[-103.4607,43.5045],[-103.4607,43.5046],[-103.4607,43.5047],[-103.4608,43.5048],[-103.4608,43.5049],[-103.4609,43.505],[-103.4609,43.5051],[-103.461,43.5051],[-103.461,43.5052],[-103.461,43.5066],[-103.461,43.5068],[-103.4625,43.5079],[-103.4638,43.5096],[-103.4643,43.51],[-103.4659,43.5121],[-103.4666,43.513],[-103.4652,43.513],[-103.4659,43.5138],[-103.4672,43.5138],[-103.4674,43.5138],[-103.4685,43.5153],[-103.4686,43.5155],[-103.47,43.5175],[-103.4702,43.5178],[-103.4703,43.5178],[-103.4708,43.5184],[-103.4708,43.5181],[-103.4708,43.518],[-103.4708,43.5175],[-103.4708,43.5175],[-103.4733,43.5175],[-103.4758,43.5175],[-103.4808,43.5174],[-103.4858,43.5174],[-103.4858,43.5174],[-103.4858,43.5138],[-103.4908,43.5137],[-103.4908,43.5174],[-103.4908,43.5174],[-103.4959,43.5173],[-103.5009,43.5173],[-103.5009,43.5209],[-103.5059,43.5209],[-103.5108,43.5208],[-103.5158,43.5208],[-103.5207,43.5209],[-103.5207,43.5245],[-103.5207,43.5281],[-103.5207,43.5318],[-103.5207,43.5354],[-103.5207,43.5391],[-103.5207,43.5427],[-103.5157,43.5464],[-103.5107,43.55],[-103.5057,43.5537],[-103.5007,43.5573],[-103.5007,43.5608],[-103.5007,43.5642],[-103.5007,43.5678],[-103.5007,43.5715],[-103.5007,43.5751],[-103.5007,43.5787],[-103.5007,43.579],[-103.5007,43.579],[-103.5007,43.5823],[-103.5007,43.5859],[-103.5007,43.5895],[-103.5007,43.5931],[-103.5007,43.5968],[-103.5007,43.6004],[-103.5007,43.604],[-103.5007,43.6077],[-103.5007,43.6113],[-103.5007,43.6149],[-103.5007,43.6181],[-103.5007,43.6185],[-103.5007,43.6207],[-103.5007,43.6222],[-103.5007,43.6258],[-103.5007,43.6294],[-103.5007,43.6331],[-103.4958,43.6349],[-103.4908,43.6368],[-103.4898,43.6371],[-103.4758,43.6405],[-103.4708,43.6405],[-103.4658,43.6405],[-103.4608,43.6403]]],[[[-103.5432,43.5785],[-103.5432,43.5749],[-103.5422,43.5749],[-103.5421,43.5749],[-103.5407,43.5749],[-103.5407,43.5713],[-103.5456,43.5713],[-103.5506,43.5713],[-103.5506,43.5749],[-103.5456,43.5749],[-103.5457,43.5785],[-103.5432,43.5785]]]]},"properties":{"park":"wind_cave","name":"Wind Cave National Park","source":"iNaturalist place","place_id":72794,"source_url":"https://www.inaturalist.org/places/72794"}}