{"type":"Feature","geometry":{"type":"Polygon","coordinates":[[[-119.6959,37.6099],[-119.6962,37.6139],[-119.7044,37.6139],[-119.7046,37.6229],[-119.6961,37.6228],[-119.6961,37.6291],[-119.723,37.6293],[-119.7229,37.6335],[-119.732,37.6334],[-119.7319,37.637],[-119.7229,37.6371],[-119.7227,37.644],[-119.7138,37.6439],[-119.7138,37.6547],[-119.7159,37.6548],[-119.716,37.6586],[-119.759,37.6587],[-119.76,37.6877],[-119.7616,37.6877],[-119.7631,37.6904],[-119.7654,37.6903],[-119.7655,37.6968],[-119.7667,37.6985],[-119.7698,37.6986],[-119.77,37.7023],[-119.7638,37.7023],[-119.7638,37.6987],[-119.76,37.6986],[-119.76,37.7085],[-119.7782,37.7085],[-119.7781,37.7384],[-119.8528,37.7391],[-119.8525,37.7606],[-119.8614,37.7607],[-119.8613,37.7759],[-119.8652,37.7775],[-119.8765,37.7888],[-119.8726,37.7917],[-119.8753,37.7988],[-119.872,37.8097],[-119.8597,37.81],[-119.8597,37.8136],[-119.8552,37.8137],[-119.8551,37.8182],[-119.8455,37.8182],[-119.8455,37.8326],[-119.8268,37.8329],[-119.8271,37.8924],[-119.885,37.8918],[-119.8863,37.9898],[-119.8758,38.0009],[-119.88,38.009],[-119.8803,38.0162],[-119.877,38.0227],[-119.8801,38.0296],[-119.8724,38.038],[-119.8678,38.0469],[-119.8724,38.0543],[-119.866,38.067],[-119.8544,38.0709],[-119.8431,38.0822],[-119.8419,38.0854],[-119.8323,38.0919],[-119.8252,38.0924],[-119.8182,38.0957],[-119.8098,38.0958],[-119.8083,38.0917],[-119.8047,38.0913],[-119.8027,38.088],[-119.794,38.0888],[-119.7888,38.0931],[-119.7828,38.0949],[-119.7763,38.0946],[-119.7696,38.0912],[-119.7508,38.0964],[-119.7405,38.0974],[-119.735,38.0963],[-119.716,38.1125],[-119.7141,38.1187],[-119.7027,38.1255],[-119.6948,38.1275],[-119.6907,38.1336],[-119.6863,38.1338],[-119.6805,38.1374],[-119.661,38.14],[-119.6379,38.148],[-119.6261,38.1497],[-119.624,38.1526],[-119.6239,38.1621],[-119.618,38.1636],[-119.6159,38.1695],[-119.5959,38.1825],[-119.5892,38.1851],[-119.5852,38.184],[-119.5794,38.1773],[-119.5813,38.1728],[-119.5765,38.158],[-119.5681,38.1574],[-119.5638,38.1545],[-119.5457,38.1548],[-119.5441,38.1526],[-119.548,38.1472],[-119.5467,38.1435],[-119.5301,38.1435],[-119.5244,38.1399],[-119.5061,38.1366],[-119.503,38.1422],[-119.5035,38.1483],[-119.5057,38.1523],[-119.5017,38.1579],[-119.4969,38.156],[-119.4969,38.1495],[-119.489,38.144],[-119.4883,38.1323],[-119.4705,38.1279],[-119.4732,38.1172],[-119.4666,38.1141],[-119.4623,38.1101],[-119.4575,38.1101],[-119.4654,38.1036],[-119.465,38.0998],[-119.4615,38.097],[-119.4545,38.0963],[-119.45,38.1],[-119.4467,38.0941],[-119.4392,38.096],[-119.4382,38.0978],[-119.4404,38.1006],[-119.4402,38.1027],[-119.4271,38.1156],[-119.4242,38.1102],[-119.4207,38.1075],[-119.4172,38.1066],[-119.4118,38.1079],[-119.4017,38.1054],[-119.3979,38.107],[-119.3895,38.0989],[-119.3843,38.0979],[-119.3816,38.0929],[-119.3754,38.0942],[-119.371,38.0886],[-119.3653,38.0911],[-119.3566,38.0826],[-119.3492,38.0868],[-119.3451,38.0848],[-119.345,38.0795],[-119.3379,38.0723],[-119.3371,38.0669],[-119.3278,38.0647],[-119.3216,38.0499],[-119.3118,38.0443],[-119.3139,38.0359],[-119.3072,38.0292],[-119.3071,38.0239],[-119.3097,38.0176],[-119.3084,38.0106],[-119.3182,37.9891],[-119.3178,37.9846],[-119.3148,37.9803],[-119.3188,37.9773],[-119.3197,37.9735],[-119.3234,37.97],[-119.3209,37.9669],[-119.3145,37.9656],[-119.3133,37.9631],[-119.3158,37.9598],[-119.3094,37.9503],[-119.3092,37.9468],[-119.3063,37.9449],[-119.2996,37.9455],[-119.2944,37.9411],[-119.2937,37.9359],[-119.2892,37.9327],[-119.2806,37.9333],[-119.2668,37.9275],[-119.2649,37.9227],[-119.2654,37.9157],[-119.2627,37.9111],[-119.2578,37.9103],[-119.2529,37.9066],[-119.2491,37.91],[-119.2442,37.9093],[-119.2397,37.9124],[-119.2329,37.9094],[-119.2283,37.9093],[-119.2198,37.8989],[-119.2103,37.8999],[-119.2086,37.8957],[-119.2104,37.8938],[-119.2068,37.8897],[-119.2009,37.888],[-119.1996,37.8853],[-119.1999,37.8838],[-119.2058,37.8834],[-119.2102,37.8804],[-119.215,37.8688],[-119.2125,37.8571],[-119.2177,37.8489],[-119.2136,37.8456],[-119.2012,37.8474],[-119.1964,37.8442],[-119.2032,37.8436],[-119.2077,37.8402],[-119.2049,37.8293],[-119.2135,37.8255],[-119.218,37.8183],[-119.2053,37.8108],[-119.2013,37.8004],[-119.205,37.7931],[-119.2109,37.7927],[-119.2145,37.7908],[-119.2207,37.7808],[-119.2277,37.7796],[-119.2412,37.7721],[-119.2478,37.7609],[-119.2545,37.7549],[-119.254,37.7477],[-119.2557,37.7452],[-119.2609,37.7412],[-119.2683,37.7395],[-119.2614,37.7306],[-119.2595,37.7255],[-119.2613,37.7083],[-119.2601,37.7053],[-119.2615,37.7031],[-119.2641,37.7008],[-119.2769,37.7006],[-119.2809,37.6977],[-119.2792,37.6958],[-119.2816,37.6915],[-119.2892,37.69],[-119.2908,37.6847],[-119.2939,37.6819],[-119.291,37.6775],[-119.2953,37.6689],[-119.302,37.6652],[-119.3065,37.666],[-119.314,37.6626],[-119.3161,37.6581],[-119.3257,37.6489],[-119.3261,37.636],[-119.3297,37.6321],[-119.3357,37.6328],[-119.3435,37.6303],[-119.3487,37.6304],[-119.354,37.6272],[-119.3623,37.6307],[-119.3637,37.6327],[-119.3707,37.632],[-119.369,37.6289],[-119.3704,37.6245],[-119.3774,37.6144],[-119.3773,37.603],[-119.3868,37.5907],[-119.3847,37.5858],[-119.3863,37.5803],[-119.3831,37.5749],[-119.383,37.5718],[-119.3868,37.5682],[-119.3895,37.5622],[-119.3877,37.554],[-119.3937,37.5529],[-119.3951,37.5491],[-119.403,37.5463],[-119.407,37.5474],[-119.4098,37.5515],[-119.4198,37.5551],[-119.4349,37.5463],[-119.444,37.5374],[-119.4473,37.536],[-119.5212,37.5363],[-119.5268,37.5338],[-119.5347,37.5337],[-119.5424,37.5369],[-119.5502,37.5369],[-119.5597,37.5346],[-119.5634,37.5355],[-119.5696,37.5324],[-119.5766,37.5329],[-119.5783,37.532],[-119.5779,37.4947],[-119.616,37.4948],[-119.616,37.498],[-119.6607,37.4975],[-119.6609,37.5041],[-119.6657,37.5041],[-119.666,37.5118],[-119.6722,37.5124],[-119.6731,37.526],[-119.6759,37.526],[-119.6763,37.5372],[-119.6852,37.5371],[-119.685,37.5482],[-119.6882,37.5482],[-119.6881,37.5509],[-119.7026,37.5513],[-119.7036,37.5792],[-119.6948,37.5791],[-119.6959,37.6099]]]},"properties":{"park":"yosemite","name":"Yosemite National Park","source":"iNaturalist place","place_id":68542,"source_url":"https://www.inaturalist.org/places/68542"}}