{"type":"Feature","geometry":{"type":"Polygon","coordinates":[[[-110.7397,43.6216],[-110.7398,43.6253],[-110.7249,43.6395],[-110.7511,43.6391],[-110.7523,43.6347],[-110.7578,43.6324],[-110.7579,43.6302],[-110.7643,43.6267],[-110.769,43.6213],[-110.7682,43.616],[-110.7763,43.606],[-110.7777,43.6005],[-110.7825,43.5984],[-110.7831,43.5963],[-110.822,43.5964],[-110.8221,43.6119],[-110.8299,43.6091],[-110.8509,43.6077],[-110.8581,43.6026],[-110.87,43.6006],[-110.8717,43.5969],[-110.8771,43.5941],[-110.887,43.5926],[-110.8912,43.5885],[-110.8902,43.5855],[-110.893,43.5837],[-110.8925,43.5792],[-110.8967,43.574],[-110.9073,43.5786],[-110.9118,43.5883],[-110.9207,43.5922],[-110.9321,43.6027],[-110.9384,43.6045],[-110.9481,43.6047],[-110.948,43.609],[-110.9424,43.611],[-110.9416,43.6129],[-110.9459,43.6231],[-110.942,43.6221],[-110.9342,43.6276],[-110.931,43.627],[-110.9224,43.6303],[-110.9141,43.6293],[-110.9082,43.6342],[-110.9003,43.6307],[-110.9055,43.6386],[-110.9102,43.6417],[-110.9082,43.6445],[-110.9129,43.6504],[-110.912,43.6523],[-110.9049,43.6534],[-110.905,43.6557],[-110.9082,43.6562],[-110.9093,43.6591],[-110.9059,43.6657],[-110.9066,43.6712],[-110.8977,43.6716],[-110.8947,43.6746],[-110.892,43.6821],[-110.8882,43.6801],[-110.8825,43.6855],[-110.8791,43.6836],[-110.8676,43.6843],[-110.8636,43.6817],[-110.8622,43.6875],[-110.8604,43.6889],[-110.8366,43.6838],[-110.8244,43.6901],[-110.8294,43.6966],[-110.8294,43.7007],[-110.8394,43.7056],[-110.8406,43.7098],[-110.838,43.7161],[-110.8419,43.72],[-110.8525,43.725],[-110.8492,43.7339],[-110.8534,43.7396],[-110.8524,43.7521],[-110.8555,43.7579],[-110.8531,43.7611],[-110.8537,43.7634],[-110.8456,43.7683],[-110.8451,43.7703],[-110.848,43.7753],[-110.8523,43.778],[-110.854,43.7892],[-110.8603,43.7918],[-110.8592,43.7959],[-110.8608,43.7982],[-110.858,43.8013],[-110.8702,43.8054],[-110.8686,43.8091],[-110.8703,43.8131],[-110.8676,43.8183],[-110.8708,43.8242],[-110.8705,43.828],[-110.8732,43.83],[-110.8742,43.8426],[-110.8771,43.846],[-110.8763,43.8497],[-110.8791,43.8557],[-110.8791,43.8623],[-110.8736,43.8645],[-110.8708,43.8698],[-110.8719,43.8746],[-110.8632,43.8747],[-110.8503,43.8778],[-110.8483,43.8811],[-110.8406,43.8825],[-110.8406,43.8925],[-110.8389,43.8961],[-110.8484,43.9044],[-110.8459,43.9138],[-110.848,43.916],[-110.8464,43.9223],[-110.8583,43.9405],[-110.8518,43.9595],[-110.8716,43.9784],[-110.8687,43.9835],[-110.8722,43.9878],[-110.8716,43.9916],[-110.8738,43.9949],[-110.8672,43.9975],[-110.8664,44.0006],[-110.8694,44.005],[-110.8753,44.0072],[-110.8712,44.0135],[-110.8697,44.0197],[-110.871,44.0225],[-110.8756,44.0248],[-110.8646,44.0342],[-110.8544,44.0371],[-110.8504,44.04],[-110.845,44.0407],[-110.8443,44.0438],[-110.8378,44.0483],[-110.8327,44.0492],[-110.8318,44.0529],[-110.8342,44.0561],[-110.8386,44.054],[-110.8385,44.0577],[-110.8431,44.0638],[-110.8433,44.0666],[-110.8407,44.0682],[-110.8341,44.0663],[-110.8297,44.0679],[-110.8241,44.0658],[-110.8206,44.0729],[-110.8153,44.0762],[-110.8169,44.0806],[-110.8124,44.0834],[-110.7953,44.084],[-110.7951,44.0438],[-110.7149,44.0438],[-110.7149,44.0463],[-110.66,44.0463],[-110.6597,44.0019],[-110.6193,44.0019],[-110.6203,43.9308],[-110.4787,43.9308],[-110.4787,43.9294],[-110.468,43.9294],[-110.4678,43.8256],[-110.4617,43.8252],[-110.4587,43.8278],[-110.4522,43.8252],[-110.453,43.8278],[-110.4515,43.829],[-110.4505,43.8259],[-110.4413,43.8272],[-110.4414,43.8287],[-110.446,43.8297],[-110.4417,43.8322],[-110.4354,43.8332],[-110.441,43.8345],[-110.4408,43.8387],[-110.4371,43.8392],[-110.4361,43.8425],[-110.434,43.8437],[-110.4295,43.843],[-110.4228,43.8463],[-110.4228,43.8174],[-110.4277,43.8174],[-110.4279,43.7767],[-110.4479,43.7767],[-110.4479,43.7731],[-110.4678,43.7731],[-110.4678,43.7767],[-110.5476,43.7767],[-110.5477,43.7695],[-110.5576,43.7695],[-110.5576,43.755],[-110.5675,43.7551],[-110.5675,43.7477],[-110.5774,43.7477],[-110.5774,43.7441],[-110.5859,43.7441],[-110.5859,43.7426],[-110.5915,43.7425],[-110.5969,43.7388],[-110.6009,43.7388],[-110.6008,43.7352],[-110.5958,43.7352],[-110.5955,43.7278],[-110.6056,43.7279],[-110.6054,43.7241],[-110.6156,43.7241],[-110.615,43.7131],[-110.6201,43.7131],[-110.6198,43.7058],[-110.6249,43.7058],[-110.6247,43.691],[-110.6193,43.6911],[-110.6191,43.6802],[-110.6041,43.6803],[-110.604,43.6766],[-110.584,43.6768],[-110.5835,43.64],[-110.5928,43.6296],[-110.593,43.6266],[-110.5989,43.625],[-110.6065,43.6259],[-110.6138,43.6223],[-110.6167,43.623],[-110.6346,43.6166],[-110.6442,43.6183],[-110.6478,43.6212],[-110.6585,43.6175],[-110.6611,43.6134],[-110.6668,43.6122],[-110.6726,43.6079],[-110.6789,43.6091],[-110.6843,43.6073],[-110.6912,43.6005],[-110.6968,43.598],[-110.7025,43.5923],[-110.7054,43.5918],[-110.7087,43.5856],[-110.712,43.5836],[-110.7112,43.5783],[-110.7248,43.5714],[-110.727,43.5684],[-110.7328,43.5675],[-110.7331,43.5467],[-110.7369,43.538],[-110.743,43.5379],[-110.743,43.5489],[-110.7529,43.5488],[-110.753,43.5524],[-110.7532,43.5615],[-110.7431,43.565],[-110.7442,43.6036],[-110.7492,43.6036],[-110.7494,43.6072],[-110.7544,43.6072],[-110.7545,43.6108],[-110.7495,43.6108],[-110.7496,43.6145],[-110.7446,43.6145],[-110.7448,43.6218],[-110.7397,43.6216]]]},"properties":{"park":"grand_teton","name":"Grand Teton National Park","source":"iNaturalist place","place_id":69099,"source_url":"https://www.inaturalist.org/places/69099"}}