{"type":"Feature","geometry":{"type":"MultiPolygon","coordinates":[[[[-92.4786,48.3018],[-92.4791,48.3018],[-92.4794,48.3021],[-92.4788,48.3023],[-92.4786,48.3018]]],[[[-92.4767,48.3013],[-92.4771,48.3012],[-92.4776,48.3019],[-92.4769,48.3019],[-92.4767,48.3013]]],[[[-92.9497,48.6292],[-92.95,48.6083],[-92.9295,48.6069],[-92.9101,48.5963],[-92.8945,48.5949],[-92.7286,48.5392],[-92.658,48.546],[-92.6351,48.5423],[-92.6258,48.5176],[-92.6272,48.5139],[-92.6253,48.5127],[-92.6311,48.5089],[-92.6322,48.5065],[-92.6273,48.503],[-92.6309,48.5005],[-92.6374,48.4991],[-92.6544,48.5015],[-92.6617,48.4961],[-92.686,48.4972],[-92.6989,48.4947],[-92.7015,48.4845],[-92.7095,48.4727],[-92.7088,48.4702],[-92.713,48.4628],[-92.6885,48.4435],[-92.6639,48.4398],[-92.6566,48.4363],[-92.5769,48.4403],[-92.5373,48.4474],[-92.5079,48.4477],[-92.4898,48.4299],[-92.4825,48.428],[-92.4759,48.4183],[-92.4569,48.4137],[-92.4569,48.4008],[-92.4771,48.3716],[-92.4704,48.3518],[-92.4539,48.329],[-92.4574,48.3266],[-92.4607,48.3274],[-92.4654,48.3251],[-92.4629,48.3226],[-92.4635,48.3145],[-92.4616,48.3142],[-92.464,48.3118],[-92.4637,48.3027],[-92.4681,48.3027],[-92.4731,48.2993],[-92.4746,48.3001],[-92.4743,48.3024],[-92.4809,48.307],[-92.4874,48.3081],[-92.4912,48.3112],[-92.4997,48.3108],[-92.4993,48.3137],[-92.4922,48.3119],[-92.4936,48.3146],[-92.4979,48.3163],[-92.4993,48.319],[-92.4967,48.3209],[-92.4984,48.3228],[-92.503,48.3232],[-92.5034,48.3221],[-92.5047,48.3238],[-92.506,48.3227],[-92.5055,48.3188],[-92.4998,48.3197],[-92.5069,48.3172],[-92.5071,48.3157],[-92.5039,48.3139],[-92.5059,48.3139],[-92.5077,48.3116],[-92.5059,48.3084],[-92.5213,48.3083],[-92.5214,48.3232],[-92.5719,48.3242],[-92.5768,48.3311],[-92.5835,48.3369],[-92.5835,48.3429],[-92.5859,48.3443],[-92.586,48.3525],[-92.5894,48.3526],[-92.5925,48.3567],[-92.5976,48.3592],[-92.5974,48.361],[-92.5998,48.3612],[-92.6045,48.3672],[-92.6112,48.3723],[-92.6128,48.3715],[-92.6095,48.3688],[-92.6105,48.3675],[-92.6046,48.3634],[-92.6083,48.3622],[-92.6167,48.3645],[-92.6146,48.3666],[-92.6173,48.3669],[-92.6187,48.3694],[-92.6235,48.3694],[-92.6298,48.3734],[-92.6296,48.3819],[-92.7159,48.3824],[-92.7159,48.4116],[-92.7377,48.4114],[-92.7377,48.3971],[-92.7812,48.3975],[-92.7812,48.4113],[-92.7838,48.4113],[-92.7836,48.4185],[-92.7893,48.4179],[-92.7993,48.4247],[-92.7996,48.4197],[-92.7974,48.4185],[-92.7996,48.4185],[-92.8,48.4113],[-92.8433,48.4117],[-92.8423,48.4086],[-92.8398,48.409],[-92.8359,48.3976],[-92.8391,48.3973],[-92.8423,48.4066],[-92.8456,48.4061],[-92.8467,48.4117],[-92.8973,48.4125],[-92.898,48.3915],[-92.9524,48.394],[-92.9521,48.4085],[-93.0076,48.4093],[-93.0058,48.4245],[-93.0067,48.4232],[-93.0066,48.4249],[-93.0127,48.4258],[-93.0085,48.4256],[-93.0024,48.4285],[-93.0066,48.4302],[-93.0076,48.4337],[-93.0176,48.4412],[-93.0225,48.4408],[-93.0226,48.4431],[-93.0244,48.4442],[-93.0284,48.4428],[-93.0284,48.444],[-93.0324,48.4452],[-93.0314,48.4468],[-93.028,48.4463],[-93.0299,48.4476],[-93.048,48.4478],[-93.0514,48.4504],[-93.0572,48.4509],[-93.0566,48.4529],[-93.0641,48.4541],[-93.0607,48.4554],[-93.0557,48.4534],[-93.0536,48.4537],[-93.0569,48.4548],[-93.052,48.4569],[-93.0566,48.459],[-93.0515,48.4598],[-93.0485,48.4625],[-93.0505,48.4646],[-93.0561,48.4637],[-93.059,48.4647],[-93.0593,48.4663],[-93.0636,48.4667],[-93.0634,48.469],[-93.0577,48.4694],[-93.0589,48.4704],[-93.0628,48.4699],[-93.0655,48.4721],[-93.0656,48.4688],[-93.0677,48.4661],[-93.0807,48.4651],[-93.0805,48.4795],[-93.0695,48.4794],[-93.0695,48.477],[-93.0642,48.4746],[-93.06,48.4776],[-93.0551,48.4786],[-93.0586,48.4797],[-93.0531,48.4808],[-93.0583,48.4821],[-93.0572,48.4843],[-93.074,48.4828],[-93.0761,48.4848],[-93.0729,48.488],[-93.0769,48.4884],[-93.0789,48.4909],[-93.0859,48.4907],[-93.0889,48.4926],[-93.0926,48.4892],[-93.1021,48.4893],[-93.1022,48.4739],[-93.1565,48.474],[-93.1562,48.5096],[-93.1508,48.5095],[-93.1507,48.5131],[-93.1452,48.513],[-93.1451,48.5166],[-93.1123,48.5158],[-93.1119,48.5459],[-93.1088,48.5468],[-93.1096,48.5437],[-93.1069,48.5447],[-93.1026,48.5399],[-93.1013,48.5403],[-93.104,48.5429],[-93.1015,48.5425],[-93.103,48.5435],[-93.1019,48.545],[-93.1062,48.5472],[-93.1014,48.5472],[-93.1017,48.5458],[-93.0989,48.5454],[-93.0989,48.5467],[-93.094,48.5461],[-93.0969,48.5481],[-93.0901,48.5472],[-93.0921,48.5497],[-93.0969,48.5499],[-93.0989,48.5536],[-93.0959,48.5553],[-93.0968,48.5581],[-93.0897,48.5585],[-93.0897,48.5607],[-93.0879,48.5609],[-93.0889,48.5614],[-93.0853,48.5605],[-93.0859,48.562],[-93.0841,48.5621],[-93.0852,48.5648],[-93.0876,48.5637],[-93.0893,48.5665],[-93.0929,48.5658],[-93.0999,48.5702],[-93.103,48.5667],[-93.1007,48.5635],[-93.1027,48.5625],[-93.1035,48.5597],[-93.105,48.5581],[-93.109,48.5585],[-93.1246,48.5644],[-93.1266,48.5628],[-93.1299,48.5654],[-93.1342,48.5653],[-93.1369,48.567],[-93.138,48.5661],[-93.1397,48.5669],[-93.138,48.5671],[-93.1384,48.5706],[-93.1424,48.5689],[-93.1477,48.5727],[-93.1466,48.5732],[-93.1484,48.5744],[-93.1457,48.5744],[-93.1453,48.5762],[-93.1483,48.5755],[-93.1492,48.5765],[-93.1463,48.5779],[-93.1513,48.5779],[-93.149,48.5797],[-93.1535,48.5815],[-93.1515,48.5827],[-93.1549,48.5844],[-93.1541,48.6246],[-93.0902,48.6279],[-92.9845,48.6238],[-92.9547,48.6315],[-92.9497,48.6303],[-92.9497,48.6292]]],[[[-93.1585,48.5816],[-93.1585,48.5803],[-93.1702,48.5805],[-93.1714,48.5831],[-93.1809,48.5832],[-93.1808,48.5875],[-93.1833,48.5875],[-93.1832,48.5893],[-93.1945,48.5894],[-93.1944,48.5953],[-93.188,48.5963],[-93.1831,48.5929],[-93.1791,48.5923],[-93.1791,48.5893],[-93.1584,48.5889],[-93.1585,48.5816]]],[[[-93.1982,48.5941],[-93.2036,48.5936],[-93.2035,48.5968],[-93.1981,48.5967],[-93.1982,48.5941]]]]},"properties":{"park":"voyageurs","name":"Voyageurs National Park","source":"iNaturalist place","place_id":69101,"source_url":"https://www.inaturalist.org/places/69101"}}