{"type":"Feature","geometry":{"type":"Polygon","coordinates":[[[-151.7414,64.0727],[-151.5649,64.0694],[-151.5649,64.055],[-151.4897,64.0446],[-151.5163,64.0206],[-151.4076,63.9973],[-149.2117,63.9973],[-149.2117,63.9107],[-149.8,63.9107],[-149.7999,63.8241],[-149.7738,63.8241],[-149.7738,63.8001],[-148.9319,63.7987],[-148.9,63.7566],[-148.9133,63.7444],[-148.874,63.7317],[-148.8918,63.72],[-148.8677,63.7136],[-148.875,63.7049],[-148.8277,63.706],[-148.7778,63.6789],[-148.8393,63.6537],[-148.7956,63.6309],[-148.8037,63.6088],[-148.8444,63.5867],[-148.8059,63.5211],[-148.828,63.5062],[-148.8183,63.4974],[-148.8371,63.471],[-148.8139,63.4624],[-148.8792,63.4443],[-148.877,63.4287],[-148.98,63.4235],[-148.9861,63.3827],[-149.1435,63.3621],[-149.1434,63.3477],[-149.1741,63.3477],[-149.1741,63.3332],[-149.2674,63.3305],[-149.2673,63.3016],[-149.3625,63.3016],[-149.3623,63.2177],[-149.5454,63.2178],[-149.5719,63.2353],[-149.653,63.2425],[-149.6529,63.2163],[-149.8578,63.1879],[-149.892,63.1527],[-150.0095,63.1214],[-150.0392,63.0886],[-150.0174,63.0672],[-150.035,63.0461],[-150.035,62.9579],[-150.1192,62.9579],[-150.1102,62.8126],[-150.2979,62.8125],[-150.2979,62.6393],[-150.9865,62.6393],[-150.9864,62.6248],[-151.0487,62.6104],[-151.0487,62.5923],[-151.08,62.5743],[-151.1544,62.5526],[-151.1541,62.466],[-151.4004,62.466],[-151.4004,62.5526],[-151.7714,62.5526],[-151.7714,62.2927],[-152.8846,62.2927],[-152.8846,62.5526],[-152.7378,62.5526],[-152.7378,62.6392],[-152.3624,62.6392],[-152.3624,62.7258],[-152.1747,62.7259],[-152.1748,62.7692],[-152.0817,62.7981],[-152.082,62.8991],[-152.113,62.8991],[-152.1132,62.9578],[-152.4281,62.9577],[-152.4281,63.3043],[-152.6195,63.3043],[-152.6195,63.3476],[-152.8109,63.3476],[-152.8109,63.4775],[-152.8734,63.4775],[-152.8734,63.6507],[-152.2284,63.6508],[-152.2293,63.824],[-152.0551,63.824],[-152.0558,63.9972],[-151.8305,63.9972],[-151.8597,64.0189],[-151.794,64.0694],[-151.7414,64.0727]],[[-150.2999,63.798],[-150.3081,63.7934],[-150.2995,63.7983],[-150.2999,63.798]]]},"properties":{"park":"denali","name":"Denali National Park","source":"iNaturalist place","place_id":71077,"source_url":"https://www.inaturalist.org/places/71077"}}