{"type":"Feature","geometry":{"type":"MultiPolygon","coordinates":[[[[-121.0473,48.6111],[-121.0455,48.6103],[-121.0355,48.6156],[-121.0358,48.6408],[-121.019,48.6407],[-121.0186,48.6645],[-120.9999,48.6817],[-120.9959,48.684],[-120.9741,48.6801],[-120.9603,48.6818],[-120.9482,48.6783],[-120.9424,48.6728],[-120.9346,48.6699],[-120.9226,48.6614],[-120.924,48.659],[-120.9233,48.6509],[-120.9194,48.6442],[-120.9292,48.6273],[-120.9165,48.6218],[-120.9135,48.6228],[-120.8943,48.6128],[-120.8867,48.6114],[-120.874,48.5987],[-120.8671,48.5971],[-120.8637,48.5938],[-120.8591,48.5882],[-120.8562,48.5791],[-120.8448,48.5748],[-120.8431,48.5716],[-120.8251,48.5645],[-120.8269,48.5634],[-120.8261,48.5604],[-120.8272,48.5577],[-120.8214,48.5514],[-120.826,48.542],[-120.8165,48.5374],[-120.8163,48.5347],[-120.8092,48.5295],[-120.8173,48.5231],[-120.8171,48.5191],[-120.8113,48.5171],[-120.8101,48.5149],[-120.8043,48.5132],[-120.802,48.5107],[-120.7883,48.5064],[-120.7818,48.5085],[-120.7705,48.5078],[-120.7686,48.5061],[-120.7687,48.5019],[-120.7609,48.4993],[-120.7568,48.4887],[-120.7481,48.4853],[-120.7438,48.4847],[-120.7392,48.4861],[-120.7247,48.4836],[-120.6703,48.4849],[-120.6648,48.4832],[-120.6546,48.4857],[-120.6529,48.4852],[-120.6537,48.4815],[-120.6523,48.4781],[-120.6377,48.473],[-120.6318,48.4694],[-120.6424,48.4682],[-120.6486,48.4613],[-120.6511,48.4613],[-120.6509,48.4584],[-120.6564,48.4521],[-120.667,48.4516],[-120.6685,48.4501],[-120.6946,48.4505],[-120.6943,48.4486],[-120.7114,48.4397],[-120.7175,48.4327],[-120.7306,48.4343],[-120.7485,48.4317],[-120.7591,48.4325],[-120.7591,48.4269],[-120.7576,48.425],[-120.7587,48.4204],[-120.7769,48.4167],[-120.7866,48.41],[-120.7957,48.4085],[-120.8021,48.4097],[-120.8092,48.408],[-120.8151,48.4035],[-120.8436,48.3908],[-120.8373,48.3824],[-120.8388,48.379],[-120.8431,48.3749],[-120.8547,48.3696],[-120.8562,48.3832],[-120.8655,48.3892],[-120.8747,48.4075],[-120.8832,48.4055],[-120.887,48.403],[-120.8922,48.4034],[-120.8962,48.4014],[-120.8977,48.3987],[-120.8963,48.3954],[-120.8978,48.3914],[-120.9051,48.3877],[-120.9134,48.3874],[-120.9248,48.3923],[-120.9268,48.3877],[-120.9567,48.3919],[-120.9584,48.3965],[-120.9552,48.4071],[-120.9577,48.4099],[-120.9546,48.4218],[-120.9571,48.4324],[-120.9733,48.4342],[-120.9843,48.4321],[-120.9871,48.4336],[-120.9947,48.4312],[-120.9997,48.4329],[-121.0072,48.4301],[-121.0122,48.4327],[-121.0203,48.4319],[-121.0239,48.4338],[-121.035,48.4311],[-121.0384,48.4346],[-121.0382,48.4384],[-121.0409,48.4456],[-121.0443,48.4477],[-121.0488,48.4474],[-121.0554,48.4501],[-121.0602,48.4535],[-121.0631,48.4599],[-121.0802,48.4634],[-121.0881,48.4622],[-121.096,48.4656],[-121.1025,48.4725],[-121.1079,48.4742],[-121.122,48.4756],[-121.1389,48.4719],[-121.1548,48.4747],[-121.1703,48.4888],[-121.1755,48.4885],[-121.185,48.4918],[-121.2051,48.4954],[-121.1976,48.5008],[-121.1968,48.5072],[-121.1896,48.5152],[-121.1706,48.5178],[-121.1756,48.5216],[-121.1783,48.526],[-121.1832,48.5243],[-121.1843,48.5278],[-121.1952,48.5307],[-121.2027,48.5305],[-121.2107,48.5339],[-121.2186,48.5348],[-121.2312,48.5304],[-121.2486,48.531],[-121.2624,48.541],[-121.2737,48.5414],[-121.3086,48.5581],[-121.3154,48.5655],[-121.3174,48.5716],[-121.318,48.5787],[-121.3128,48.58],[-121.3128,48.5855],[-121.3078,48.5897],[-121.3051,48.5954],[-121.3147,48.604],[-121.252,48.6386],[-121.2013,48.6764],[-121.1657,48.6865],[-121.1251,48.6829],[-121.0944,48.6666],[-121.0755,48.6646],[-121.0671,48.6508],[-121.0669,48.6409],[-121.0594,48.6328],[-121.0583,48.6294],[-121.0614,48.6244],[-121.0688,48.6213],[-121.0674,48.6164],[-121.0473,48.6111]]],[[[-121.1214,48.9071],[-121.0598,48.8463],[-121.0726,48.8413],[-121.0787,48.8367],[-121.0817,48.8315],[-121.09,48.8242],[-121.0986,48.8222],[-121.0989,48.8188],[-121.1243,48.8159],[-121.1613,48.82],[-121.1782,48.8038],[-121.1363,48.7905],[-121.0684,48.7593],[-121.0791,48.7405],[-121.0978,48.7349],[-121.1699,48.7284],[-121.2274,48.7082],[-121.2541,48.6896],[-121.3251,48.674],[-121.3773,48.636],[-121.3791,48.64],[-121.3877,48.6452],[-121.3922,48.6526],[-121.3988,48.6681],[-121.3954,48.673],[-121.4007,48.676],[-121.4661,48.6581],[-121.4644,48.6138],[-121.4698,48.6133],[-121.4764,48.6188],[-121.482,48.6208],[-121.4818,48.6309],[-121.4835,48.6326],[-121.4939,48.6338],[-121.5051,48.6275],[-121.512,48.6269],[-121.5198,48.632],[-121.5241,48.6376],[-121.5495,48.6517],[-121.5561,48.6498],[-121.5647,48.6538],[-121.5647,48.6853],[-121.545,48.7025],[-121.5426,48.7086],[-121.5449,48.7116],[-121.5423,48.7158],[-121.5406,48.7722],[-121.5523,48.7875],[-121.6393,48.7876],[-121.6394,48.8168],[-121.6334,48.817],[-121.6334,48.8609],[-121.5233,48.8605],[-121.5237,48.9996],[-121.1193,49.0003],[-121.1303,48.9875],[-121.1073,48.9317],[-121.1214,48.9071]]]]},"properties":{"park":"north_cascades","name":"North Cascades National Park","source":"iNaturalist place","place_id":69097,"source_url":"https://www.inaturalist.org/places/69097"}}