{"type":"Feature","geometry":{"type":"MultiPolygon","coordinates":[[[[-105.5385,37.955],[-105.5374,37.9548],[-105.5338,37.955],[-105.533,37.9549],[-105.5301,37.9531],[-105.5283,37.9514],[-105.5274,37.95],[-105.5256,37.9483],[-105.5234,37.9478],[-105.5221,37.9461],[-105.5173,37.9425],[-105.5163,37.942],[-105.5148,37.9401],[-105.5135,37.9394],[-105.5112,37.9389],[-105.5104,37.9377],[-105.5097,37.9368],[-105.5082,37.9358],[-105.5076,37.9342],[-105.5074,37.9323],[-105.5057,37.929],[-105.5057,37.9279],[-105.5054,37.9274],[-105.5048,37.9271],[-105.5039,37.925],[-105.5029,37.9236],[-105.5022,37.9228],[-105.5013,37.9223],[-105.4993,37.9214],[-105.4979,37.9204],[-105.4969,37.9202],[-105.4958,37.9191],[-105.4949,37.9177],[-105.4939,37.9167],[-105.4927,37.9162],[-105.4911,37.9152],[-105.4903,37.913],[-105.488,37.9097],[-105.487,37.9087],[-105.4855,37.9081],[-105.485,37.9075],[-105.4848,37.907],[-105.4844,37.9068],[-105.483,37.9051],[-105.4805,37.904],[-105.4787,37.9036],[-105.4784,37.9033],[-105.4791,37.9025],[-105.4792,37.9007],[-105.478,37.8998],[-105.4771,37.8994],[-105.476,37.8993],[-105.4738,37.8974],[-105.4734,37.8968],[-105.4734,37.8963],[-105.4742,37.8941],[-105.4751,37.893],[-105.4759,37.8914],[-105.4762,37.8911],[-105.4766,37.8895],[-105.4766,37.8884],[-105.4772,37.8877],[-105.477,37.8857],[-105.4764,37.8835],[-105.4764,37.8827],[-105.4766,37.8818],[-105.4779,37.8801],[-105.4784,37.8798],[-105.4755,37.88],[-105.4727,37.8799],[-105.472,37.8798],[-105.4698,37.8789],[-105.4691,37.8789],[-105.4654,37.8794],[-105.4645,37.8791],[-105.4607,37.8802],[-105.4586,37.8803],[-105.4564,37.8798],[-105.4559,37.8793],[-105.4542,37.8785],[-105.4521,37.8785],[-105.451,37.8781],[-105.4485,37.8764],[-105.4478,37.8754],[-105.4476,37.875],[-105.4446,37.8723],[-105.4443,37.8716],[-105.4435,37.8707],[-105.4422,37.8705],[-105.4408,37.8694],[-105.4405,37.8678],[-105.4399,37.8675],[-105.4395,37.8669],[-105.4392,37.8652],[-105.4394,37.8625],[-105.4392,37.8616],[-105.4389,37.861],[-105.438,37.8606],[-105.4368,37.8597],[-105.4368,37.8594],[-105.4371,37.8584],[-105.4367,37.8582],[-105.4348,37.8579],[-105.4336,37.8574],[-105.4334,37.8571],[-105.4329,37.8568],[-105.4324,37.856],[-105.432,37.855],[-105.4319,37.8546],[-105.429,37.8523],[-105.4289,37.8512],[-105.4291,37.8507],[-105.4297,37.8505],[-105.431,37.8474],[-105.431,37.8471],[-105.4293,37.8457],[-105.4291,37.8451],[-105.4285,37.8446],[-105.4285,37.8441],[-105.4287,37.8433],[-105.4292,37.8429],[-105.4298,37.841],[-105.431,37.839],[-105.4308,37.8377],[-105.4327,37.8351],[-105.4327,37.8348],[-105.4322,37.834],[-105.4322,37.8326],[-105.4353,37.8292],[-105.4357,37.828],[-105.435,37.826],[-105.434,37.8249],[-105.4339,37.8243],[-105.4344,37.8225],[-105.4348,37.8216],[-105.4367,37.819],[-105.436,37.8178],[-105.4358,37.8167],[-105.4355,37.8163],[-105.4356,37.815],[-105.4353,37.8144],[-105.4347,37.8135],[-105.4353,37.8124],[-105.4357,37.8119],[-105.4359,37.8114],[-105.4355,37.8107],[-105.436,37.8083],[-105.4351,37.8065],[-105.4349,37.806],[-105.435,37.8054],[-105.4361,37.804],[-105.4385,37.8032],[-105.44,37.8029],[-105.4409,37.8025],[-105.4426,37.8022],[-105.4432,37.8018],[-105.4443,37.8013],[-105.4476,37.8002],[-105.4481,37.7998],[-105.4487,37.7986],[-105.4505,37.7977],[-105.454,37.7968],[-105.4542,37.7966],[-105.4548,37.7953],[-105.4547,37.7948],[-105.4547,37.7939],[-105.4552,37.792],[-105.4552,37.7909],[-105.4529,37.7889],[-105.4522,37.788],[-105.4517,37.7861],[-105.4518,37.7832],[-105.4515,37.7824],[-105.4501,37.7808],[-105.4493,37.7805],[-105.4492,37.7803],[-105.4496,37.7784],[-105.4495,37.7778],[-105.4504,37.7767],[-105.4508,37.7758],[-105.4511,37.7742],[-105.4509,37.7721],[-105.4508,37.7716],[-105.4501,37.7705],[-105.4502,37.7702],[-105.4524,37.7678],[-105.4535,37.7674],[-105.4538,37.767],[-105.4543,37.7652],[-105.4554,37.7628],[-105.4562,37.7622],[-105.4568,37.7611],[-105.4578,37.76],[-105.4577,37.759],[-105.458,37.7586],[-105.4569,37.7583],[-105.4564,37.758],[-105.4559,37.7576],[-105.4558,37.7572],[-105.4559,37.7567],[-105.4561,37.7563],[-105.4579,37.755],[-105.4585,37.7542],[-105.4595,37.7537],[-105.4598,37.7533],[-105.4595,37.7526],[-105.4591,37.7523],[-105.4576,37.7517],[-105.4565,37.7509],[-105.4564,37.7507],[-105.4565,37.7505],[-105.457,37.7502],[-105.4572,37.7499],[-105.457,37.7487],[-105.4571,37.7471],[-105.457,37.7467],[-105.4565,37.7459],[-105.4558,37.7453],[-105.454,37.7442],[-105.4535,37.7432],[-105.4538,37.7423],[-105.4528,37.7414],[-105.4526,37.7407],[-105.4527,37.7404],[-105.4538,37.7389],[-105.4541,37.7379],[-105.4547,37.737],[-105.4552,37.736],[-105.4552,37.7345],[-105.4551,37.7336],[-105.4547,37.7329],[-105.4536,37.7322],[-105.4532,37.7308],[-105.4543,37.7259],[-105.454,37.7245],[-105.454,37.724],[-105.4544,37.7235],[-105.455,37.723],[-105.4564,37.7206],[-105.4569,37.7199],[-105.4572,37.719],[-105.4576,37.7188],[-105.4587,37.7188],[-105.4598,37.7178],[-105.4613,37.7174],[-105.462,37.717],[-105.4626,37.7166],[-105.4635,37.7153],[-105.4639,37.7137],[-105.4657,37.7127],[-105.4668,37.7116],[-105.4688,37.711],[-105.4702,37.7113],[-105.4706,37.7113],[-105.4712,37.711],[-105.4724,37.709],[-105.4742,37.7075],[-105.4767,37.7076],[-105.4772,37.7076],[-105.4775,37.7074],[-105.478,37.7054],[-105.4779,37.7037],[-105.4782,37.7022],[-105.4789,37.7002],[-105.4804,37.6981],[-105.4803,37.6975],[-105.4821,37.6988],[-105.4841,37.6991],[-105.4872,37.7006],[-105.4903,37.7012],[-105.4948,37.7009],[-105.4984,37.7004],[-105.5025,37.7005],[-105.5053,37.6985],[-105.5085,37.6978],[-105.5105,37.6975],[-105.5134,37.6959],[-105.5142,37.6961],[-105.5171,37.6962],[-105.5162,37.7078],[-105.5172,37.715],[-105.5169,37.7222],[-105.5091,37.7221],[-105.5169,37.7222],[-105.5172,37.715],[-105.5162,37.7078],[-105.517,37.6969],[-105.5306,37.6968],[-105.5309,37.6931],[-105.548,37.6934],[-105.5648,37.6745],[-105.5783,37.666],[-105.5789,37.6663],[-105.5793,37.6662],[-105.5938,37.6632],[-105.5968,37.6628],[-105.7111,37.6631],[-105.7104,37.6925],[-105.7282,37.692],[-105.7281,37.7065],[-105.7277,37.7217],[-105.7273,37.7515],[-105.7269,37.7515],[-105.7267,37.7949],[-105.7282,37.9174],[-105.6908,37.9093],[-105.6723,37.911],[-105.6691,37.9178],[-105.6662,37.918],[-105.662,37.9212],[-105.6613,37.9207],[-105.6616,37.9204],[-105.661,37.9197],[-105.6593,37.9199],[-105.6593,37.9206],[-105.6578,37.9215],[-105.6571,37.9213],[-105.6565,37.9221],[-105.654,37.9235],[-105.6534,37.9244],[-105.6529,37.9244],[-105.6517,37.9247],[-105.6514,37.9253],[-105.6517,37.9258],[-105.6523,37.926],[-105.6533,37.9258],[-105.6532,37.9261],[-105.6538,37.9263],[-105.6493,37.9259],[-105.643,37.9245],[-105.6392,37.9191],[-105.6509,37.9131],[-105.6501,37.9095],[-105.6489,37.9053],[-105.6479,37.9044],[-105.6479,37.9031],[-105.6469,37.9015],[-105.6468,37.8996],[-105.6479,37.8985],[-105.6501,37.8977],[-105.6511,37.8968],[-105.6535,37.8951],[-105.6545,37.8937],[-105.6542,37.8929],[-105.6523,37.8904],[-105.65,37.8879],[-105.6474,37.8858],[-105.6462,37.8845],[-105.6404,37.8819],[-105.6383,37.8808],[-105.6354,37.8807],[-105.6325,37.8803],[-105.6306,37.8795],[-105.6291,37.88],[-105.627,37.8797],[-105.6251,37.8798],[-105.6236,37.8795],[-105.6215,37.8794],[-105.6201,37.8791],[-105.6155,37.8749],[-105.6142,37.8733],[-105.6125,37.8695],[-105.6106,37.8678],[-105.6071,37.8666],[-105.6044,37.8641],[-105.5985,37.8606],[-105.5973,37.8594],[-105.5972,37.8574],[-105.5954,37.8547],[-105.594,37.8538],[-105.5936,37.8528],[-105.5816,37.8528],[-105.5794,37.8533],[-105.5756,37.8551],[-105.5711,37.8587],[-105.5701,37.8598],[-105.5694,37.8611],[-105.5695,37.8627],[-105.5681,37.8657],[-105.5639,37.8688],[-105.5629,37.8766],[-105.558,37.8803],[-105.5586,37.8876],[-105.5577,37.8915],[-105.5553,37.8962],[-105.5522,37.8971],[-105.5499,37.8997],[-105.5496,37.9011],[-105.5496,37.902],[-105.5482,37.9033],[-105.5432,37.9043],[-105.5409,37.9064],[-105.5425,37.9118],[-105.5415,37.9133],[-105.54,37.915],[-105.5399,37.9168],[-105.5395,37.9177],[-105.5411,37.919],[-105.5422,37.9203],[-105.5413,37.923],[-105.5403,37.9244],[-105.5437,37.926],[-105.5452,37.927],[-105.5443,37.93],[-105.5447,37.9308],[-105.5458,37.9326],[-105.5461,37.9346],[-105.5472,37.9352],[-105.5486,37.9366],[-105.5502,37.9394],[-105.5511,37.9429],[-105.5503,37.9451],[-105.5503,37.9456],[-105.5514,37.9477],[-105.5514,37.9498],[-105.552,37.9504],[-105.5513,37.9519],[-105.5502,37.9537],[-105.5497,37.954],[-105.5494,37.9545],[-105.5489,37.9549],[-105.548,37.9554],[-105.5458,37.9559],[-105.543,37.9563],[-105.5425,37.956],[-105.5385,37.955]],[[-105.4978,37.7401],[-105.4978,37.7364],[-105.507,37.7366],[-105.5075,37.7221],[-105.507,37.7366],[-105.4978,37.7364],[-105.4978,37.8235],[-105.4978,37.7401]],[[-105.5269,37.8237],[-105.5268,37.8237],[-105.5344,37.8237],[-105.5269,37.8237]]]]},"properties":{"park":"great_sand_dunes","name":"Great Sand Dunes National Park","source":"iNaturalist place","place_id":53632,"source_url":"https://www.inaturalist.org/places/53632"}}