{"type":"FeatureCollection","features":[{"type":"Feature","geometry":{"type":"Polygon","coordinates":[[[-105.51854,37.72216],[-105.51716,37.7237],[-105.51822,37.72541],[-105.52065,37.72557],[-105.52204,37.72403],[-105.52098,37.72232],[-105.51854,37.72216]]]},"properties":{"cell":"89268aa1e6bffff","res":9,"coarsened":false,"count":4,"hv":4,"mp":0,"y0":2011,"y1":2018,"sp":[[0,2,2,0,2011,2012],[23,1,1,0,2018,2018],[53,1,1,0,2012,2012]]}},{"type":"Feature","geometry":{"type":"Polygon","coordinates":[[[-105.62088,37.72903],[-105.6195,37.73057],[-105.62056,37.73228],[-105.62299,37.73244],[-105.62437,37.7309],[-105.62332,37.72919],[-105.62088,37.72903]]]},"properties":{"cell":"89268aaa36bffff","res":9,"coarsened":false,"count":1,"hv":1,"mp":0,"y0":2001,"y1":2001,"sp":[[1,1,1,0,2001,2001]]}},{"type":"Feature","geometry":{"type":"Polygon","coordinates":[[[-105.63964,37.72537],[-105.63826,37.72692],[-105.63932,37.72862],[-105.64176,37.72878],[-105.64314,37.72724],[-105.64208,37.72553],[-105.63964,37.72537]]]},"properties":{"cell":"89268aa840fffff","res":9,"coarsened":false,"count":3,"hv":3,"mp":0,"y0":2001,"y1":2020,"sp":[[0,2,2,0,2020,2020],[2,1,1,0,2001,2001]]}},{"type":"Feature","geometry":{"type":"Polygon","coordinates":[[[-105.51691,37.73841],[-105.51553,37.73995],[-105.51658,37.74166],[-105.51902,37.74182],[-105.5204,37.74028],[-105.51934,37.73857],[-105.51691,37.73841]]]},"properties":{"cell":"89268aa1ec3ffff","res":9,"coarsened":false,"count":64,"hv":64,"mp":0,"y0":2007,"y1":2026,"sp":[[0,15,15,0,2017,2026],[2,9,9,0,2020,2026],[3,8,8,0,2007,2026],[36,3,3,0,2023,2026],[27,3,3,0,2023,2024],[43,3,3,0,2026,2026],[4,2,2,0,2014,2024],[5,2,2,0,2017,2018],[66,2,2,0,2021,2025],[9,2,2,0,2019,2025],[13,1,1,0,2016,2016],[16,1,1,0,2009,2009],[49,1,1,0,2020,2020],[17,1,1,0,2020,2020],[12,1,1,0,2022,2022],[82,1,1,0,2023,2023],[85,1,1,0,2007,2007],[87,1,1,0,2024,2024],[55,1,1,0,2024,2024],[24,1,1,0,2025,2025],[28,1,1,0,2025,2025],[65,1,1,0,2019,2019],[8,1,1,0,2019,2019],[97,1,1,0,2024,2024],[100,1,1,0,2026,2026]]}},{"type":"Feature","geometry":{"type":"Polygon","coordinates":[[[-105.5252,37.72915],[-105.52382,37.73069],[-105.52487,37.7324],[-105.52731,37.73257],[-105.52869,37.73102],[-105.52764,37.72932],[-105.5252,37.72915]]]},"properties":{"cell":"89268aa1e4bffff","res":9,"coarsened":false,"count":2,"hv":2,"mp":0,"y0":2014,"y1":2025,"sp":[[0,1,1,0,2014,2014],[43,1,1,0,2025,2025]]}},{"type":"Feature","geometry":{"type":"Polygon","coordinates":[[[-105.50163,37.74392],[-105.50025,37.74546],[-105.5013,37.74717],[-105.50374,37.74733],[-105.50512,37.74579],[-105.50407,37.74408],[-105.50163,37.74392]]]},"properties":{"cell":"89268aa112fffff","res":9,"coarsened":false,"count":52,"hv":52,"mp":0,"y0":2013,"y1":2026,"sp":[[0,11,11,0,2013,2026],[7,7,7,0,2014,2026],[6,5,5,0,2014,2023],[24,3,3,0,2018,2025],[39,3,3,0,2016,2019],[21,2,2,0,2018,2019],[22,2,2,0,2018,2023],[36,2,2,0,2019,2026],[38,2,2,0,2018,2019],[45,2,2,0,2020,2023],[5,1,1,0,2014,2014],[37,1,1,0,2019,2019],[15,1,1,0,2020,2020],[27,1,1,0,2021,2021],[55,1,1,0,2023,2023],[28,1,1,0,2023,2023],[89,1,1,0,2024,2024],[90,1,1,0,2016,2016],[12,1,1,0,2025,2025],[77,1,1,0,2024,2024],[51,1,1,0,2026,2026],[43,1,1,0,2026,2026],[3,1,1,0,2019,2019]]}},{"type":"Feature","geometry":{"type":"Polygon","coordinates":[[[-105.51407,37.73004],[-105.51269,37.73158],[-105.51374,37.73329],[-105.51618,37.73345],[-105.51756,37.73191],[-105.51651,37.7302],[-105.51407,37.73004]]]},"properties":{"cell":"89268aa1e0bffff","res":9,"coarsened":false,"count":13,"hv":13,"mp":0,"y0":2015,"y1":2026,"sp":[[8,4,4,0,2015,2025],[14,4,4,0,2021,2026],[9,1,1,0,2019,2019],[54,1,1,0,2020,2020],[12,1,1,0,2020,2020],[2,1,1,0,2025,2025],[47,1,1,0,2026,2026]]}},{"type":"Feature","geometry":{"type":"Polygon","coordinates":[[[-105.59277,37.7893],[-105.59139,37.79084],[-105.59244,37.79255],[-105.59488,37.79271],[-105.59626,37.79117],[-105.59521,37.78946],[-105.59277,37.7893]]]},"properties":{"cell":"89268ab8b4fffff","res":9,"coarsened":false,"count":13,"hv":13,"mp":0,"y0":2009,"y1":2020,"sp":[[0,4,4,0,2010,2018],[9,2,2,0,2014,2015],[3,2,2,0,2011,2015],[10,1,1,0,2015,2015],[14,1,1,0,2012,2012],[34,1,1,0,2009,2009],[42,1,1,0,2019,2019],[27,1,1,0,2020,2020]]}},{"type":"Feature","geometry":{"type":"Polygon","coordinates":[[[-105.54266,37.73851],[-105.54127,37.74005],[-105.54233,37.74176],[-105.54477,37.74192],[-105.54615,37.74038],[-105.54509,37.73867],[-105.54266,37.73851]]]},"properties":{"cell":"89268aa137bffff","res":9,"coarsened":false,"count":3,"hv":3,"mp":0,"y0":2010,"y1":2010,"sp":[[11,1,1,0,2010,2010],[3,1,1,0,2010,2010],[0,1,1,0,2010,2010]]}},{"type":"Feature","geometry":{"type":"Polygon","coordinates":[[[-105.5013,37.74717],[-105.49992,37.74871],[-105.50098,37.75041],[-105.50341,37.75058],[-105.5048,37.74904],[-105.50374,37.74733],[-105.5013,37.74717]]]},"properties":{"cell":"89268aa1123ffff","res":9,"coarsened":false,"count":38,"hv":38,"mp":0,"y0":2013,"y1":2026,"sp":[[12,5,5,0,2016,2022],[2,5,5,0,2022,2026],[7,4,4,0,2017,2026],[6,3,3,0,2017,2022],[0,2,2,0,2018,2021],[9,2,2,0,2013,2022],[21,2,2,0,2019,2020],[30,2,2,0,2019,2025],[24,2,2,0,2025,2026],[5,2,2,0,2022,2026],[32,1,1,0,2013,2013],[15,1,1,0,2019,2019],[33,1,1,0,2019,2019],[22,1,1,0,2019,2019],[47,1,1,0,2021,2021],[4,1,1,0,2017,2017],[3,1,1,0,2025,2025],[85,1,1,0,2026,2026],[8,1,1,0,2026,2026]]}},{"type":"Feature","geometry":{"type":"Polygon","coordinates":[[[-105.51723,37.73516],[-105.51585,37.7367],[-105.51691,37.73841],[-105.51934,37.73857],[-105.52073,37.73703],[-105.51967,37.73532],[-105.51723,37.73516]]]},"properties":{"cell":"89268aa1ecfffff","res":9,"coarsened":false,"count":34,"hv":34,"mp":0,"y0":2015,"y1":2026,"sp":[[2,5,5,0,2020,2023],[3,4,4,0,2016,2026],[0,4,4,0,2017,2025],[43,3,3,0,2021,2026],[12,2,2,0,2020,2026],[50,2,2,0,2020,2023],[9,1,1,0,2021,2021],[26,1,1,0,2022,2022],[34,1,1,0,2015,2015],[55,1,1,0,2023,2023],[67,1,1,0,2023,2023],[27,1,1,0,2023,2023],[54,1,1,0,2023,2023],[80,1,1,0,2023,2023],[81,1,1,0,2023,2023],[22,1,1,0,2025,2025],[92,1,1,0,2025,2025],[24,1,1,0,2025,2025],[39,1,1,0,2025,2025],[87,1,1,0,2026,2026]]}},{"type":"Feature","geometry":{"type":"Polygon","coordinates":[[[-105.50512,37.74579],[-105.50374,37.74733],[-105.5048,37.74904],[-105.50723,37.7492],[-105.50861,37.74766],[-105.50756,37.74595],[-105.50512,37.74579]]]},"properties":{"cell":"89268aa112bffff","res":9,"coarsened":false,"count":44,"hv":44,"mp":0,"y0":2017,"y1":2026,"sp":[[2,8,8,0,2019,2026],[0,7,7,0,2022,2026],[12,3,3,0,2018,2024],[6,3,3,0,2019,2026],[15,2,2,0,2017,2017],[38,2,2,0,2020,2025],[21,2,2,0,2019,2020],[33,2,2,0,2026,2026],[70,2,2,0,2026,2026],[29,1,1,0,2017,2017],[27,1,1,0,2019,2019],[41,1,1,0,2018,2018],[64,1,1,0,2022,2022],[22,1,1,0,2017,2017],[46,1,1,0,2017,2017],[63,1,1,0,2017,2017],[79,1,1,0,2017,2017],[36,1,1,0,2023,2023],[7,1,1,0,2025,2025],[9,1,1,0,2024,2024],[24,1,1,0,2026,2026],[30,1,1,0,2026,2026]]}},{"type":"Feature","geometry":{"type":"Polygon","coordinates":[[[-105.53775,37.78724],[-105.53637,37.78878],[-105.53743,37.79049],[-105.53986,37.79065],[-105.54125,37.78911],[-105.54019,37.78741],[-105.53775,37.78724]]]},"properties":{"cell":"89268aa1447ffff","res":9,"coarsened":false,"count":1,"hv":1,"mp":0,"y0":2017,"y1":2017,"sp":[[0,1,1,0,2017,2017]]}},{"type":"Feature","geometry":{"type":"Polygon","coordinates":[[[-105.55695,37.74274],[-105.55557,37.74428],[-105.55662,37.74599],[-105.55906,37.74616],[-105.56044,37.74461],[-105.55939,37.74291],[-105.55695,37.74274]]]},"properties":{"cell":"89268aaac83ffff","res":9,"coarsened":false,"count":1,"hv":1,"mp":0,"y0":2017,"y1":2017,"sp":[[13,1,1,0,2017,2017]]}},{"type":"Feature","geometry":{"type":"Polygon","coordinates":[[[-105.49847,37.7388],[-105.49709,37.74034],[-105.49814,37.74204],[-105.50058,37.74221],[-105.50196,37.74067],[-105.50091,37.73896],[-105.49847,37.7388]]]},"properties":{"cell":"89268aa1c4bffff","res":9,"coarsened":false,"count":1,"hv":1,"mp":0,"y0":2004,"y1":2004,"sp":[[0,1,1,0,2004,2004]]}},{"type":"Feature","geometry":{"type":"Polygon","coordinates":[[[-105.53512,37.70364],[-105.53374,37.70519],[-105.5348,37.7069],[-105.53723,37.70706],[-105.53861,37.70552],[-105.53756,37.70381],[-105.53512,37.70364]]]},"properties":{"cell":"89268aaa98fffff","res":9,"coarsened":false,"count":2,"hv":2,"mp":0,"y0":2018,"y1":2020,"sp":[[14,1,1,0,2018,2018],[0,1,1,0,2020,2020]]}},{"type":"Feature","geometry":{"type":"Polygon","coordinates":[[[-105.55584,37.68049],[-105.55446,37.68204],[-105.55551,37.68375],[-105.55795,37.68391],[-105.55933,37.68237],[-105.55828,37.68066],[-105.55584,37.68049]]]},"properties":{"cell":"89268aaab27ffff","res":9,"coarsened":false,"count":1,"hv":1,"mp":0,"y0":2017,"y1":2017,"sp":[[17,1,1,0,2017,2017]]}},{"type":"Feature","geometry":{"type":"Polygon","coordinates":[[[-105.51342,37.73654],[-105.51203,37.73808],[-105.51309,37.73978],[-105.51553,37.73995],[-105.51691,37.73841],[-105.51585,37.7367],[-105.51342,37.73654]]]},"properties":{"cell":"89268aa1ec7ffff","res":9,"coarsened":false,"count":20,"hv":20,"mp":0,"y0":2017,"y1":2026,"sp":[[0,10,10,0,2018,2026],[36,2,2,0,2021,2022],[18,1,1,0,2017,2017],[51,1,1,0,2020,2020],[12,1,1,0,2021,2021],[2,1,1,0,2021,2021],[3,1,1,0,2021,2021],[28,1,1,0,2025,2025],[99,1,1,0,2017,2017],[24,1,1,0,2026,2026]]}},{"type":"Feature","geometry":{"type":"Polygon","coordinates":[[[-105.50545,37.74254],[-105.50407,37.74408],[-105.50512,37.74579],[-105.50756,37.74595],[-105.50894,37.74441],[-105.50789,37.7427],[-105.50545,37.74254]]]},"properties":{"cell":"89268aa1e93ffff","res":9,"coarsened":false,"count":19,"hv":19,"mp":0,"y0":2009,"y1":2026,"sp":[[0,4,4,0,2009,2026],[12,4,4,0,2021,2026],[7,3,3,0,2018,2023],[1,1,1,0,2017,2017],[2,1,1,0,2017,2017],[9,1,1,0,2015,2015],[64,1,1,0,2021,2021],[6,1,1,0,2022,2022],[93,1,1,0,2025,2025],[85,1,1,0,2025,2025],[24,1,1,0,2025,2025]]}},{"type":"Feature","geometry":{"type":"Polygon","coordinates":[[[-105.51025,37.73141],[-105.50887,37.73296],[-105.50993,37.73466],[-105.51236,37.73483],[-105.51374,37.73329],[-105.51269,37.73158],[-105.51025,37.73141]]]},"properties":{"cell":"89268aa1e03ffff","res":9,"coarsened":false,"count":36,"hv":36,"mp":0,"y0":2015,"y1":2026,"sp":[[0,14,14,0,2017,2026],[2,4,4,0,2017,2026],[9,4,4,0,2017,2025],[30,2,2,0,2017,2025],[7,2,2,0,2025,2026],[3,1,1,0,2018,2018],[27,1,1,0,2019,2019],[36,1,1,0,2022,2022],[77,1,1,0,2015,2015],[8,1,1,0,2025,2025],[67,1,1,0,2025,2025],[98,1,1,0,2025,2025],[85,1,1,0,2026,2026],[102,1,1,0,2026,2026],[53,1,1,0,2026,2026]]}},{"type":"Feature","geometry":{"type":"Polygon","coordinates":[[[-105.53033,37.71477],[-105.52894,37.71632],[-105.53,37.71802],[-105.53243,37.71819],[-105.53382,37.71665],[-105.53276,37.71494],[-105.53033,37.71477]]]},"properties":{"cell":"89268aaad23ffff","res":9,"coarsened":false,"count":1,"hv":1,"mp":0,"y0":2017,"y1":2017,"sp":[[19,1,1,0,2017,2017]]}},{"type":"Feature","geometry":{"type":"Polygon","coordinates":[[[-105.45685,37.82264],[-105.45547,37.82418],[-105.45652,37.82588],[-105.45896,37.82605],[-105.46034,37.82451],[-105.45929,37.8228],[-105.45685,37.82264]]]},"properties":{"cell":"89268aa22cfffff","res":9,"coarsened":false,"count":1,"hv":1,"mp":0,"y0":2018,"y1":2018,"sp":[[20,1,1,0,2018,2018]]}},{"type":"Feature","geometry":{"type":"Polygon","coordinates":[[[-105.50894,37.74441],[-105.50756,37.74595],[-105.50861,37.74766],[-105.51105,37.74783],[-105.51243,37.74628],[-105.51138,37.74458],[-105.50894,37.74441]]]},"properties":{"cell":"89268aa1167ffff","res":9,"coarsened":false,"count":11,"hv":11,"mp":0,"y0":2014,"y1":2026,"sp":[[0,5,5,0,2014,2026],[2,2,2,0,2018,2018],[35,2,2,0,2021,2025],[33,1,1,0,2023,2023],[7,1,1,0,2025,2025]]}},{"type":"Feature","geometry":{"type":"Polygon","coordinates":[[[-105.4965,37.75829],[-105.49512,37.75983],[-105.49617,37.76154],[-105.49861,37.7617],[-105.49999,37.76016],[-105.49894,37.75845],[-105.4965,37.75829]]]},"properties":{"cell":"89268aa11b3ffff","res":9,"coarsened":false,"count":3,"hv":3,"mp":0,"y0":2017,"y1":2025,"sp":[[9,1,1,0,2017,2017],[0,1,1,0,2025,2025],[39,1,1,0,2025,2025]]}},{"type":"Feature","geometry":{"type":"Polygon","coordinates":[[[-105.49868,37.77316],[-105.4973,37.7747],[-105.49835,37.7764],[-105.50079,37.77657],[-105.50217,37.77503],[-105.50112,37.77332],[-105.49868,37.77316]]]},"properties":{"cell":"89268aa1533ffff","res":9,"coarsened":false,"count":6,"hv":6,"mp":0,"y0":2017,"y1":2025,"sp":[[0,1,1,0,2017,2017],[22,1,1,0,2025,2025],[92,1,1,0,2025,2025],[15,1,1,0,2025,2025],[67,1,1,0,2025,2025],[8,1,1,0,2025,2025]]}},{"type":"Feature","geometry":{"type":"Polygon","coordinates":[[[-105.50665,37.76715],[-105.50526,37.7687],[-105.50632,37.7704],[-105.50876,37.77057],[-105.51014,37.76903],[-105.50908,37.76732],[-105.50665,37.76715]]]},"properties":{"cell":"89268aa1567ffff","res":9,"coarsened":false,"count":1,"hv":1,"mp":0,"y0":2017,"y1":2017,"sp":[[17,1,1,0,2017,2017]]}},{"type":"Feature","geometry":{"type":"Polygon","coordinates":[[[-105.50316,37.76528],[-105.50177,37.76682],[-105.50283,37.76853],[-105.50526,37.7687],[-105.50665,37.76715],[-105.50559,37.76545],[-105.50316,37.76528]]]},"properties":{"cell":"89268aa1193ffff","res":9,"coarsened":false,"count":1,"hv":1,"mp":0,"y0":2017,"y1":2017,"sp":[[19,1,1,0,2017,2017]]}},{"type":"Feature","geometry":{"type":"Polygon","coordinates":[[[-105.49584,37.76479],[-105.49446,37.76633],[-105.49552,37.76804],[-105.49795,37.7682],[-105.49934,37.76666],[-105.49828,37.76495],[-105.49584,37.76479]]]},"properties":{"cell":"89268aa025bffff","res":9,"coarsened":false,"count":1,"hv":1,"mp":0,"y0":2017,"y1":2017,"sp":[[9,1,1,0,2017,2017]]}},{"type":"Feature","geometry":{"type":"Polygon","coordinates":[[[-105.50348,37.76203],[-105.5021,37.76358],[-105.50316,37.76528],[-105.50559,37.76545],[-105.50697,37.7639],[-105.50592,37.7622],[-105.50348,37.76203]]]},"properties":{"cell":"89268aa1183ffff","res":9,"coarsened":false,"count":1,"hv":1,"mp":0,"y0":2017,"y1":2017,"sp":[[9,1,1,0,2017,2017]]}},{"type":"Feature","geometry":{"type":"Polygon","coordinates":[[[-105.49999,37.76016],[-105.49861,37.7617],[-105.49966,37.76341],[-105.5021,37.76358],[-105.50348,37.76203],[-105.50243,37.76033],[-105.49999,37.76016]]]},"properties":{"cell":"89268aa1187ffff","res":9,"coarsened":false,"count":4,"hv":4,"mp":0,"y0":2017,"y1":2025,"sp":[[7,2,2,0,2025,2025],[9,1,1,0,2017,2017],[39,1,1,0,2025,2025]]}},{"type":"Feature","geometry":{"type":"Polygon","coordinates":[[[-105.46989,37.73031],[-105.46851,37.73185],[-105.46956,37.73356],[-105.472,37.73373],[-105.47338,37.73219],[-105.47233,37.73048],[-105.46989,37.73031]]]},"properties":{"cell":"89268aa1d53ffff","res":9,"coarsened":false,"count":1,"hv":1,"mp":0,"y0":2018,"y1":2018,"sp":[[25,1,1,0,2018,2018]]}},{"type":"Feature","geometry":{"type":"Polygon","coordinates":[[[-105.50643,37.73279],[-105.50505,37.73433],[-105.50611,37.73604],[-105.50854,37.73621],[-105.50993,37.73466],[-105.50887,37.73296],[-105.50643,37.73279]]]},"properties":{"cell":"89268aa1e17ffff","res":9,"coarsened":false,"count":41,"hv":41,"mp":0,"y0":2018,"y1":2026,"sp":[[0,5,5,0,2022,2025],[28,4,4,0,2018,2025],[38,3,3,0,2025,2026],[33,2,2,0,2019,2023],[43,2,2,0,2020,2024],[76,2,2,0,2022,2024],[27,2,2,0,2024,2025],[2,2,2,0,2025,2025],[7,2,2,0,2025,2026],[3,2,2,0,2026,2026],[24,1,1,0,2018,2018],[44,1,1,0,2020,2020],[39,1,1,0,2020,2020],[67,1,1,0,2021,2021],[73,1,1,0,2022,2022],[74,1,1,0,2022,2022],[75,1,1,0,2022,2022],[54,1,1,0,2023,2023],[50,1,1,0,2023,2023],[78,1,1,0,2025,2025],[5,1,1,0,2025,2025],[47,1,1,0,2025,2025],[45,1,1,0,2025,2025],[89,1,1,0,2026,2026],[9,1,1,0,2026,2026]]}},{"type":"Feature","geometry":{"type":"Polygon","coordinates":[[[-105.68448,37.71853],[-105.6831,37.72008],[-105.68415,37.72178],[-105.68659,37.72194],[-105.68797,37.7204],[-105.68691,37.71869],[-105.68448,37.71853]]]},"properties":{"cell":"89268aa9597ffff","res":9,"coarsened":false,"count":1,"hv":1,"mp":0,"y0":2010,"y1":2010,"sp":[[26,1,1,0,2010,2010]]}},{"type":"Feature","geometry":{"type":"Polygon","coordinates":[[[-105.51243,37.74628],[-105.51105,37.74783],[-105.51211,37.74953],[-105.51454,37.7497],[-105.51592,37.74815],[-105.51487,37.74645],[-105.51243,37.74628]]]},"properties":{"cell":"89268aa1163ffff","res":9,"coarsened":false,"count":2,"hv":2,"mp":0,"y0":2013,"y1":2020,"sp":[[27,1,1,0,2013,2013],[52,1,1,0,2020,2020]]}},{"type":"Feature","geometry":{"type":"Polygon","coordinates":[[[-105.67781,37.71155],[-105.67643,37.71309],[-105.67749,37.7148],[-105.67992,37.71496],[-105.6813,37.71341],[-105.68025,37.71171],[-105.67781,37.71155]]]},"properties":{"cell":"89268aa95b7ffff","res":9,"coarsened":false,"count":1,"hv":1,"mp":0,"y0":2017,"y1":2017,"sp":[[31,1,1,0,2017,2017]]}},{"type":"Feature","geometry":{"type":"Polygon","coordinates":[[[-105.50032,37.75691],[-105.49894,37.75845],[-105.49999,37.76016],[-105.50243,37.76033],[-105.50381,37.75878],[-105.50276,37.75708],[-105.50032,37.75691]]]},"properties":{"cell":"89268aa11bbffff","res":9,"coarsened":false,"count":1,"hv":1,"mp":0,"y0":2019,"y1":2019,"sp":[[26,1,1,0,2019,2019]]}},{"type":"Feature","geometry":{"type":"Polygon","coordinates":[[[-105.50098,37.75041],[-105.49959,37.75196],[-105.50065,37.75366],[-105.50308,37.75383],[-105.50447,37.75229],[-105.50341,37.75058],[-105.50098,37.75041]]]},"properties":{"cell":"89268aa1133ffff","res":9,"coarsened":false,"count":6,"hv":6,"mp":0,"y0":2019,"y1":2026,"sp":[[0,2,2,0,2022,2024],[7,1,1,0,2019,2019],[39,1,1,0,2019,2019],[15,1,1,0,2025,2025],[2,1,1,0,2026,2026]]}},{"type":"Feature","geometry":{"type":"Polygon","coordinates":[[[-105.6813,37.71341],[-105.67992,37.71496],[-105.68098,37.71666],[-105.68342,37.71682],[-105.6848,37.71528],[-105.68374,37.71357],[-105.6813,37.71341]]]},"properties":{"cell":"89268aa95b3ffff","res":9,"coarsened":false,"count":3,"hv":3,"mp":0,"y0":2019,"y1":2023,"sp":[[10,2,2,0,2019,2023],[35,1,1,0,2023,2023]]}},{"type":"Feature","geometry":{"type":"Polygon","coordinates":[[[-105.51952,37.93145],[-105.51813,37.93299],[-105.51919,37.93469],[-105.52163,37.93486],[-105.52302,37.93332],[-105.52196,37.93161],[-105.51952,37.93145]]]},"properties":{"cell":"89268ab10c7ffff","res":9,"coarsened":false,"count":1,"hv":1,"mp":0,"y0":2019,"y1":2019,"sp":[[20,1,1,0,2019,2019]]}},{"type":"Feature","geometry":{"type":"Polygon","coordinates":[[[-105.52619,37.93843],[-105.5248,37.93997],[-105.52586,37.94168],[-105.5283,37.94184],[-105.52968,37.9403],[-105.52863,37.9386],[-105.52619,37.93843]]]},"properties":{"cell":"89268ab16a7ffff","res":9,"coarsened":false,"count":1,"hv":1,"mp":0,"y0":2019,"y1":2019,"sp":[[0,1,1,0,2019,2019]]}},{"type":"Feature","geometry":{"type":"Polygon","coordinates":[[[-105.56412,37.67123],[-105.56274,37.67278],[-105.5638,37.67448],[-105.56623,37.67465],[-105.56761,37.6731],[-105.56656,37.6714],[-105.56412,37.67123]]]},"properties":{"cell":"89268aa8d8fffff","res":9,"coarsened":false,"count":1,"hv":1,"mp":0,"y0":2019,"y1":2019,"sp":[[26,1,1,0,2019,2019]]}},{"type":"Feature","geometry":{"type":"Polygon","coordinates":[[[-105.51876,37.75652],[-105.51738,37.75807],[-105.51843,37.75977],[-105.52087,37.75994],[-105.52225,37.7584],[-105.5212,37.75669],[-105.51876,37.75652]]]},"properties":{"cell":"89268aa1153ffff","res":9,"coarsened":false,"count":1,"hv":1,"mp":0,"y0":2019,"y1":2019,"sp":[[35,1,1,0,2019,2019]]}},{"type":"Feature","geometry":{"type":"Polygon","coordinates":[[[-105.53087,37.74589],[-105.52949,37.74744],[-105.53055,37.74914],[-105.53298,37.74931],[-105.53436,37.74776],[-105.53331,37.74606],[-105.53087,37.74589]]]},"properties":{"cell":"89268aa1317ffff","res":9,"coarsened":false,"count":1,"hv":1,"mp":0,"y0":2017,"y1":2017,"sp":[[36,1,1,0,2017,2017]]}},{"type":"Feature","geometry":{"type":"Polygon","coordinates":[[[-105.62038,37.66027],[-105.619,37.66181],[-105.62006,37.66352],[-105.62249,37.66368],[-105.62387,37.66214],[-105.62282,37.66043],[-105.62038,37.66027]]]},"properties":{"cell":"89268aa8e67ffff","res":9,"coarsened":false,"count":1,"hv":1,"mp":0,"y0":2019,"y1":2019,"sp":[[17,1,1,0,2019,2019]]}},{"type":"Feature","geometry":{"type":"Polygon","coordinates":[[[-105.51309,37.73978],[-105.51171,37.74133],[-105.51276,37.74303],[-105.5152,37.7432],[-105.51658,37.74166],[-105.51553,37.73995],[-105.51309,37.73978]]]},"properties":{"cell":"89268aa1ed7ffff","res":9,"coarsened":false,"count":9,"hv":9,"mp":0,"y0":2014,"y1":2026,"sp":[[0,4,4,0,2014,2026],[12,1,1,0,2020,2020],[61,1,1,0,2015,2015],[36,1,1,0,2017,2017],[34,1,1,0,2024,2024],[15,1,1,0,2026,2026]]}},{"type":"Feature","geometry":{"type":"Polygon","coordinates":[[[-105.51374,37.73329],[-105.51236,37.73483],[-105.51342,37.73654],[-105.51585,37.7367],[-105.51723,37.73516],[-105.51618,37.73345],[-105.51374,37.73329]]]},"properties":{"cell":"89268aa1e1bffff","res":9,"coarsened":false,"count":4,"hv":4,"mp":0,"y0":2019,"y1":2025,"sp":[[6,1,1,0,2019,2019],[8,1,1,0,2021,2021],[54,1,1,0,2025,2025],[17,1,1,0,2025,2025]]}},{"type":"Feature","geometry":{"type":"Polygon","coordinates":[[[-105.43859,37.85735],[-105.43721,37.85889],[-105.43826,37.86059],[-105.4407,37.86076],[-105.44208,37.85922],[-105.44103,37.85751],[-105.43859,37.85735]]]},"properties":{"cell":"89268ab1923ffff","res":9,"coarsened":false,"count":1,"hv":1,"mp":0,"y0":2019,"y1":2019,"sp":[[40,1,1,0,2019,2019]]}},{"type":"Feature","geometry":{"type":"Polygon","coordinates":[[[-105.48426,37.80652],[-105.48288,37.80806],[-105.48393,37.80976],[-105.48637,37.80993],[-105.48775,37.80839],[-105.4867,37.80668],[-105.48426,37.80652]]]},"properties":{"cell":"89268aa3147ffff","res":9,"coarsened":false,"count":5,"hv":5,"mp":0,"y0":2008,"y1":2026,"sp":[[20,5,5,0,2008,2026]]}},{"type":"Feature","geometry":{"type":"Polygon","coordinates":[[[-105.52269,37.71753],[-105.52131,37.71907],[-105.52236,37.72078],[-105.5248,37.72095],[-105.52618,37.7194],[-105.52513,37.7177],[-105.52269,37.71753]]]},"properties":{"cell":"89268aa1adbffff","res":9,"coarsened":false,"count":2,"hv":2,"mp":0,"y0":2019,"y1":2022,"sp":[[9,1,1,0,2019,2019],[17,1,1,0,2022,2022]]}},{"type":"Feature","geometry":{"type":"Polygon","coordinates":[[[-105.50861,37.74766],[-105.50723,37.7492],[-105.50829,37.75091],[-105.51072,37.75107],[-105.51211,37.74953],[-105.51105,37.74783],[-105.50861,37.74766]]]},"properties":{"cell":"89268aa1177ffff","res":9,"coarsened":false,"count":2,"hv":2,"mp":0,"y0":2016,"y1":2025,"sp":[[2,1,1,0,2016,2016],[6,1,1,0,2025,2025]]}},{"type":"Feature","geometry":{"type":"Polygon","coordinates":[[[-105.50294,37.73092],[-105.50156,37.73246],[-105.50262,37.73417],[-105.50505,37.73433],[-105.50643,37.73279],[-105.50538,37.73108],[-105.50294,37.73092]]]},"properties":{"cell":"89268aa1eabffff","res":9,"coarsened":false,"count":12,"hv":12,"mp":0,"y0":2018,"y1":2026,"sp":[[38,2,2,0,2023,2024],[46,1,1,0,2020,2020],[55,1,1,0,2020,2020],[63,1,1,0,2024,2024],[60,1,1,0,2018,2018],[43,1,1,0,2025,2025],[28,1,1,0,2025,2025],[39,1,1,0,2025,2025],[89,1,1,0,2026,2026],[6,1,1,0,2026,2026],[19,1,1,0,2026,2026]]}},{"type":"Feature","geometry":{"type":"Polygon","coordinates":[[[-105.50229,37.73742],[-105.50091,37.73896],[-105.50196,37.74067],[-105.5044,37.74083],[-105.50578,37.73929],[-105.50472,37.73758],[-105.50229,37.73742]]]},"properties":{"cell":"89268aa1e87ffff","res":9,"coarsened":false,"count":8,"hv":8,"mp":0,"y0":2020,"y1":2026,"sp":[[47,2,2,0,2020,2025],[38,2,2,0,2025,2025],[7,1,1,0,2023,2023],[76,1,1,0,2023,2023],[85,1,1,0,2025,2025],[0,1,1,0,2026,2026]]}},{"type":"Feature","geometry":{"type":"Polygon","coordinates":[[[-105.53894,37.70227],[-105.53756,37.70381],[-105.53861,37.70552],[-105.54105,37.70568],[-105.54243,37.70414],[-105.54138,37.70243],[-105.53894,37.70227]]]},"properties":{"cell":"89268aaa913ffff","res":9,"coarsened":false,"count":2,"hv":2,"mp":0,"y0":2019,"y1":2023,"sp":[[14,1,1,0,2019,2019],[0,1,1,0,2023,2023]]}},{"type":"Feature","geometry":{"type":"Polygon","coordinates":[[[-105.54396,37.72551],[-105.54258,37.72705],[-105.54364,37.72876],[-105.54607,37.72892],[-105.54745,37.72738],[-105.5464,37.72567],[-105.54396,37.72551]]]},"properties":{"cell":"89268aaadcfffff","res":9,"coarsened":false,"count":1,"hv":1,"mp":0,"y0":2020,"y1":2020,"sp":[[15,1,1,0,2020,2020]]}},{"type":"Feature","geometry":{"type":"Polygon","coordinates":[[[-105.53218,37.73289],[-105.5308,37.73444],[-105.53185,37.73614],[-105.53429,37.73631],[-105.53567,37.73477],[-105.53462,37.73306],[-105.53218,37.73289]]]},"properties":{"cell":"89268aaad93ffff","res":9,"coarsened":false,"count":1,"hv":1,"mp":0,"y0":2020,"y1":2020,"sp":[[48,1,1,0,2020,2020]]}},{"type":"Feature","geometry":{"type":"Polygon","coordinates":[[[-105.51822,37.72541],[-105.51684,37.72695],[-105.51789,37.72866],[-105.52033,37.72882],[-105.52171,37.72728],[-105.52065,37.72557],[-105.51822,37.72541]]]},"properties":{"cell":"89268aa1e7bffff","res":9,"coarsened":false,"count":5,"hv":5,"mp":0,"y0":2020,"y1":2025,"sp":[[0,1,1,0,2020,2020],[17,1,1,0,2023,2023],[9,1,1,0,2025,2025],[30,1,1,0,2025,2025],[77,1,1,0,2025,2025]]}},{"type":"Feature","geometry":{"type":"Polygon","coordinates":[[[-105.51276,37.74303],[-105.51138,37.74458],[-105.51243,37.74628],[-105.51487,37.74645],[-105.51625,37.74491],[-105.5152,37.7432],[-105.51276,37.74303]]]},"properties":{"cell":"89268aa116fffff","res":9,"coarsened":false,"count":5,"hv":5,"mp":0,"y0":2010,"y1":2025,"sp":[[32,1,1,0,2020,2020],[2,1,1,0,2020,2020],[12,1,1,0,2020,2020],[54,1,1,0,2010,2010],[0,1,1,0,2025,2025]]}},{"type":"Feature","geometry":{"type":"Polygon","coordinates":[[[-105.50578,37.73929],[-105.5044,37.74083],[-105.50545,37.74254],[-105.50789,37.7427],[-105.50927,37.74116],[-105.50822,37.73945],[-105.50578,37.73929]]]},"properties":{"cell":"89268aa1e83ffff","res":9,"coarsened":false,"count":6,"hv":6,"mp":0,"y0":2020,"y1":2025,"sp":[[0,2,2,0,2023,2024],[12,1,1,0,2020,2020],[103,1,1,0,2025,2025],[104,1,1,0,2025,2025],[38,1,1,0,2025,2025]]}},{"type":"Feature","geometry":{"type":"Polygon","coordinates":[[[-105.5052,37.92722],[-105.50382,37.92876],[-105.50487,37.93046],[-105.50731,37.93063],[-105.5087,37.92909],[-105.50764,37.92738],[-105.5052,37.92722]]]},"properties":{"cell":"89268ab10a3ffff","res":9,"coarsened":false,"count":1,"hv":1,"mp":0,"y0":2020,"y1":2020,"sp":[[21,1,1,0,2020,2020]]}},{"type":"Feature","geometry":{"type":"Polygon","coordinates":[[[-105.60715,37.75592],[-105.60577,37.75746],[-105.60683,37.75917],[-105.60927,37.75933],[-105.61065,37.75779],[-105.60959,37.75608],[-105.60715,37.75592]]]},"properties":{"cell":"89268aaa03bffff","res":9,"coarsened":false,"count":1,"hv":1,"mp":0,"y0":1977,"y1":1977,"sp":[[0,1,1,0,1977,1977]]}},{"type":"Feature","geometry":{"type":"Polygon","coordinates":[[[-105.58033,37.80318],[-105.57895,37.80472],[-105.58001,37.80643],[-105.58245,37.80659],[-105.58383,37.80505],[-105.58277,37.80335],[-105.58033,37.80318]]]},"properties":{"cell":"89268ab8b9bffff","res":9,"coarsened":false,"count":1,"hv":1,"mp":0,"y0":2020,"y1":2020,"sp":[[9,1,1,0,2020,2020]]}},{"type":"Feature","geometry":{"type":"Polygon","coordinates":[[[-105.51112,37.75928],[-105.50974,37.76082],[-105.51079,37.76253],[-105.51323,37.76269],[-105.51461,37.76115],[-105.51356,37.75944],[-105.51112,37.75928]]]},"properties":{"cell":"89268aa11c7ffff","res":9,"coarsened":false,"count":1,"hv":1,"mp":0,"y0":2020,"y1":2020,"sp":[[30,1,1,0,2020,2020]]}},{"type":"Feature","geometry":{"type":"Polygon","coordinates":[[[-105.59099,37.73358],[-105.58961,37.73512],[-105.59066,37.73683],[-105.5931,37.73699],[-105.59448,37.73544],[-105.59342,37.73374],[-105.59099,37.73358]]]},"properties":{"cell":"89268aaaed7ffff","res":9,"coarsened":false,"count":1,"hv":1,"mp":0,"y0":2020,"y1":2020,"sp":[[5,1,1,0,2020,2020]]}},{"type":"Feature","geometry":{"type":"Polygon","coordinates":[[[-105.59724,37.78142],[-105.59586,37.78297],[-105.59692,37.78467],[-105.59935,37.78484],[-105.60073,37.78329],[-105.59968,37.78159],[-105.59724,37.78142]]]},"properties":{"cell":"89268aaa4afffff","res":9,"coarsened":false,"count":1,"hv":1,"mp":0,"y0":2020,"y1":2020,"sp":[[3,1,1,0,2020,2020]]}},{"type":"Feature","geometry":{"type":"Polygon","coordinates":[[[-105.50993,37.73466],[-105.50854,37.73621],[-105.5096,37.73791],[-105.51203,37.73808],[-105.51342,37.73654],[-105.51236,37.73483],[-105.50993,37.73466]]]},"properties":{"cell":"89268aa1e13ffff","res":9,"coarsened":false,"count":3,"hv":3,"mp":0,"y0":2020,"y1":2026,"sp":[[0,2,2,0,2025,2026],[17,1,1,0,2020,2020]]}},{"type":"Feature","geometry":{"type":"Polygon","coordinates":[[[-105.52236,37.72078],[-105.52098,37.72232],[-105.52204,37.72403],[-105.52447,37.7242],[-105.52585,37.72265],[-105.5248,37.72095],[-105.52236,37.72078]]]},"properties":{"cell":"89268aaada7ffff","res":9,"coarsened":false,"count":3,"hv":3,"mp":0,"y0":2020,"y1":2026,"sp":[[0,2,2,0,2022,2026],[36,1,1,0,2020,2020]]}},{"type":"Feature","geometry":{"type":"Polygon","coordinates":[[[-105.51461,37.76115],[-105.51323,37.76269],[-105.51429,37.7644],[-105.51672,37.76456],[-105.51811,37.76302],[-105.51705,37.76132],[-105.51461,37.76115]]]},"properties":{"cell":"89268aa11c3ffff","res":9,"coarsened":false,"count":1,"hv":1,"mp":0,"y0":2021,"y1":2021,"sp":[[7,1,1,0,2021,2021]]}},{"type":"Feature","geometry":{"type":"Polygon","coordinates":[[[-105.64766,37.68173],[-105.64629,37.68327],[-105.64734,37.68498],[-105.64978,37.68514],[-105.65116,37.6836],[-105.6501,37.68189],[-105.64766,37.68173]]]},"properties":{"cell":"89268aa830bffff","res":9,"coarsened":false,"count":13,"hv":13,"mp":0,"y0":2021,"y1":2021,"sp":[[5,1,1,0,2021,2021],[26,1,1,0,2021,2021],[56,1,1,0,2021,2021],[57,1,1,0,2021,2021],[58,1,1,0,2021,2021],[9,1,1,0,2021,2021],[10,1,1,0,2021,2021],[17,1,1,0,2021,2021],[59,1,1,0,2021,2021],[31,1,1,0,2021,2021],[60,1,1,0,2021,2021],[8,1,1,0,2021,2021],[62,1,1,0,2021,2021]]}},{"type":"Feature","geometry":{"type":"Polygon","coordinates":[[[-105.67082,37.70781],[-105.66944,37.70935],[-105.6705,37.71106],[-105.67294,37.71122],[-105.67432,37.70968],[-105.67326,37.70797],[-105.67082,37.70781]]]},"properties":{"cell":"89268aa866fffff","res":9,"coarsened":false,"count":1,"hv":1,"mp":0,"y0":2021,"y1":2021,"sp":[[10,1,1,0,2021,2021]]}},{"type":"Feature","geometry":{"type":"Polygon","coordinates":[[[-105.53884,37.73989],[-105.53746,37.74143],[-105.53851,37.74314],[-105.54095,37.7433],[-105.54233,37.74176],[-105.54127,37.74005],[-105.53884,37.73989]]]},"properties":{"cell":"89268aa1373ffff","res":9,"coarsened":false,"count":1,"hv":1,"mp":0,"y0":2011,"y1":2011,"sp":[[0,1,1,0,2011,2011]]}},{"type":"Feature","geometry":{"type":"Polygon","coordinates":[[[-105.56691,37.8268],[-105.56553,37.82835],[-105.56659,37.83005],[-105.56903,37.83021],[-105.57041,37.82867],[-105.56935,37.82697],[-105.56691,37.8268]]]},"properties":{"cell":"89268ab8d5bffff","res":9,"coarsened":false,"count":1,"hv":1,"mp":0,"y0":2021,"y1":2021,"sp":[[25,1,1,0,2021,2021]]}},{"type":"Feature","geometry":{"type":"Polygon","coordinates":[[[-105.48286,37.74755],[-105.48148,37.74909],[-105.48254,37.7508],[-105.48497,37.75097],[-105.48636,37.74942],[-105.4853,37.74772],[-105.48286,37.74755]]]},"properties":{"cell":"89268aa1c8bffff","res":9,"coarsened":false,"count":1,"hv":1,"mp":0,"y0":2021,"y1":2021,"sp":[[63,1,1,0,2021,2021]]}},{"type":"Feature","geometry":{"type":"Polygon","coordinates":[[[-105.72135,37.71769],[-105.71997,37.71924],[-105.72103,37.72094],[-105.72347,37.7211],[-105.72485,37.71956],[-105.72379,37.71785],[-105.72135,37.71769]]]},"properties":{"cell":"89268aa9473ffff","res":9,"coarsened":false,"count":1,"hv":1,"mp":0,"y0":2021,"y1":2021,"sp":[[62,1,1,0,2021,2021]]}},{"type":"Feature","geometry":{"type":"Polygon","coordinates":[[[-105.50927,37.74116],[-105.50789,37.7427],[-105.50894,37.74441],[-105.51138,37.74458],[-105.51276,37.74303],[-105.51171,37.74133],[-105.50927,37.74116]]]},"properties":{"cell":"89268aa1e9bffff","res":9,"coarsened":false,"count":1,"hv":1,"mp":0,"y0":2021,"y1":2021,"sp":[[0,1,1,0,2021,2021]]}},{"type":"Feature","geometry":{"type":"Polygon","coordinates":[[[-105.5096,37.73791],[-105.50822,37.73945],[-105.50927,37.74116],[-105.51171,37.74133],[-105.51309,37.73978],[-105.51203,37.73808],[-105.5096,37.73791]]]},"properties":{"cell":"89268aa1e8bffff","res":9,"coarsened":false,"count":2,"hv":2,"mp":0,"y0":2021,"y1":2021,"sp":[[0,2,2,0,2021,2021]]}},{"type":"Feature","geometry":{"type":"Polygon","coordinates":[[[-105.52007,37.74353],[-105.51869,37.74507],[-105.51974,37.74678],[-105.52218,37.74694],[-105.52356,37.7454],[-105.52251,37.74369],[-105.52007,37.74353]]]},"properties":{"cell":"89268aa13a7ffff","res":9,"coarsened":false,"count":3,"hv":3,"mp":0,"y0":2021,"y1":2026,"sp":[[36,2,2,0,2023,2026],[65,1,1,0,2021,2021]]}},{"type":"Feature","geometry":{"type":"Polygon","coordinates":[[[-105.54145,37.71389],[-105.54007,37.71543],[-105.54112,37.71714],[-105.54356,37.7173],[-105.54494,37.71576],[-105.54389,37.71405],[-105.54145,37.71389]]]},"properties":{"cell":"89268aaad63ffff","res":9,"coarsened":false,"count":1,"hv":1,"mp":0,"y0":2021,"y1":2021,"sp":[[14,1,1,0,2021,2021]]}},{"type":"Feature","geometry":{"type":"Polygon","coordinates":[[[-105.51658,37.74166],[-105.5152,37.7432],[-105.51625,37.74491],[-105.51869,37.74507],[-105.52007,37.74353],[-105.51902,37.74182],[-105.51658,37.74166]]]},"properties":{"cell":"89268aa1ed3ffff","res":9,"coarsened":false,"count":2,"hv":2,"mp":0,"y0":2021,"y1":2023,"sp":[[68,1,1,0,2021,2021],[36,1,1,0,2023,2023]]}},{"type":"Feature","geometry":{"type":"Polygon","coordinates":[[[-105.46515,37.81339],[-105.46377,37.81493],[-105.46482,37.81664],[-105.46726,37.8168],[-105.46865,37.81526],[-105.46759,37.81356],[-105.46515,37.81339]]]},"properties":{"cell":"89268aa31b3ffff","res":9,"coarsened":false,"count":2,"hv":2,"mp":0,"y0":2021,"y1":2022,"sp":[[69,1,1,0,2021,2021],[20,1,1,0,2022,2022]]}},{"type":"Feature","geometry":{"type":"Polygon","coordinates":[[[-105.65976,37.67107],[-105.65838,37.67262],[-105.65943,37.67433],[-105.66187,37.67449],[-105.66325,37.67294],[-105.66219,37.67124],[-105.65976,37.67107]]]},"properties":{"cell":"89268aa9cafffff","res":9,"coarsened":false,"count":1,"hv":1,"mp":0,"y0":2021,"y1":2021,"sp":[[26,1,1,0,2021,2021]]}},{"type":"Feature","geometry":{"type":"Polygon","coordinates":[[[-105.55672,37.70837],[-105.55534,37.70992],[-105.55639,37.71162],[-105.55883,37.71179],[-105.56021,37.71024],[-105.55916,37.70854],[-105.55672,37.70837]]]},"properties":{"cell":"89268aaa833ffff","res":9,"coarsened":false,"count":1,"hv":1,"mp":0,"y0":2014,"y1":2014,"sp":[[26,1,1,0,2014,2014]]}},{"type":"Feature","geometry":{"type":"Polygon","coordinates":[[[-105.57619,37.80781],[-105.5748,37.80935],[-105.57586,37.81106],[-105.5783,37.81122],[-105.57968,37.80968],[-105.57862,37.80797],[-105.57619,37.80781]]]},"properties":{"cell":"89268ab882bffff","res":9,"coarsened":false,"count":7,"hv":7,"mp":0,"y0":2021,"y1":2022,"sp":[[70,1,1,0,2021,2021],[15,1,1,0,2021,2021],[7,1,1,0,2022,2022],[33,1,1,0,2022,2022],[17,1,1,0,2022,2022],[6,1,1,0,2022,2022],[38,1,1,0,2022,2022]]}},{"type":"Feature","geometry":{"type":"Polygon","coordinates":[[[-105.59626,37.79117],[-105.59488,37.79271],[-105.59594,37.79442],[-105.59838,37.79458],[-105.59976,37.79304],[-105.5987,37.79133],[-105.59626,37.79117]]]},"properties":{"cell":"89268ab8b4bffff","res":9,"coarsened":false,"count":1,"hv":1,"mp":0,"y0":2021,"y1":2021,"sp":[[38,1,1,0,2021,2021]]}},{"type":"Feature","geometry":{"type":"Polygon","coordinates":[[[-105.49945,37.72905],[-105.49807,37.73059],[-105.49913,37.7323],[-105.50156,37.73246],[-105.50294,37.73092],[-105.50189,37.72921],[-105.49945,37.72905]]]},"properties":{"cell":"89268aa1eafffff","res":9,"coarsened":false,"count":2,"hv":2,"mp":0,"y0":2021,"y1":2023,"sp":[[60,2,2,0,2021,2023]]}},{"type":"Feature","geometry":{"type":"Polygon","coordinates":[[[-105.4772,37.73081],[-105.47582,37.73235],[-105.47687,37.73406],[-105.47931,37.73422],[-105.48069,37.73268],[-105.47963,37.73097],[-105.4772,37.73081]]]},"properties":{"cell":"89268aa1c2fffff","res":9,"coarsened":false,"count":3,"hv":3,"mp":0,"y0":2021,"y1":2026,"sp":[[21,1,1,0,2021,2021],[45,1,1,0,2026,2026],[27,1,1,0,2026,2026]]}},{"type":"Feature","geometry":{"type":"Polygon","coordinates":[[[-105.5144,37.72679],[-105.51302,37.72833],[-105.51407,37.73004],[-105.51651,37.7302],[-105.51789,37.72866],[-105.51684,37.72695],[-105.5144,37.72679]]]},"properties":{"cell":"89268aa1e73ffff","res":9,"coarsened":false,"count":3,"hv":3,"mp":0,"y0":2021,"y1":2026,"sp":[[14,3,3,0,2021,2026]]}},{"type":"Feature","geometry":{"type":"Polygon","coordinates":[[[-105.47662,37.80927],[-105.47523,37.81081],[-105.47629,37.81251],[-105.47873,37.81268],[-105.48011,37.81114],[-105.47906,37.80943],[-105.47662,37.80927]]]},"properties":{"cell":"89268aa3103ffff","res":9,"coarsened":false,"count":1,"hv":1,"mp":0,"y0":2021,"y1":2021,"sp":[[25,1,1,0,2021,2021]]}},{"type":"Feature","geometry":{"type":"Polygon","coordinates":[[[-105.50632,37.7704],[-105.50494,37.77194],[-105.50599,37.77365],[-105.50843,37.77382],[-105.50981,37.77227],[-105.50876,37.77057],[-105.50632,37.7704]]]},"properties":{"cell":"89268aa1577ffff","res":9,"coarsened":false,"count":2,"hv":2,"mp":0,"y0":2021,"y1":2021,"sp":[[0,1,1,0,2021,2021],[22,1,1,0,2021,2021]]}},{"type":"Feature","geometry":{"type":"Polygon","coordinates":[[[-105.61536,37.78427],[-105.61398,37.78581],[-105.61504,37.78752],[-105.61748,37.78768],[-105.61886,37.78614],[-105.6178,37.78443],[-105.61536,37.78427]]]},"properties":{"cell":"89268aaa457ffff","res":9,"coarsened":false,"count":1,"hv":1,"mp":0,"y0":2021,"y1":2021,"sp":[[0,1,1,0,2021,2021]]}},{"type":"Feature","geometry":{"type":"Polygon","coordinates":[[[-105.53067,37.93057],[-105.52928,37.93211],[-105.53034,37.93381],[-105.53278,37.93398],[-105.53417,37.93244],[-105.53311,37.93073],[-105.53067,37.93057]]]},"properties":{"cell":"89268ab1627ffff","res":9,"coarsened":false,"count":1,"hv":1,"mp":0,"y0":2020,"y1":2020,"sp":[[71,1,1,0,2020,2020]]}},{"type":"Feature","geometry":{"type":"Polygon","coordinates":[[[-105.53382,37.71665],[-105.53243,37.71819],[-105.53349,37.7199],[-105.53593,37.72006],[-105.53731,37.71852],[-105.53625,37.71681],[-105.53382,37.71665]]]},"properties":{"cell":"89268aaad3bffff","res":9,"coarsened":false,"count":1,"hv":1,"mp":0,"y0":2021,"y1":2021,"sp":[[0,1,1,0,2021,2021]]}},{"type":"Feature","geometry":{"type":"Polygon","coordinates":[[[-105.59244,37.79255],[-105.59106,37.79409],[-105.59212,37.7958],[-105.59456,37.79596],[-105.59594,37.79442],[-105.59488,37.79271],[-105.59244,37.79255]]]},"properties":{"cell":"89268ab8b43ffff","res":9,"coarsened":false,"count":29,"hv":29,"mp":0,"y0":2004,"y1":2023,"sp":[[0,3,3,0,2004,2012],[77,3,3,0,2022,2023],[35,3,3,0,2023,2023],[8,2,2,0,2015,2022],[53,2,2,0,2022,2023],[6,2,2,0,2022,2022],[17,2,2,0,2022,2022],[3,1,1,0,2004,2004],[67,1,1,0,2022,2022],[70,1,1,0,2022,2022],[5,1,1,0,2022,2022],[78,1,1,0,2022,2022],[22,1,1,0,2022,2022],[7,1,1,0,2022,2022],[69,1,1,0,2004,2004],[23,1,1,0,2023,2023],[36,1,1,0,2023,2023],[83,1,1,0,2023,2023],[26,1,1,0,2022,2022]]}},{"type":"Feature","geometry":{"type":"Polygon","coordinates":[[[-105.53371,37.75426],[-105.53233,37.7558],[-105.53338,37.75751],[-105.53582,37.75768],[-105.5372,37.75613],[-105.53615,37.75443],[-105.53371,37.75426]]]},"properties":{"cell":"89268aa139bffff","res":9,"coarsened":false,"count":1,"hv":1,"mp":0,"y0":2022,"y1":2022,"sp":[[35,1,1,0,2022,2022]]}},{"type":"Feature","geometry":{"type":"Polygon","coordinates":[[[-105.51199,37.78714],[-105.51061,37.78868],[-105.51166,37.79039],[-105.5141,37.79055],[-105.51549,37.78901],[-105.51443,37.7873],[-105.51199,37.78714]]]},"properties":{"cell":"89268aa15d3ffff","res":9,"coarsened":false,"count":1,"hv":1,"mp":0,"y0":2022,"y1":2022,"sp":[[72,1,1,0,2022,2022]]}},{"type":"Feature","geometry":{"type":"Polygon","coordinates":[[[-105.64456,37.82381],[-105.64317,37.82536],[-105.64423,37.82706],[-105.64667,37.82722],[-105.64805,37.82568],[-105.64699,37.82398],[-105.64456,37.82381]]]},"properties":{"cell":"89268ab9c27ffff","res":9,"coarsened":false,"count":1,"hv":1,"mp":0,"y0":2022,"y1":2022,"sp":[[8,1,1,0,2022,2022]]}},{"type":"Feature","geometry":{"type":"Polygon","coordinates":[[[-105.559,37.68562],[-105.55762,37.68716],[-105.55868,37.68887],[-105.56111,37.68903],[-105.56249,37.68749],[-105.56144,37.68578],[-105.559,37.68562]]]},"properties":{"cell":"89268aaab33ffff","res":9,"coarsened":false,"count":1,"hv":1,"mp":0,"y0":2022,"y1":2022,"sp":[[14,1,1,0,2022,2022]]}},{"type":"Feature","geometry":{"type":"Polygon","coordinates":[[[-105.5037,37.79639],[-105.50231,37.79793],[-105.50337,37.79963],[-105.50581,37.7998],[-105.50719,37.79826],[-105.50613,37.79655],[-105.5037,37.79639]]]},"properties":{"cell":"89268aa330fffff","res":9,"coarsened":false,"count":1,"hv":1,"mp":0,"y0":2022,"y1":2022,"sp":[[0,1,1,0,2022,2022]]}},{"type":"Feature","geometry":{"type":"Polygon","coordinates":[[[-105.58732,37.80692],[-105.58594,37.80846],[-105.587,37.81017],[-105.58944,37.81033],[-105.59082,37.80879],[-105.58976,37.80708],[-105.58732,37.80692]]]},"properties":{"cell":"89268ab886bffff","res":9,"coarsened":false,"count":1,"hv":1,"mp":0,"y0":2018,"y1":2018,"sp":[[26,1,1,0,2018,2018]]}},{"type":"Feature","geometry":{"type":"Polygon","coordinates":[[[-105.51211,37.74953],[-105.51072,37.75107],[-105.51178,37.75278],[-105.51421,37.75295],[-105.5156,37.7514],[-105.51454,37.7497],[-105.51211,37.74953]]]},"properties":{"cell":"89268aa1173ffff","res":9,"coarsened":false,"count":1,"hv":1,"mp":0,"y0":2022,"y1":2022,"sp":[[53,1,1,0,2022,2022]]}},{"type":"Feature","geometry":{"type":"Polygon","coordinates":[[[-105.50435,37.78989],[-105.50297,37.79143],[-105.50402,37.79314],[-105.50646,37.7933],[-105.50784,37.79176],[-105.50679,37.79006],[-105.50435,37.78989]]]},"properties":{"cell":"89268aa3367ffff","res":9,"coarsened":false,"count":2,"hv":2,"mp":0,"y0":2021,"y1":2025,"sp":[[0,1,1,0,2021,2021],[46,1,1,0,2025,2025]]}},{"type":"Feature","geometry":{"type":"Polygon","coordinates":[[[-105.50414,37.75554],[-105.50276,37.75708],[-105.50381,37.75878],[-105.50625,37.75895],[-105.50763,37.75741],[-105.50658,37.7557],[-105.50414,37.75554]]]},"properties":{"cell":"89268aa1117ffff","res":9,"coarsened":false,"count":3,"hv":3,"mp":0,"y0":2018,"y1":2023,"sp":[[0,2,2,0,2018,2018],[9,1,1,0,2023,2023]]}},{"type":"Feature","geometry":{"type":"Polygon","coordinates":[[[-105.48886,37.76104],[-105.48748,37.76258],[-105.48853,37.76429],[-105.49097,37.76446],[-105.49235,37.76291],[-105.4913,37.76121],[-105.48886,37.76104]]]},"properties":{"cell":"89268aa0247ffff","res":9,"coarsened":false,"count":1,"hv":1,"mp":0,"y0":2022,"y1":2022,"sp":[[7,1,1,0,2022,2022]]}},{"type":"Feature","geometry":{"type":"Polygon","coordinates":[[[-105.57879,37.78182],[-105.57741,37.78337],[-105.57847,37.78507],[-105.58091,37.78524],[-105.58229,37.78369],[-105.58123,37.78199],[-105.57879,37.78182]]]},"properties":{"cell":"89268aaa593ffff","res":9,"coarsened":false,"count":1,"hv":1,"mp":0,"y0":2019,"y1":2019,"sp":[[0,1,1,0,2019,2019]]}},{"type":"Feature","geometry":{"type":"Polygon","coordinates":[[[-105.52683,37.7129],[-105.52545,37.71445],[-105.52651,37.71615],[-105.52894,37.71632],[-105.53033,37.71477],[-105.52927,37.71307],[-105.52683,37.7129]]]},"properties":{"cell":"89268aaad27ffff","res":9,"coarsened":false,"count":1,"hv":1,"mp":0,"y0":2023,"y1":2023,"sp":[[26,1,1,0,2023,2023]]}},{"type":"Feature","geometry":{"type":"Polygon","coordinates":[[[-105.53927,37.69902],[-105.53789,37.70056],[-105.53894,37.70227],[-105.54138,37.70243],[-105.54276,37.70089],[-105.5417,37.69918],[-105.53927,37.69902]]]},"properties":{"cell":"89268aaa903ffff","res":9,"coarsened":false,"count":2,"hv":2,"mp":0,"y0":2023,"y1":2025,"sp":[[0,1,1,0,2023,2023],[14,1,1,0,2025,2025]]}},{"type":"Feature","geometry":{"type":"Polygon","coordinates":[[[-105.52105,37.73378],[-105.51967,37.73532],[-105.52073,37.73703],[-105.52316,37.73719],[-105.52454,37.73565],[-105.52349,37.73394],[-105.52105,37.73378]]]},"properties":{"cell":"89268aa1e53ffff","res":9,"coarsened":false,"count":3,"hv":3,"mp":0,"y0":2023,"y1":2023,"sp":[[3,1,1,0,2023,2023],[50,1,1,0,2023,2023],[27,1,1,0,2023,2023]]}},{"type":"Feature","geometry":{"type":"Polygon","coordinates":[[[-105.52389,37.74215],[-105.52251,37.74369],[-105.52356,37.7454],[-105.526,37.74556],[-105.52738,37.74402],[-105.52633,37.74231],[-105.52389,37.74215]]]},"properties":{"cell":"89268aa13afffff","res":9,"coarsened":false,"count":1,"hv":1,"mp":0,"y0":2023,"y1":2023,"sp":[[36,1,1,0,2023,2023]]}},{"type":"Feature","geometry":{"type":"Polygon","coordinates":[[[-105.48484,37.72806],[-105.48345,37.7296],[-105.48451,37.73131],[-105.48694,37.73147],[-105.48833,37.72993],[-105.48727,37.72822],[-105.48484,37.72806]]]},"properties":{"cell":"89268aa189bffff","res":9,"coarsened":false,"count":3,"hv":3,"mp":0,"y0":2023,"y1":2025,"sp":[[12,1,1,0,2023,2023],[33,1,1,0,2024,2024],[21,1,1,0,2025,2025]]}},{"type":"Feature","geometry":{"type":"Polygon","coordinates":[[[-105.46897,37.81202],[-105.46759,37.81356],[-105.46865,37.81526],[-105.47108,37.81543],[-105.47247,37.81389],[-105.47141,37.81218],[-105.46897,37.81202]]]},"properties":{"cell":"89268aa31bbffff","res":9,"coarsened":false,"count":4,"hv":4,"mp":0,"y0":2020,"y1":2025,"sp":[[21,1,1,0,2020,2020],[0,1,1,0,2025,2025],[50,1,1,0,2025,2025],[12,1,1,0,2025,2025]]}},{"type":"Feature","geometry":{"type":"Polygon","coordinates":[[[-105.51887,37.71891],[-105.51749,37.72045],[-105.51854,37.72216],[-105.52098,37.72232],[-105.52236,37.72078],[-105.52131,37.71907],[-105.51887,37.71891]]]},"properties":{"cell":"89268aa1ad3ffff","res":9,"coarsened":false,"count":3,"hv":3,"mp":0,"y0":2022,"y1":2023,"sp":[[77,1,1,0,2023,2023],[45,1,1,0,2023,2023],[4,1,1,0,2022,2022]]}},{"type":"Feature","geometry":{"type":"Polygon","coordinates":[[[-105.50611,37.73604],[-105.50472,37.73758],[-105.50578,37.73929],[-105.50822,37.73945],[-105.5096,37.73791],[-105.50854,37.73621],[-105.50611,37.73604]]]},"properties":{"cell":"89268aa1e8fffff","res":9,"coarsened":false,"count":3,"hv":3,"mp":0,"y0":2023,"y1":2026,"sp":[[0,3,3,0,2023,2026]]}},{"type":"Feature","geometry":{"type":"Polygon","coordinates":[[[-105.54233,37.74176],[-105.54095,37.7433],[-105.542,37.74501],[-105.54444,37.74517],[-105.54582,37.74363],[-105.54477,37.74192],[-105.54233,37.74176]]]},"properties":{"cell":"89268aa1347ffff","res":9,"coarsened":false,"count":1,"hv":1,"mp":0,"y0":2023,"y1":2023,"sp":[[21,1,1,0,2023,2023]]}},{"type":"Feature","geometry":{"type":"Polygon","coordinates":[[[-105.50196,37.74067],[-105.50058,37.74221],[-105.50163,37.74392],[-105.50407,37.74408],[-105.50545,37.74254],[-105.5044,37.74083],[-105.50196,37.74067]]]},"properties":{"cell":"89268aa1e97ffff","res":9,"coarsened":false,"count":4,"hv":4,"mp":0,"y0":2023,"y1":2025,"sp":[[85,2,2,0,2025,2025],[67,1,1,0,2023,2023],[33,1,1,0,2025,2025]]}},{"type":"Feature","geometry":{"type":"Polygon","coordinates":[[[-105.54276,37.70089],[-105.54138,37.70243],[-105.54243,37.70414],[-105.54487,37.7043],[-105.54625,37.70276],[-105.54519,37.70105],[-105.54276,37.70089]]]},"properties":{"cell":"89268aaa91bffff","res":9,"coarsened":false,"count":1,"hv":1,"mp":0,"y0":2023,"y1":2023,"sp":[[0,1,1,0,2023,2023]]}},{"type":"Feature","geometry":{"type":"Polygon","coordinates":[[[-105.51058,37.72816],[-105.5092,37.72971],[-105.51025,37.73141],[-105.51269,37.73158],[-105.51407,37.73004],[-105.51302,37.72833],[-105.51058,37.72816]]]},"properties":{"cell":"89268aa1e0fffff","res":9,"coarsened":false,"count":1,"hv":1,"mp":0,"y0":2023,"y1":2023,"sp":[[77,1,1,0,2023,2023]]}},{"type":"Feature","geometry":{"type":"Polygon","coordinates":[[[-105.51625,37.74491],[-105.51487,37.74645],[-105.51592,37.74815],[-105.51836,37.74832],[-105.51974,37.74678],[-105.51869,37.74507],[-105.51625,37.74491]]]},"properties":{"cell":"89268aa116bffff","res":9,"coarsened":false,"count":2,"hv":2,"mp":0,"y0":2023,"y1":2023,"sp":[[35,2,2,0,2023,2023]]}},{"type":"Feature","geometry":{"type":"Polygon","coordinates":[[[-105.56882,37.69773],[-105.56744,37.69928],[-105.5685,37.70098],[-105.57093,37.70115],[-105.57232,37.6996],[-105.57126,37.6979],[-105.56882,37.69773]]]},"properties":{"cell":"89268aaabd7ffff","res":9,"coarsened":false,"count":1,"hv":1,"mp":0,"y0":2023,"y1":2023,"sp":[[14,1,1,0,2023,2023]]}},{"type":"Feature","geometry":{"type":"Polygon","coordinates":[[[-105.68292,37.69716],[-105.68154,37.6987],[-105.68259,37.70041],[-105.68503,37.70057],[-105.68641,37.69902],[-105.68535,37.69732],[-105.68292,37.69716]]]},"properties":{"cell":"89268aa825bffff","res":9,"coarsened":false,"count":1,"hv":1,"mp":0,"y0":2023,"y1":2023,"sp":[[57,1,1,0,2023,2023]]}},{"type":"Feature","geometry":{"type":"Polygon","coordinates":[[[-105.65116,37.6836],[-105.64978,37.68514],[-105.65083,37.68685],[-105.65327,37.68701],[-105.65465,37.68546],[-105.65359,37.68376],[-105.65116,37.6836]]]},"properties":{"cell":"89268aa8357ffff","res":9,"coarsened":false,"count":4,"hv":4,"mp":0,"y0":2024,"y1":2024,"sp":[[59,3,3,0,2024,2024],[9,1,1,0,2024,2024]]}},{"type":"Feature","geometry":{"type":"Polygon","coordinates":[[[-105.6518,37.67709],[-105.65042,37.67864],[-105.65148,37.68034],[-105.65392,37.68051],[-105.6553,37.67896],[-105.65424,37.67725],[-105.6518,37.67709]]]},"properties":{"cell":"89268aa837bffff","res":9,"coarsened":false,"count":1,"hv":1,"mp":0,"y0":2024,"y1":2024,"sp":[[84,1,1,0,2024,2024]]}},{"type":"Feature","geometry":{"type":"Polygon","coordinates":[[[-105.68103,37.67903],[-105.67966,37.68058],[-105.68071,37.68228],[-105.68315,37.68244],[-105.68453,37.6809],[-105.68347,37.67919],[-105.68103,37.67903]]]},"properties":{"cell":"89268aa9ccbffff","res":9,"coarsened":false,"count":1,"hv":1,"mp":0,"y0":2024,"y1":2024,"sp":[[10,1,1,0,2024,2024]]}},{"type":"Feature","geometry":{"type":"Polygon","coordinates":[[[-105.55966,37.67911],[-105.52327,37.69957],[-105.52836,37.73427],[-105.56986,37.74852],[-105.60626,37.72805],[-105.60114,37.69335],[-105.55966,37.67911]]]},"properties":{"cell":"86268aaafffffff","res":6,"coarsened":true,"count":1,"hv":1,"mp":0,"y0":2024,"y1":2024,"sp":[[86,1,1,0,2024,2024]]}},{"type":"Feature","geometry":{"type":"Polygon","coordinates":[[[-105.52716,37.70965],[-105.52578,37.7112],[-105.52683,37.7129],[-105.52927,37.71307],[-105.53065,37.71152],[-105.5296,37.70982],[-105.52716,37.70965]]]},"properties":{"cell":"89268aa1a5bffff","res":9,"coarsened":false,"count":2,"hv":2,"mp":0,"y0":2024,"y1":2024,"sp":[[0,1,1,0,2024,2024],[26,1,1,0,2024,2024]]}},{"type":"Feature","geometry":{"type":"Polygon","coordinates":[[[-105.48102,37.72943],[-105.47963,37.73097],[-105.48069,37.73268],[-105.48312,37.73285],[-105.48451,37.73131],[-105.48345,37.7296],[-105.48102,37.72943]]]},"properties":{"cell":"89268aa1893ffff","res":9,"coarsened":false,"count":4,"hv":4,"mp":0,"y0":2024,"y1":2026,"sp":[[96,2,2,0,2025,2025],[38,1,1,0,2024,2024],[69,1,1,0,2026,2026]]}},{"type":"Feature","geometry":{"type":"Polygon","coordinates":[[[-105.47695,37.80602],[-105.47556,37.80756],[-105.47662,37.80927],[-105.47906,37.80943],[-105.48044,37.80789],[-105.47939,37.80618],[-105.47695,37.80602]]]},"properties":{"cell":"89268aa310fffff","res":9,"coarsened":false,"count":1,"hv":1,"mp":0,"y0":2024,"y1":2024,"sp":[[70,1,1,0,2024,2024]]}},{"type":"Feature","geometry":{"type":"Polygon","coordinates":[[[-105.67614,37.76541],[-105.67476,37.76696],[-105.67582,37.76866],[-105.67826,37.76883],[-105.67964,37.76728],[-105.67858,37.76558],[-105.67614,37.76541]]]},"properties":{"cell":"89268aab55bffff","res":9,"coarsened":false,"count":1,"hv":1,"mp":0,"y0":2024,"y1":2024,"sp":[[88,1,1,0,2024,2024]]}},{"type":"Feature","geometry":{"type":"Polygon","coordinates":[[[-105.47345,37.80415],[-105.47207,37.80569],[-105.47313,37.80739],[-105.47556,37.80756],[-105.47695,37.80602],[-105.47589,37.80431],[-105.47345,37.80415]]]},"properties":{"cell":"89268aa313bffff","res":9,"coarsened":false,"count":1,"hv":1,"mp":0,"y0":2024,"y1":2024,"sp":[[28,1,1,0,2024,2024]]}},{"type":"Feature","geometry":{"type":"Polygon","coordinates":[[[-105.54374,37.69113],[-105.54236,37.69268],[-105.54341,37.69439],[-105.54585,37.69455],[-105.54723,37.69301],[-105.54617,37.6913],[-105.54374,37.69113]]]},"properties":{"cell":"89268aaa963ffff","res":9,"coarsened":false,"count":4,"hv":4,"mp":0,"y0":2024,"y1":2024,"sp":[[9,1,1,0,2024,2024],[76,1,1,0,2024,2024],[27,1,1,0,2024,2024],[1,1,1,0,2024,2024]]}},{"type":"Feature","geometry":{"type":"Polygon","coordinates":[[[-105.53055,37.74914],[-105.52916,37.75068],[-105.53022,37.75239],[-105.53266,37.75256],[-105.53404,37.75101],[-105.53298,37.74931],[-105.53055,37.74914]]]},"properties":{"cell":"89268aa138fffff","res":9,"coarsened":false,"count":1,"hv":1,"mp":0,"y0":2024,"y1":2024,"sp":[[36,1,1,0,2024,2024]]}},{"type":"Feature","geometry":{"type":"Polygon","coordinates":[[[-105.49716,37.75179],[-105.49577,37.75333],[-105.49683,37.75504],[-105.49927,37.75521],[-105.50065,37.75366],[-105.49959,37.75196],[-105.49716,37.75179]]]},"properties":{"cell":"89268aa11afffff","res":9,"coarsened":false,"count":2,"hv":2,"mp":0,"y0":2024,"y1":2026,"sp":[[6,1,1,0,2024,2024],[0,1,1,0,2026,2026]]}},{"type":"Feature","geometry":{"type":"Polygon","coordinates":[[[-105.4728,37.81064],[-105.47141,37.81218],[-105.47247,37.81389],[-105.47491,37.81405],[-105.47629,37.81251],[-105.47523,37.81081],[-105.4728,37.81064]]]},"properties":{"cell":"89268aa3117ffff","res":9,"coarsened":false,"count":1,"hv":1,"mp":0,"y0":2024,"y1":2024,"sp":[[0,1,1,0,2024,2024]]}},{"type":"Feature","geometry":{"type":"Polygon","coordinates":[[[-105.6641,37.73845],[-105.66272,37.73999],[-105.66378,37.7417],[-105.66621,37.74186],[-105.66759,37.74031],[-105.66654,37.73861],[-105.6641,37.73845]]]},"properties":{"cell":"89268aab10fffff","res":9,"coarsened":false,"count":1,"hv":1,"mp":0,"y0":2024,"y1":2024,"sp":[[83,1,1,0,2024,2024]]}},{"type":"Feature","geometry":{"type":"Polygon","coordinates":[[[-105.55137,37.68838],[-105.54999,37.68992],[-105.55104,37.69163],[-105.55348,37.69179],[-105.55486,37.69025],[-105.55381,37.68854],[-105.55137,37.68838]]]},"properties":{"cell":"89268aaaba7ffff","res":9,"coarsened":false,"count":1,"hv":1,"mp":0,"y0":2024,"y1":2024,"sp":[[17,1,1,0,2024,2024]]}},{"type":"Feature","geometry":{"type":"Polygon","coordinates":[[[-105.50381,37.75878],[-105.50243,37.76033],[-105.50348,37.76203],[-105.50592,37.7622],[-105.5073,37.76066],[-105.50625,37.75895],[-105.50381,37.75878]]]},"properties":{"cell":"89268aa118fffff","res":9,"coarsened":false,"count":2,"hv":2,"mp":0,"y0":2019,"y1":2025,"sp":[[0,1,1,0,2019,2019],[91,1,1,0,2025,2025]]}},{"type":"Feature","geometry":{"type":"Polygon","coordinates":[[[-105.5204,37.74028],[-105.51902,37.74182],[-105.52007,37.74353],[-105.52251,37.74369],[-105.52389,37.74215],[-105.52284,37.74044],[-105.5204,37.74028]]]},"properties":{"cell":"89268aa1edbffff","res":9,"coarsened":false,"count":1,"hv":1,"mp":0,"y0":2024,"y1":2024,"sp":[[35,1,1,0,2024,2024]]}},{"type":"Feature","geometry":{"type":"Polygon","coordinates":[[[-105.45527,37.72932],[-105.45389,37.73086],[-105.45494,37.73257],[-105.45738,37.73273],[-105.45876,37.73119],[-105.45771,37.72948],[-105.45527,37.72932]]]},"properties":{"cell":"89268aa1d17ffff","res":9,"coarsened":false,"count":1,"hv":1,"mp":0,"y0":2011,"y1":2011,"sp":[[69,1,1,0,2011,2011]]}},{"type":"Feature","geometry":{"type":"Polygon","coordinates":[[[-105.52302,37.71428],[-105.52164,37.71582],[-105.52269,37.71753],[-105.52513,37.7177],[-105.52651,37.71615],[-105.52545,37.71445],[-105.52302,37.71428]]]},"properties":{"cell":"89268aa1acbffff","res":9,"coarsened":false,"count":2,"hv":2,"mp":0,"y0":2025,"y1":2026,"sp":[[5,1,1,0,2025,2025],[0,1,1,0,2026,2026]]}},{"type":"Feature","geometry":{"type":"Polygon","coordinates":[[[-105.67307,37.90741],[-105.67169,37.90895],[-105.67274,37.91065],[-105.67519,37.91081],[-105.67657,37.90927],[-105.67551,37.90757],[-105.67307,37.90741]]]},"properties":{"cell":"89268abb077ffff","res":9,"coarsened":false,"count":1,"hv":1,"mp":0,"y0":2023,"y1":2023,"sp":[[0,1,1,0,2023,2023]]}},{"type":"Feature","geometry":{"type":"Polygon","coordinates":[[[-105.623,37.78151],[-105.62162,37.78305],[-105.62268,37.78476],[-105.62512,37.78492],[-105.6265,37.78338],[-105.62544,37.78167],[-105.623,37.78151]]]},"properties":{"cell":"89268aaa44bffff","res":9,"coarsened":false,"count":5,"hv":5,"mp":0,"y0":2025,"y1":2025,"sp":[[36,1,1,0,2025,2025],[9,1,1,0,2025,2025],[43,1,1,0,2025,2025],[21,1,1,0,2025,2025],[27,1,1,0,2025,2025]]}},{"type":"Feature","geometry":{"type":"Polygon","coordinates":[[[-105.51974,37.74678],[-105.51836,37.74832],[-105.51942,37.75003],[-105.52185,37.75019],[-105.52324,37.74865],[-105.52218,37.74694],[-105.51974,37.74678]]]},"properties":{"cell":"89268aa13b7ffff","res":9,"coarsened":false,"count":1,"hv":1,"mp":0,"y0":2025,"y1":2025,"sp":[[36,1,1,0,2025,2025]]}},{"type":"Feature","geometry":{"type":"Polygon","coordinates":[[[-105.50304,37.80288],[-105.50166,37.80442],[-105.50271,37.80613],[-105.50515,37.8063],[-105.50653,37.80475],[-105.50548,37.80305],[-105.50304,37.80288]]]},"properties":{"cell":"89268aa3313ffff","res":9,"coarsened":false,"count":1,"hv":1,"mp":0,"y0":2025,"y1":2025,"sp":[[2,1,1,0,2025,2025]]}},{"type":"Feature","geometry":{"type":"Polygon","coordinates":[[[-105.58229,37.78369],[-105.58091,37.78524],[-105.58196,37.78694],[-105.5844,37.7871],[-105.58578,37.78556],[-105.58473,37.78386],[-105.58229,37.78369]]]},"properties":{"cell":"89268ab8b67ffff","res":9,"coarsened":false,"count":1,"hv":1,"mp":0,"y0":2025,"y1":2025,"sp":[[0,1,1,0,2025,2025]]}},{"type":"Feature","geometry":{"type":"Polygon","coordinates":[[[-105.53022,37.75239],[-105.52884,37.75393],[-105.52989,37.75564],[-105.53233,37.7558],[-105.53371,37.75426],[-105.53266,37.75256],[-105.53022,37.75239]]]},"properties":{"cell":"89268aa1383ffff","res":9,"coarsened":false,"count":1,"hv":1,"mp":0,"y0":2023,"y1":2023,"sp":[[36,1,1,0,2023,2023]]}},{"type":"Feature","geometry":{"type":"Polygon","coordinates":[[[-105.47637,37.88443],[-105.47498,37.88597],[-105.47604,37.88767],[-105.47848,37.88784],[-105.47986,37.8863],[-105.47881,37.88459],[-105.47637,37.88443]]]},"properties":{"cell":"89268ab18c3ffff","res":9,"coarsened":false,"count":1,"hv":1,"mp":0,"y0":2025,"y1":2025,"sp":[[94,1,1,0,2025,2025]]}},{"type":"Feature","geometry":{"type":"Polygon","coordinates":[[[-105.58895,37.79068],[-105.58757,37.79222],[-105.58862,37.79393],[-105.59106,37.79409],[-105.59244,37.79255],[-105.59139,37.79084],[-105.58895,37.79068]]]},"properties":{"cell":"89268ab8b47ffff","res":9,"coarsened":false,"count":2,"hv":2,"mp":0,"y0":2025,"y1":2025,"sp":[[36,1,1,0,2025,2025],[0,1,1,0,2025,2025]]}},{"type":"Feature","geometry":{"type":"Polygon","coordinates":[[[-105.49934,37.76666],[-105.49795,37.7682],[-105.49901,37.76991],[-105.50144,37.77007],[-105.50283,37.76853],[-105.50177,37.76682],[-105.49934,37.76666]]]},"properties":{"cell":"89268aa152fffff","res":9,"coarsened":false,"count":1,"hv":1,"mp":0,"y0":2025,"y1":2025,"sp":[[8,1,1,0,2025,2025]]}},{"type":"Feature","geometry":{"type":"Polygon","coordinates":[[[-105.50817,37.78851],[-105.50679,37.79006],[-105.50784,37.79176],[-105.51028,37.79193],[-105.51166,37.79039],[-105.51061,37.78868],[-105.50817,37.78851]]]},"properties":{"cell":"89268aa336fffff","res":9,"coarsened":false,"count":4,"hv":4,"mp":0,"y0":2025,"y1":2026,"sp":[[67,1,1,0,2025,2025],[54,1,1,0,2025,2025],[6,1,1,0,2026,2026],[9,1,1,0,2026,2026]]}},{"type":"Feature","geometry":{"type":"Polygon","coordinates":[[[-105.50086,37.78802],[-105.49948,37.78956],[-105.50053,37.79127],[-105.50297,37.79143],[-105.50435,37.78989],[-105.5033,37.78818],[-105.50086,37.78802]]]},"properties":{"cell":"89268aa1593ffff","res":9,"coarsened":false,"count":1,"hv":1,"mp":0,"y0":2025,"y1":2025,"sp":[[91,1,1,0,2025,2025]]}},{"type":"Feature","geometry":{"type":"Polygon","coordinates":[[[-105.50119,37.78477],[-105.4998,37.78631],[-105.50086,37.78802],[-105.5033,37.78818],[-105.50468,37.78664],[-105.50362,37.78494],[-105.50119,37.78477]]]},"properties":{"cell":"89268aa1583ffff","res":9,"coarsened":false,"count":1,"hv":1,"mp":0,"y0":2025,"y1":2025,"sp":[[54,1,1,0,2025,2025]]}},{"type":"Feature","geometry":{"type":"Polygon","coordinates":[[[-105.49802,37.77965],[-105.49664,37.78119],[-105.49769,37.7829],[-105.50013,37.78307],[-105.50152,37.78152],[-105.50046,37.77982],[-105.49802,37.77965]]]},"properties":{"cell":"89268aa15bbffff","res":9,"coarsened":false,"count":1,"hv":1,"mp":0,"y0":2025,"y1":2025,"sp":[[15,1,1,0,2025,2025]]}},{"type":"Feature","geometry":{"type":"Polygon","coordinates":[[[-105.49835,37.7764],[-105.49697,37.77795],[-105.49802,37.77965],[-105.50046,37.77982],[-105.50184,37.77828],[-105.50079,37.77657],[-105.49835,37.7764]]]},"properties":{"cell":"89268aa15abffff","res":9,"coarsened":false,"count":2,"hv":2,"mp":0,"y0":2025,"y1":2025,"sp":[[95,1,1,0,2025,2025],[39,1,1,0,2025,2025]]}},{"type":"Feature","geometry":{"type":"Polygon","coordinates":[[[-105.49901,37.76991],[-105.49762,37.77145],[-105.49868,37.77316],[-105.50112,37.77332],[-105.5025,37.77178],[-105.50144,37.77007],[-105.49901,37.76991]]]},"properties":{"cell":"89268aa1523ffff","res":9,"coarsened":false,"count":1,"hv":1,"mp":0,"y0":2025,"y1":2025,"sp":[[15,1,1,0,2025,2025]]}},{"type":"Feature","geometry":{"type":"Polygon","coordinates":[[[-105.50065,37.75366],[-105.49927,37.75521],[-105.50032,37.75691],[-105.50276,37.75708],[-105.50414,37.75554],[-105.50308,37.75383],[-105.50065,37.75366]]]},"properties":{"cell":"89268aa11abffff","res":9,"coarsened":false,"count":4,"hv":4,"mp":0,"y0":2021,"y1":2026,"sp":[[39,2,2,0,2021,2025],[38,1,1,0,2026,2026],[7,1,1,0,2026,2026]]}},{"type":"Feature","geometry":{"type":"Polygon","coordinates":[[[-105.49913,37.7323],[-105.49774,37.73384],[-105.4988,37.73555],[-105.50123,37.73571],[-105.50262,37.73417],[-105.50156,37.73246],[-105.49913,37.7323]]]},"properties":{"cell":"89268aa1ea3ffff","res":9,"coarsened":false,"count":2,"hv":2,"mp":0,"y0":2025,"y1":2025,"sp":[[30,1,1,0,2025,2025],[96,1,1,0,2025,2025]]}},{"type":"Feature","geometry":{"type":"Polygon","coordinates":[[[-105.49563,37.73042],[-105.49425,37.73197],[-105.49531,37.73367],[-105.49774,37.73384],[-105.49913,37.7323],[-105.49807,37.73059],[-105.49563,37.73042]]]},"properties":{"cell":"89268aa1ea7ffff","res":9,"coarsened":false,"count":1,"hv":1,"mp":0,"y0":2025,"y1":2025,"sp":[[21,1,1,0,2025,2025]]}},{"type":"Feature","geometry":{"type":"Polygon","coordinates":[[[-105.45355,37.8551],[-105.45217,37.85664],[-105.45322,37.85835],[-105.45566,37.85851],[-105.45705,37.85697],[-105.45599,37.85527],[-105.45355,37.8551]]]},"properties":{"cell":"89268ab196bffff","res":9,"coarsened":false,"count":1,"hv":1,"mp":0,"y0":2025,"y1":2025,"sp":[[60,1,1,0,2025,2025]]}},{"type":"Feature","geometry":{"type":"Polygon","coordinates":[[[-105.61284,37.77265],[-105.61146,37.7742],[-105.61252,37.7759],[-105.61496,37.77607],[-105.61634,37.77452],[-105.61528,37.77282],[-105.61284,37.77265]]]},"properties":{"cell":"89268aaa46fffff","res":9,"coarsened":false,"count":7,"hv":7,"mp":0,"y0":2018,"y1":2018,"sp":[[2,2,2,0,2018,2018],[9,2,2,0,2018,2018],[0,1,1,0,2018,2018],[7,1,1,0,2018,2018],[3,1,1,0,2018,2018]]}},{"type":"Feature","geometry":{"type":"Polygon","coordinates":[[[-105.52171,37.72728],[-105.52033,37.72882],[-105.52138,37.73053],[-105.52382,37.73069],[-105.5252,37.72915],[-105.52414,37.72744],[-105.52171,37.72728]]]},"properties":{"cell":"89268aa1e4fffff","res":9,"coarsened":false,"count":3,"hv":3,"mp":0,"y0":2025,"y1":2025,"sp":[[0,1,1,0,2025,2025],[47,1,1,0,2025,2025],[6,1,1,0,2025,2025]]}},{"type":"Feature","geometry":{"type":"Polygon","coordinates":[[[-105.4919,37.80376],[-105.49052,37.8053],[-105.49158,37.80701],[-105.49401,37.80718],[-105.4954,37.80563],[-105.49434,37.80393],[-105.4919,37.80376]]]},"properties":{"cell":"89268aa33b3ffff","res":9,"coarsened":false,"count":1,"hv":1,"mp":0,"y0":2018,"y1":2018,"sp":[[20,1,1,0,2018,2018]]}},{"type":"Feature","geometry":{"type":"Polygon","coordinates":[[[-105.43708,37.836],[-105.43569,37.83754],[-105.43675,37.83925],[-105.43919,37.83941],[-105.44057,37.83787],[-105.43952,37.83617],[-105.43708,37.836]]]},"properties":{"cell":"89268aa2637ffff","res":9,"coarsened":false,"count":1,"hv":1,"mp":0,"y0":2023,"y1":2023,"sp":[[33,1,1,0,2023,2023]]}},{"type":"Feature","geometry":{"type":"Polygon","coordinates":[[[-105.5014,37.81912],[-105.50001,37.82066],[-105.50107,37.82237],[-105.50351,37.82253],[-105.50489,37.82099],[-105.50384,37.81928],[-105.5014,37.81912]]]},"properties":{"cell":"89268aa300fffff","res":9,"coarsened":false,"count":1,"hv":1,"mp":0,"y0":2025,"y1":2025,"sp":[[7,1,1,0,2025,2025]]}},{"type":"Feature","geometry":{"type":"Polygon","coordinates":[[[-105.56794,37.66985],[-105.56656,37.6714],[-105.56761,37.6731],[-105.57005,37.67327],[-105.57143,37.67172],[-105.57038,37.67002],[-105.56794,37.66985]]]},"properties":{"cell":"89268aa8d13ffff","res":9,"coarsened":false,"count":1,"hv":1,"mp":0,"y0":2025,"y1":2025,"sp":[[83,1,1,0,2025,2025]]}},{"type":"Feature","geometry":{"type":"Polygon","coordinates":[[[-105.65622,37.89159],[-105.65483,37.89313],[-105.65589,37.89483],[-105.65833,37.895],[-105.65972,37.89345],[-105.65866,37.89175],[-105.65622,37.89159]]]},"properties":{"cell":"89268abb16bffff","res":9,"coarsened":false,"count":1,"hv":1,"mp":0,"y0":2025,"y1":2025,"sp":[[14,1,1,0,2025,2025]]}},{"type":"Feature","geometry":{"type":"Polygon","coordinates":[[[-105.5048,37.74904],[-105.50341,37.75058],[-105.50447,37.75229],[-105.5069,37.75245],[-105.50829,37.75091],[-105.50723,37.7492],[-105.5048,37.74904]]]},"properties":{"cell":"89268aa113bffff","res":9,"coarsened":false,"count":1,"hv":1,"mp":0,"y0":2019,"y1":2019,"sp":[[0,1,1,0,2019,2019]]}},{"type":"Feature","geometry":{"type":"Polygon","coordinates":[[[-105.49814,37.74204],[-105.49676,37.74359],[-105.49781,37.74529],[-105.50025,37.74546],[-105.50163,37.74392],[-105.50058,37.74221],[-105.49814,37.74204]]]},"properties":{"cell":"89268aa1c5bffff","res":9,"coarsened":false,"count":1,"hv":1,"mp":0,"y0":2026,"y1":2026,"sp":[[7,1,1,0,2026,2026]]}},{"type":"Feature","geometry":{"type":"Polygon","coordinates":[[[-105.5025,37.77178],[-105.50112,37.77332],[-105.50217,37.77503],[-105.50461,37.77519],[-105.50599,37.77365],[-105.50494,37.77194],[-105.5025,37.77178]]]},"properties":{"cell":"89268aa153bffff","res":9,"coarsened":false,"count":1,"hv":1,"mp":0,"y0":2026,"y1":2026,"sp":[[17,1,1,0,2026,2026]]}},{"type":"Feature","geometry":{"type":"Polygon","coordinates":[[[-105.55248,37.75062],[-105.5511,37.75216],[-105.55215,37.75387],[-105.55459,37.75403],[-105.55597,37.75249],[-105.55492,37.75078],[-105.55248,37.75062]]]},"properties":{"cell":"89268aa1223ffff","res":9,"coarsened":false,"count":1,"hv":1,"mp":0,"y0":2026,"y1":2026,"sp":[[36,1,1,0,2026,2026]]}},{"type":"Feature","geometry":{"type":"Polygon","coordinates":[[[-105.68163,37.71016],[-105.68025,37.71171],[-105.6813,37.71341],[-105.68374,37.71357],[-105.68512,37.71203],[-105.68406,37.71032],[-105.68163,37.71016]]]},"properties":{"cell":"89268aa95a3ffff","res":9,"coarsened":false,"count":1,"hv":1,"mp":0,"y0":2026,"y1":2026,"sp":[[10,1,1,0,2026,2026]]}},{"type":"Feature","geometry":{"type":"Polygon","coordinates":[[[-105.51473,37.72354],[-105.51334,37.72508],[-105.5144,37.72679],[-105.51684,37.72695],[-105.51822,37.72541],[-105.51716,37.7237],[-105.51473,37.72354]]]},"properties":{"cell":"89268aa1e63ffff","res":9,"coarsened":false,"count":5,"hv":5,"mp":0,"y0":2026,"y1":2026,"sp":[[44,2,2,0,2026,2026],[38,1,1,0,2026,2026],[9,1,1,0,2026,2026],[0,1,1,0,2026,2026]]}},{"type":"Feature","geometry":{"type":"Polygon","coordinates":[[[-105.5909,37.77119],[-105.58952,37.77273],[-105.59058,37.77444],[-105.59302,37.7746],[-105.5944,37.77306],[-105.59334,37.77135],[-105.5909,37.77119]]]},"properties":{"cell":"89268aaa557ffff","res":9,"coarsened":false,"count":1,"hv":1,"mp":0,"y0":2025,"y1":2025,"sp":[[43,1,1,0,2025,2025]]}},{"type":"Feature","geometry":{"type":"Polygon","coordinates":[[[-105.51592,37.74815],[-105.51454,37.7497],[-105.5156,37.7514],[-105.51803,37.75157],[-105.51942,37.75003],[-105.51836,37.74832],[-105.51592,37.74815]]]},"properties":{"cell":"89268aa117bffff","res":9,"coarsened":false,"count":1,"hv":1,"mp":0,"y0":2026,"y1":2026,"sp":[[56,1,1,0,2026,2026]]}},{"type":"Feature","geometry":{"type":"Polygon","coordinates":[[[-105.7142,37.86438],[-105.71281,37.86592],[-105.71387,37.86762],[-105.71631,37.86778],[-105.7177,37.86624],[-105.71664,37.86454],[-105.7142,37.86438]]]},"properties":{"cell":"89268ab90cbffff","res":9,"coarsened":false,"count":1,"hv":1,"mp":0,"y0":2026,"y1":2026,"sp":[[26,1,1,0,2026,2026]]}},{"type":"Feature","geometry":{"type":"Polygon","coordinates":[[[-105.52356,37.7454],[-105.52218,37.74694],[-105.52324,37.74865],[-105.52567,37.74881],[-105.52705,37.74727],[-105.526,37.74556],[-105.52356,37.7454]]]},"properties":{"cell":"89268aa13a3ffff","res":9,"coarsened":false,"count":1,"hv":1,"mp":0,"y0":2012,"y1":2012,"sp":[[0,1,1,0,2012,2012]]}},{"type":"Feature","geometry":{"type":"Polygon","coordinates":[[[-105.52738,37.74402],[-105.526,37.74556],[-105.52705,37.74727],[-105.52949,37.74744],[-105.53087,37.74589],[-105.52982,37.74419],[-105.52738,37.74402]]]},"properties":{"cell":"89268aa13abffff","res":9,"coarsened":false,"count":1,"hv":1,"mp":0,"y0":2026,"y1":2026,"sp":[[36,1,1,0,2026,2026]]}},{"type":"Feature","geometry":{"type":"Polygon","coordinates":[[[-105.53861,37.70552],[-105.53723,37.70706],[-105.53829,37.70877],[-105.54072,37.70893],[-105.5421,37.70739],[-105.54105,37.70568],[-105.53861,37.70552]]]},"properties":{"cell":"89268aaa98bffff","res":9,"coarsened":false,"count":1,"hv":1,"mp":0,"y0":2023,"y1":2023,"sp":[[101,1,1,0,2023,2023]]}},{"type":"Feature","geometry":{"type":"Polygon","coordinates":[[[-105.50447,37.75229],[-105.50308,37.75383],[-105.50414,37.75554],[-105.50658,37.7557],[-105.50796,37.75416],[-105.5069,37.75245],[-105.50447,37.75229]]]},"properties":{"cell":"89268aa1107ffff","res":9,"coarsened":false,"count":1,"hv":1,"mp":0,"y0":2026,"y1":2026,"sp":[[0,1,1,0,2026,2026]]}},{"type":"Feature","geometry":{"type":"Polygon","coordinates":[[[-105.52422,37.7389],[-105.52284,37.74044],[-105.52389,37.74215],[-105.52633,37.74231],[-105.52771,37.74077],[-105.52665,37.73907],[-105.52422,37.7389]]]},"properties":{"cell":"89268aa1337ffff","res":9,"coarsened":false,"count":1,"hv":1,"mp":0,"y0":2026,"y1":2026,"sp":[[57,1,1,0,2026,2026]]}},{"type":"Feature","geometry":{"type":"Polygon","coordinates":[[[-105.47371,37.72894],[-105.47233,37.73048],[-105.47338,37.73219],[-105.47582,37.73235],[-105.4772,37.73081],[-105.47614,37.7291],[-105.47371,37.72894]]]},"properties":{"cell":"89268aa1d5bffff","res":9,"coarsened":false,"count":2,"hv":2,"mp":0,"y0":2026,"y1":2026,"sp":[[37,2,2,0,2026,2026]]}},{"type":"Feature","geometry":{"type":"Polygon","coordinates":[[[-105.54723,37.69301],[-105.54585,37.69455],[-105.5469,37.69626],[-105.54934,37.69642],[-105.55072,37.69488],[-105.54966,37.69317],[-105.54723,37.69301]]]},"properties":{"cell":"89268aaa97bffff","res":9,"coarsened":false,"count":1,"hv":1,"mp":0,"y0":2026,"y1":2026,"sp":[[15,1,1,0,2026,2026]]}},{"type":"Feature","geometry":{"type":"Polygon","coordinates":[[[-105.49748,37.74854],[-105.4961,37.75008],[-105.49716,37.75179],[-105.49959,37.75196],[-105.50098,37.75041],[-105.49992,37.74871],[-105.49748,37.74854]]]},"properties":{"cell":"89268aa1137ffff","res":9,"coarsened":false,"count":1,"hv":1,"mp":0,"y0":2026,"y1":2026,"sp":[[37,1,1,0,2026,2026]]}},{"type":"Feature","geometry":{"type":"Polygon","coordinates":[[[-105.64546,37.85166],[-105.64408,37.8532],[-105.64514,37.85491],[-105.64758,37.85507],[-105.64896,37.85353],[-105.6479,37.85182],[-105.64546,37.85166]]]},"properties":{"cell":"89268ab8233ffff","res":9,"coarsened":false,"count":1,"hv":1,"mp":0,"y0":2025,"y1":2025,"sp":[[12,1,1,0,2025,2025]]}},{"type":"Feature","geometry":{"type":"Polygon","coordinates":[[[-105.52553,37.7259],[-105.52414,37.72744],[-105.5252,37.72915],[-105.52764,37.72932],[-105.52902,37.72777],[-105.52796,37.72607],[-105.52553,37.7259]]]},"properties":{"cell":"89268aaadb3ffff","res":9,"coarsened":false,"count":1,"hv":1,"mp":0,"y0":2025,"y1":2025,"sp":[[3,1,1,0,2025,2025]]}},{"type":"Feature","geometry":{"type":"Polygon","coordinates":[[[-105.54025,37.68926],[-105.53887,37.69081],[-105.53992,37.69251],[-105.54236,37.69268],[-105.54374,37.69113],[-105.54268,37.68943],[-105.54025,37.68926]]]},"properties":{"cell":"89268aaa967ffff","res":9,"coarsened":false,"count":1,"hv":1,"mp":0,"y0":2024,"y1":2024,"sp":[[67,1,1,0,2024,2024]]}},{"type":"Feature","geometry":{"type":"Polygon","coordinates":[[[-105.66668,37.71244],[-105.6653,37.71399],[-105.66636,37.71569],[-105.6688,37.71586],[-105.67018,37.71431],[-105.66912,37.71261],[-105.66668,37.71244]]]},"properties":{"cell":"89268aa8677ffff","res":9,"coarsened":false,"count":1,"hv":1,"mp":0,"y0":2013,"y1":2013,"sp":[[27,1,1,0,2013,2013]]}},{"type":"Feature","geometry":{"type":"Polygon","coordinates":[[[-105.66927,37.68643],[-105.66789,37.68798],[-105.66894,37.68969],[-105.67138,37.68985],[-105.67276,37.6883],[-105.6717,37.6866],[-105.66927,37.68643]]]},"properties":{"cell":"89268aa8267ffff","res":9,"coarsened":false,"count":3,"hv":3,"mp":0,"y0":1970,"y1":1970,"sp":[[105,1,1,0,1970,1970],[106,1,1,0,1970,1970],[107,1,1,0,1970,1970]]}}],"park":"great_sand_dunes","h3_res":9,"species_index":[{"n":"Odocoileus hemionus","c":"Mule Deer","k":"Mammalia"},{"n":"Tachycineta thalassina","c":"Violet-green Swallow","k":"Aves"},{"n":"Pipilo chlorurus","c":"Green-tailed Towhee","k":"Aves"},{"n":"Pica hudsonia","c":"Black-billed Magpie","k":"Aves"},{"n":"Selasphorus rufus","c":"Rufous Hummingbird","k":"Aves"},{"n":"Neotamias minimus","c":"Least Chipmunk","k":"Mammalia"},{"n":"Nucifraga columbiana","c":"Clark's Nutcracker","k":"Aves"},{"n":"Aphelocoma woodhouseii","c":"Woodhouse's Scrub-Jay","k":"Aves"},{"n":"Pooecetes gramineus","c":"Vesper Sparrow","k":"Aves"},{"n":"Sialia currucoides","c":"Mountain Bluebird","k":"Aves"},{"n":"Erethizon dorsatum","c":"North American Porcupine","k":"Mammalia"},{"n":"Melospiza melodia","c":"Song Sparrow","k":"Aves"},{"n":"Piranga ludoviciana","c":"Western Tanager","k":"Aves"},{"n":"Corvus brachyrhynchos","c":"American Crow","k":"Aves"},{"n":"Antilocapra americana","c":"Pronghorn","k":"Mammalia"},{"n":"Spizella passerina","c":"Chipping Sparrow","k":"Aves"},{"n":"Poecile atricapillus","c":"Black-capped Chickadee","k":"Aves"},{"n":"Buteo jamaicensis","c":"Red-tailed Hawk","k":"Aves"},{"n":"Mimus polyglottos","c":"Northern Mockingbird","k":"Aves"},{"n":"Cathartes aura","c":"Turkey Vulture","k":"Aves"},{"n":"Ovis canadensis","c":"Bighorn Sheep","k":"Mammalia"},{"n":"Callospermophilus lateralis","c":"Common Golden-mantled Ground Squirrel","k":"Mammalia"},{"n":"Sitta carolinensis","c":"White-breasted Nuthatch","k":"Aves"},{"n":"Tachycineta bicolor","c":"Tree Swallow","k":"Aves"},{"n":"Meleagris gallopavo","c":"Wild Turkey","k":"Aves"},{"n":"Ursus americanus","c":"American Black Bear","k":"Mammalia"},{"n":"Cervus canadensis","c":"Wapiti","k":"Mammalia"},{"n":"Selasphorus platycercus","c":"Broad-tailed Hummingbird","k":"Aves"},{"n":"Vireo swainsoni","c":"Western Warbling Vireo","k":"Aves"},{"n":"Lepus californicus","c":"Black-tailed Jackrabbit","k":"Mammalia"},{"n":"Setophaga coronata","c":"Yellow-rumped Warbler","k":"Aves"},{"n":"Oreoscoptes montanus","c":"Sage Thrasher","k":"Aves"},{"n":"Spizella breweri","c":"Brewer's Sparrow","k":"Aves"},{"n":"Turdus migratorius","c":"American Robin","k":"Aves"},{"n":"Sphyrapicus nuchalis","c":"Red-naped Sapsucker","k":"Aves"},{"n":"Dipodomys ordii","c":"Ord's Kangaroo Rat","k":"Mammalia"},{"n":"Corvus corax","c":"Common Raven","k":"Aves"},{"n":"Astur cooperii","c":"Cooper's Hawk","k":"Aves"},{"n":"Poecile gambeli","c":"Mountain Chickadee","k":"Aves"},{"n":"Myadestes townsendi","c":"Townsend's Solitaire","k":"Aves"},{"n":"Lepus americanus","c":"Snowshoe Hare","k":"Mammalia"},{"n":"Thomomys talpoides","c":"Northern Pocket Gopher","k":"Mammalia"},{"n":"Corvus cryptoleucus","c":"Chihuahuan Raven","k":"Aves"},{"n":"Pipilo maculatus","c":"Spotted Towhee","k":"Aves"},{"n":"Empidonax difficilis","c":"Western Flycatcher","k":"Aves"},{"n":"Leuconotopicus villosus","c":"Hairy Woodpecker","k":"Aves"},{"n":"Troglodytes aedon","c":"Northern House Wren","k":"Aves"},{"n":"Junco hyemalis","c":"Dark-eyed Junco","k":"Aves"},{"n":"Leiothlypis celata","c":"Orange-crowned Warbler","k":"Aves"},{"n":"Sylvilagus nuttallii","c":"Mountain Cottontail","k":"Mammalia"},{"n":"Pheucticus melanocephalus","c":"Black-headed Grosbeak","k":"Aves"},{"n":"Otospermophilus variegatus","c":"Rock Squirrel","k":"Mammalia"},{"n":"Dumetella carolinensis","c":"Gray Catbird","k":"Aves"},{"n":"Hirundo rustica","c":"Barn Swallow","k":"Aves"},{"n":"Colaptes auratus","c":"Northern Flicker","k":"Aves"},{"n":"Cardellina pusilla","c":"Wilson's Warbler","k":"Aves"},{"n":"Canis latrans","c":"Coyote","k":"Mammalia"},{"n":"Bubo virginianus","c":"Great Horned Owl","k":"Aves"},{"n":"Eremophila alpestris","c":"Horned Lark","k":"Aves"},{"n":"Artemisiospiza nevadensis","c":"Sagebrush Sparrow","k":"Aves"},{"n":"Tamiasciurus fremonti","c":"Fremont's Squirrel","k":"Mammalia"},{"n":"Canis familiaris","c":"Domestic Dog","k":"Mammalia"},{"n":"Lepus townsendii","c":"White-tailed Jackrabbit","k":"Mammalia"},{"n":"Catharus guttatus","c":"Hermit Thrush","k":"Aves"},{"n":"Ictidomys tridecemlineatus","c":"Thirteen-lined Ground Squirrel","k":"Mammalia"},{"n":"Sayornis saya","c":"Say's Phoebe","k":"Aves"},{"n":"Setophaga aestiva","c":"Northern Yellow Warbler","k":"Aves"},{"n":"Contopus sordidulus","c":"Western Wood-Pewee","k":"Aves"},{"n":"Phasianus colchicus","c":"Ring-necked Pheasant","k":"Aves"},{"n":"Dendragapus obscurus","c":"Dusky Grouse","k":"Aves"},{"n":"Cyanocitta stelleri","c":"Steller's Jay","k":"Aves"},{"n":"Perisoreus canadensis","c":"Canada Jay","k":"Aves"},{"n":"Lynx rufus","c":"Bobcat","k":"Mammalia"},{"n":"Chondestes grammacus","c":"Lark Sparrow","k":"Aves"},{"n":"Geothlypis tolmiei","c":"MacGillivray's Warbler","k":"Aves"},{"n":"Empidonax oberholseri","c":"Dusky Flycatcher","k":"Aves"},{"n":"Vireo plumbeus","c":"Plumbeous Vireo","k":"Aves"},{"n":"Gymnorhinus cyanocephalus","c":"Pinyon Jay","k":"Aves"},{"n":"Sitta canadensis","c":"Red-breasted Nuthatch","k":"Aves"},{"n":"Zenaida macroura","c":"Mourning Dove","k":"Aves"},{"n":"Polioptila caerulea","c":"Blue-gray Gnatcatcher","k":"Aves"},{"n":"Tyrannus verticalis","c":"Western Kingbird","k":"Aves"},{"n":"Empidonax traillii","c":"Willow Flycatcher","k":"Aves"},{"n":"Buteo swainsoni","c":"Swainson's Hawk","k":"Aves"},{"n":"Lanius ludovicianus","c":"Loggerhead Shrike","k":"Aves"},{"n":"Neotamias quadrivittatus","c":"Colorado Chipmunk","k":"Mammalia"},{"n":"Puma concolor","c":"Mountain Lion","k":"Mammalia"},{"n":"Zonotrichia leucophrys","c":"White-crowned Sparrow","k":"Aves"},{"n":"Aquila chrysaetos","c":"Golden Eagle","k":"Aves"},{"n":"Psaltriparus minimus","c":"Bushtit","k":"Aves"},{"n":"Sylvilagus audubonii","c":"Desert Cottontail","k":"Mammalia"},{"n":"Falco sparverius","c":"American Kestrel","k":"Aves"},{"n":"Contopus cooperi","c":"Olive-sided Flycatcher","k":"Aves"},{"n":"Haemorhous cassinii","c":"Cassin's Finch","k":"Aves"},{"n":"Molothrus ater","c":"Brown-headed Cowbird","k":"Aves"},{"n":"Sciurus aberti","c":"Abert's Squirrel","k":"Mammalia"},{"n":"Setophaga townsendi","c":"Townsend's Warbler","k":"Aves"},{"n":"Selasphorus calliope","c":"Calliope Hummingbird","k":"Aves"},{"n":"Tadarida brasiliensis","c":"Mexican Free-tailed Bat","k":"Mammalia"},{"n":"Quiscalus quiscula","c":"Common Grackle","k":"Aves"},{"n":"Corvus","c":"Crows and Ravens","k":"Aves"},{"n":"Cynomys gunnisoni","c":"Gunnison's Prairie Dog","k":"Mammalia"},{"n":"Spinus psaltria","c":"Lesser Goldfinch","k":"Aves"},{"n":"Sialia mexicana","c":"Western Bluebird","k":"Aves"},{"n":"Sturnella neglecta","c":"Western Meadowlark","k":"Aves"},{"n":"Recurvirostra americana","c":null,"k":"Aves"},{"n":"Tringa flavipes","c":null,"k":"Aves"},{"n":"Spizella atrogularis","c":null,"k":"Aves"}],"entry":["species_index","count","human_verified","model_predicted","first_year","last_year"],"suppressed":{"excluded":{},"coarsened":{"Puma concolor":1}},"merged_names":{"Odocoileus hemionus hemionus":"Odocoileus hemionus","Setophaga coronata auduboni":"Setophaga coronata","Ovis canadensis canadensis":"Ovis canadensis","Buteo jamaicensis \u00d7 regalis":"Buteo jamaicensis","Callospermophilus lateralis lateralis":"Callospermophilus lateralis","Junco hyemalis caniceps":"Junco hyemalis","Cervus canadensis canadensis":"Cervus canadensis"}}