{"type":"Feature","geometry":{"type":"MultiPolygon","coordinates":[[[[-80.3378,25.4631],[-80.3457,25.463],[-80.3466,25.4629],[-80.3468,25.4819],[-80.3421,25.4819],[-80.3422,25.4898],[-80.343,25.4986],[-80.3389,25.5077],[-80.3382,25.5128],[-80.3352,25.5182],[-80.335,25.5223],[-80.3352,25.5299],[-80.3315,25.5371],[-80.3259,25.5346],[-80.3253,25.5346],[-80.3246,25.5357],[-80.3243,25.536],[-80.324,25.536],[-80.3265,25.5404],[-80.3284,25.5428],[-80.3292,25.5434],[-80.3292,25.5443],[-80.3242,25.5443],[-80.3242,25.5482],[-80.3233,25.5496],[-80.3206,25.552],[-80.3139,25.5522],[-80.3113,25.5595],[-80.3106,25.5632],[-80.3104,25.5669],[-80.3074,25.5725],[-80.3074,25.5779],[-80.3095,25.5817],[-80.3095,25.5853],[-80.3108,25.5864],[-80.3109,25.5943],[-80.3101,25.5943],[-80.3102,25.5997],[-80.3099,25.6014],[-80.3098,25.6014],[-80.3093,25.6057],[-80.3091,25.6059],[-80.3092,25.6061],[-80.3095,25.6062],[-80.3092,25.6072],[-80.3084,25.6073],[-80.3085,25.6074],[-80.3081,25.6075],[-80.3085,25.6076],[-80.3085,25.6078],[-80.3001,25.608],[-80.2201,25.596],[-80.201,25.6711],[-80.1782,25.6711],[-80.1343,25.6449],[-80.0894,25.6447],[-80.0895,25.6434],[-80.0907,25.6384],[-80.0904,25.6347],[-80.091,25.6305],[-80.0911,25.6276],[-80.0908,25.6229],[-80.091,25.6199],[-80.0913,25.6179],[-80.0923,25.6154],[-80.0924,25.6149],[-80.0922,25.6134],[-80.0919,25.6122],[-80.091,25.6106],[-80.0899,25.6093],[-80.0905,25.6051],[-80.0906,25.6017],[-80.091,25.5999],[-80.0909,25.5961],[-80.0914,25.5942],[-80.0921,25.5875],[-80.0914,25.5855],[-80.0912,25.5847],[-80.0921,25.5814],[-80.0916,25.5787],[-80.092,25.5772],[-80.0927,25.5757],[-80.0923,25.5739],[-80.0923,25.5731],[-80.0938,25.5669],[-80.0941,25.5651],[-80.0948,25.5625],[-80.0948,25.5601],[-80.0951,25.5581],[-80.095,25.5518],[-80.0951,25.5503],[-80.0955,25.5478],[-80.0954,25.5456],[-80.0957,25.5447],[-80.0957,25.5422],[-80.096,25.5409],[-80.0968,25.5391],[-80.0968,25.5368],[-80.0978,25.5342],[-80.098,25.5332],[-80.0977,25.5314],[-80.0987,25.5258],[-80.0982,25.5232],[-80.0986,25.5215],[-80.0994,25.5191],[-80.1001,25.5162],[-80.1012,25.5101],[-80.1019,25.504],[-80.1023,25.5002],[-80.1024,25.4996],[-80.1034,25.498],[-80.1049,25.4965],[-80.1058,25.494],[-80.106,25.4923],[-80.1059,25.4836],[-80.1071,25.4787],[-80.1075,25.4763],[-80.109,25.4719],[-80.1093,25.4677],[-80.1103,25.4658],[-80.1108,25.4646],[-80.1111,25.4605],[-80.1117,25.4579],[-80.113,25.4529],[-80.1142,25.4497],[-80.1148,25.4463],[-80.116,25.4433],[-80.1161,25.4416],[-80.116,25.4385],[-80.1168,25.4362],[-80.1172,25.4346],[-80.1183,25.4319],[-80.1189,25.4278],[-80.1195,25.4259],[-80.1196,25.4229],[-80.1201,25.4217],[-80.1218,25.4203],[-80.1225,25.4192],[-80.1227,25.4182],[-80.1227,25.4149],[-80.1228,25.4143],[-80.1231,25.4135],[-80.1253,25.4098],[-80.1253,25.4081],[-80.1265,25.4057],[-80.1269,25.4043],[-80.127,25.4024],[-80.1281,25.3997],[-80.1285,25.398],[-80.1293,25.3964],[-80.1304,25.3931],[-80.1306,25.3925],[-80.13,25.3914],[-80.1301,25.3909],[-80.1315,25.387],[-80.1321,25.3861],[-80.1323,25.3841],[-80.1328,25.3834],[-80.1337,25.3829],[-80.1345,25.3813],[-80.1365,25.3804],[-80.1369,25.3797],[-80.1368,25.3789],[-80.1364,25.3786],[-80.1355,25.3783],[-80.1352,25.378],[-80.1351,25.3773],[-80.1351,25.3747],[-80.1354,25.373],[-80.1365,25.3711],[-80.1369,25.3699],[-80.1363,25.3688],[-80.1362,25.3682],[-80.1371,25.3669],[-80.1377,25.3643],[-80.1393,25.3614],[-80.1397,25.3594],[-80.1396,25.3573],[-80.1409,25.3556],[-80.1415,25.3539],[-80.1413,25.3532],[-80.1423,25.3502],[-80.1442,25.3466],[-80.1451,25.3442],[-80.1461,25.3402],[-80.1462,25.3387],[-80.1459,25.3374],[-80.146,25.3368],[-80.1464,25.336],[-80.1476,25.3349],[-80.1484,25.3337],[-80.1489,25.3314],[-80.1503,25.3286],[-80.1516,25.3245],[-80.1523,25.3214],[-80.1527,25.3182],[-80.1542,25.3156],[-80.1549,25.3134],[-80.1552,25.3114],[-80.1548,25.3098],[-80.1542,25.3088],[-80.154,25.3081],[-80.155,25.3063],[-80.157,25.3045],[-80.1581,25.3031],[-80.1618,25.2972],[-80.1651,25.2914],[-80.2101,25.3364],[-80.2439,25.3353],[-80.2458,25.3366],[-80.2467,25.3378],[-80.2478,25.3407],[-80.2501,25.3425],[-80.2538,25.3463],[-80.255,25.3499],[-80.2559,25.3514],[-80.2565,25.3519],[-80.2825,25.3665],[-80.3107,25.3726],[-80.315,25.367],[-80.3155,25.3736],[-80.3317,25.3771],[-80.3314,25.4187],[-80.3223,25.4188],[-80.323,25.4258],[-80.3234,25.427],[-80.3232,25.4283],[-80.3231,25.4286],[-80.317,25.436],[-80.3165,25.437],[-80.3164,25.438],[-80.3166,25.4389],[-80.3172,25.4398],[-80.318,25.4405],[-80.319,25.441],[-80.3204,25.4411],[-80.3253,25.4406],[-80.3273,25.4423],[-80.3275,25.4465],[-80.3472,25.4464],[-80.3472,25.4494],[-80.3396,25.4506],[-80.3409,25.454],[-80.3417,25.4557],[-80.3437,25.4588],[-80.3449,25.4602],[-80.3447,25.4604],[-80.3443,25.4602],[-80.3439,25.4604],[-80.3437,25.4613],[-80.3373,25.4591],[-80.3323,25.4591],[-80.3321,25.4596],[-80.3317,25.4606],[-80.3318,25.4631],[-80.3378,25.4631]]]]},"properties":{"park":"biscayne","name":"Biscayne National Park","source":"iNaturalist place","place_id":95108,"source_url":"https://www.inaturalist.org/places/95108"}}