{"type":"Feature","geometry":{"type":"MultiPolygon","coordinates":[[[[-116.2884,36.4281],[-116.2883,36.4246],[-116.293,36.4247],[-116.2931,36.4282],[-116.2884,36.4281]]],[[[-117.6769,37.3451],[-117.2271,37.0167],[-116.8784,37.0165],[-116.8808,36.757],[-116.544,36.5014],[-116.5049,36.4521],[-116.5049,36.4286],[-116.487,36.4292],[-116.5173,36.4003],[-116.5467,36.4086],[-116.6239,36.3487],[-116.6843,36.3761],[-116.6848,36.3075],[-116.6495,36.2981],[-116.6495,36.2691],[-116.6313,36.2692],[-116.6134,36.2404],[-116.5529,36.2405],[-116.527,36.226],[-116.527,36.1969],[-116.509,36.1969],[-116.4912,36.1674],[-116.3844,36.1673],[-116.3834,36.2083],[-116.3322,36.1797],[-116.3065,36.1287],[-116.295,36.0177],[-116.2765,35.9973],[-116.3283,35.9932],[-116.4059,35.9565],[-116.4173,35.9287],[-116.4032,35.8984],[-116.417,35.8782],[-116.4027,35.8123],[-116.3551,35.8122],[-116.3407,35.7634],[-116.3168,35.7495],[-116.2918,35.6335],[-116.4132,35.65],[-116.9255,35.6478],[-116.9246,35.7099],[-116.9789,35.7157],[-116.9745,35.7316],[-116.9389,35.7316],[-116.9391,35.7954],[-117.1167,35.7956],[-117.0991,35.8587],[-117.1411,35.9945],[-117.086,36.0208],[-117.1276,36.0583],[-117.1225,36.1001],[-117.1562,36.1316],[-117.1585,36.1566],[-117.1975,36.1521],[-117.2785,36.2026],[-117.3139,36.2558],[-117.3625,36.2709],[-117.4122,36.3267],[-117.5293,36.3074],[-117.5483,36.3409],[-117.6255,36.3653],[-117.6409,36.4269],[-117.6037,36.4341],[-117.6043,36.4482],[-117.6248,36.4455],[-117.7059,36.5208],[-117.745,36.5797],[-117.7558,36.6437],[-117.8302,36.6676],[-117.83,36.7092],[-117.9172,36.8357],[-117.9033,36.8913],[-117.9217,36.9477],[-117.9834,36.9552],[-117.983,37.1145],[-118.001,37.1146],[-118.0008,37.1879],[-117.9839,37.2282],[-117.9439,37.2358],[-117.9385,37.2169],[-117.8892,37.2286],[-117.8771,37.2813],[-117.7963,37.2416],[-117.7495,37.2212],[-117.718,37.2267],[-117.7139,37.2293],[-117.6879,37.1916],[-117.6647,37.1952],[-117.633,37.2428],[-117.6864,37.24],[-117.7485,37.222],[-117.8725,37.2818],[-117.8727,37.2987],[-117.7588,37.3417],[-117.6989,37.3306],[-117.6769,37.3451]],[[-117.096,36.0357],[-117.0918,36.0399],[-117.0907,36.0495],[-117.0922,36.0399],[-117.096,36.0357]],[[-117.0894,36.0499],[-117.0861,36.0437],[-117.0762,36.049],[-117.0841,36.0473],[-117.0894,36.0499]]]]},"properties":{"park":"death_valley","name":"Death Valley National Park","source":"iNaturalist place","place_id":4504,"source_url":"https://www.inaturalist.org/places/4504"}}