{"type":"Feature","geometry":{"type":"Polygon","coordinates":[[[-111.3057,38.5344],[-111.3057,38.527],[-111.2946,38.527],[-111.2946,38.5125],[-111.2485,38.5126],[-111.2484,38.4691],[-111.1936,38.4692],[-111.1935,38.4547],[-111.1751,38.4547],[-111.1751,38.4257],[-111.1935,38.4257],[-111.1935,38.3969],[-111.1751,38.3969],[-111.175,38.3824],[-111.1566,38.3824],[-111.1566,38.339],[-111.1382,38.3389],[-111.1382,38.3245],[-111.1198,38.3245],[-111.1202,38.2852],[-111.1242,38.2857],[-111.1357,38.2821],[-111.1387,38.2831],[-111.1381,38.2145],[-111.1376,38.193],[-111.12,38.193],[-111.12,38.1524],[-111.1143,38.1524],[-111.1143,38.125],[-111.1051,38.125],[-111.1051,38.1178],[-111.096,38.1177],[-111.0959,38.096],[-111.1051,38.096],[-111.1051,38.0888],[-111.1143,38.0888],[-111.1143,38.0743],[-111.1235,38.0743],[-111.1235,38.0598],[-111.1143,38.0598],[-111.1143,38.0308],[-111.0598,38.0308],[-111.0598,37.9872],[-111.0415,37.9872],[-111.0414,37.9602],[-111.0456,37.9608],[-111.0436,37.9516],[-111.0374,37.9391],[-111.0331,37.9337],[-111.0303,37.9314],[-111.0229,37.9314],[-111.0228,37.9144],[-111.0251,37.9093],[-111.025,37.9047],[-111.02,37.8937],[-111.0175,37.8982],[-111.0088,37.8986],[-111.0119,37.8951],[-111.0151,37.8852],[-111.0103,37.8708],[-111.0094,37.8695],[-111.0053,37.8701],[-111.0037,37.8717],[-111.0042,37.8734],[-110.9933,37.8735],[-111.004,37.8658],[-111.0027,37.8626],[-110.9925,37.8557],[-110.9863,37.8574],[-110.9842,37.8533],[-110.9864,37.8522],[-110.9841,37.8503],[-110.9678,37.843],[-110.9677,37.8228],[-110.9607,37.813],[-110.959,37.8074],[-110.9579,37.7907],[-110.9596,37.7899],[-110.9573,37.7847],[-110.9578,37.7812],[-110.9549,37.7757],[-110.9557,37.7714],[-110.948,37.76],[-110.9421,37.7403],[-110.9398,37.7406],[-110.936,37.7348],[-110.9314,37.7346],[-110.9302,37.733],[-110.9322,37.728],[-110.9276,37.7099],[-110.9282,37.7051],[-110.9238,37.7004],[-110.9214,37.6936],[-110.9199,37.694],[-110.9185,37.6914],[-110.9185,37.683],[-110.9126,37.6752],[-110.9124,37.6715],[-110.9032,37.6638],[-110.905,37.6552],[-110.904,37.6522],[-110.8937,37.6475],[-110.8879,37.6396],[-110.8838,37.6374],[-110.8733,37.627],[-110.8656,37.6165],[-110.8625,37.6058],[-110.8624,37.5986],[-110.8907,37.5986],[-110.8906,37.6131],[-110.8997,37.6131],[-110.8997,37.6275],[-110.9088,37.6275],[-110.9089,37.642],[-110.9179,37.642],[-110.918,37.6564],[-110.9362,37.6564],[-110.9363,37.6709],[-110.9733,37.6709],[-110.9733,37.714],[-110.986,37.714],[-110.986,37.7285],[-111.0042,37.7285],[-111.0042,37.743],[-111.0225,37.743],[-111.0225,37.7575],[-111.0316,37.7575],[-111.0316,37.7647],[-111.0407,37.7647],[-111.0408,37.772],[-111.0499,37.772],[-111.0499,37.7937],[-111.059,37.7937],[-111.0591,37.8009],[-111.0681,37.8009],[-111.0681,37.8082],[-111.0772,37.8082],[-111.0773,37.9024],[-111.0956,37.9024],[-111.0958,37.9459],[-111.1141,37.9458],[-111.1142,37.9801],[-111.1325,37.9801],[-111.1325,37.9946],[-111.1417,37.9946],[-111.1417,38.0019],[-111.1691,38.0019],[-111.1692,38.0091],[-111.187,38.0091],[-111.1871,38.1529],[-111.2125,38.1528],[-111.2119,38.1968],[-111.2304,38.1967],[-111.2304,38.2112],[-111.2488,38.2112],[-111.2488,38.2401],[-111.2652,38.2401],[-111.2651,38.2546],[-111.3019,38.2546],[-111.3018,38.2908],[-111.311,38.2908],[-111.311,38.2981],[-111.3202,38.2981],[-111.3202,38.3094],[-111.357,38.3094],[-111.357,38.3243],[-111.3588,38.3243],[-111.3589,38.3958],[-111.3957,38.3958],[-111.3957,38.4248],[-111.4233,38.4247],[-111.4233,38.4392],[-111.4141,38.4392],[-111.4141,38.4465],[-111.3774,38.4465],[-111.3774,38.4756],[-111.3958,38.4756],[-111.3958,38.4981],[-111.3987,38.4981],[-111.3982,38.5271],[-111.3427,38.5271],[-111.3427,38.5344],[-111.3057,38.5344]]]},"properties":{"park":"capitol_reef","name":"Capitol Reef National Park","source":"iNaturalist place","place_id":69282,"source_url":"https://www.inaturalist.org/places/69282"}}