{"type":"Feature","geometry":{"type":"MultiPolygon","coordinates":[[[[-104.8479,31.8323],[-104.8479,31.8132],[-104.9182,31.8135],[-104.9182,31.8594],[-104.9363,31.8593],[-104.9363,31.873],[-104.9533,31.873],[-104.9533,31.8619],[-104.989,31.8618],[-104.989,31.8778],[-105.0254,31.8779],[-105.0246,31.9391],[-105.0071,31.9391],[-105.0072,31.9544],[-104.9581,31.9544],[-104.9582,31.9703],[-104.9539,31.9703],[-104.9539,32.0004],[-104.7406,32.0003],[-104.7407,31.9759],[-104.7491,31.976],[-104.7481,31.975],[-104.7462,31.974],[-104.7434,31.972],[-104.7421,31.9708],[-104.7415,31.9695],[-104.74,31.9687],[-104.7391,31.9675],[-104.739,31.967],[-104.7397,31.9643],[-104.7405,31.9619],[-104.7398,31.9589],[-104.7392,31.958],[-104.7391,31.9573],[-104.7404,31.955],[-104.741,31.9526],[-104.7416,31.9514],[-104.7415,31.951],[-104.7407,31.95],[-104.74,31.9489],[-104.7394,31.9485],[-104.7355,31.9482],[-104.7346,31.9477],[-104.7336,31.9466],[-104.7312,31.946],[-104.7292,31.9457],[-104.7247,31.9442],[-104.7232,31.9435],[-104.7186,31.9424],[-104.7172,31.9418],[-104.7154,31.9405],[-104.7146,31.9402],[-104.7132,31.9401],[-104.7116,31.9406],[-104.7112,31.9407],[-104.7121,31.9398],[-104.7127,31.9396],[-104.7139,31.9395],[-104.7149,31.9397],[-104.7158,31.9401],[-104.7176,31.9414],[-104.7187,31.9419],[-104.7234,31.9429],[-104.7249,31.9437],[-104.7294,31.9452],[-104.7314,31.9454],[-104.7339,31.9461],[-104.7344,31.9464],[-104.7351,31.9473],[-104.7357,31.9477],[-104.7397,31.9481],[-104.7405,31.9485],[-104.7413,31.9498],[-104.7427,31.9486],[-104.7436,31.9485],[-104.7453,31.9497],[-104.7462,31.9508],[-104.7476,31.952],[-104.749,31.9523],[-104.7501,31.9529],[-104.753,31.9534],[-104.7541,31.9539],[-104.7541,31.9536],[-104.7674,31.9536],[-104.7675,31.9385],[-104.7765,31.9385],[-104.7766,31.8936],[-104.7943,31.8937],[-104.7941,31.8897],[-104.8122,31.8903],[-104.8221,31.8903],[-104.8221,31.8791],[-104.8299,31.879],[-104.83,31.8648],[-104.8479,31.8648],[-104.8479,31.8323]],[[-104.7398,31.9676],[-104.7405,31.9684],[-104.742,31.9691],[-104.7426,31.9705],[-104.7442,31.9719],[-104.7468,31.9737],[-104.7485,31.9746],[-104.7501,31.976],[-104.754,31.976],[-104.7541,31.9542],[-104.753,31.9537],[-104.7501,31.9532],[-104.7488,31.9526],[-104.7474,31.9522],[-104.746,31.9511],[-104.7451,31.9499],[-104.7435,31.9488],[-104.7429,31.9488],[-104.7417,31.9497],[-104.7415,31.95],[-104.7421,31.9508],[-104.7422,31.9515],[-104.7416,31.9528],[-104.7409,31.9554],[-104.7397,31.9575],[-104.7398,31.9579],[-104.7404,31.9587],[-104.7412,31.9619],[-104.7397,31.9671],[-104.7398,31.9676]]]]},"properties":{"park":"guadalupe_mountains","name":"Guadalupe Mountains National Park","source":"iNaturalist place","place_id":69313,"source_url":"https://www.inaturalist.org/places/69313"}}