{"type":"Feature","geometry":{"type":"Polygon","coordinates":[[[-159.7537,67.8681],[-159.7119,67.8408],[-159.5501,67.8054],[-159.4886,67.8092],[-159.4828,67.7901],[-159.4331,67.7794],[-159.3033,67.7829],[-159.3598,67.7531],[-159.3434,67.747],[-159.3424,67.7259],[-159.3778,67.7032],[-159.2926,67.6749],[-159.3006,67.6641],[-159.2694,67.6399],[-159.2043,67.6406],[-159.1531,67.6171],[-159.0376,67.6314],[-159.0214,67.6198],[-159.0411,67.5889],[-159.0321,67.5671],[-158.8721,67.6162],[-158.867,67.6412],[-158.8809,67.6557],[-158.8661,67.666],[-158.8804,67.675],[-158.7349,67.6765],[-158.6325,67.6505],[-158.6272,67.607],[-158.5114,67.5747],[-158.5301,67.5585],[-158.4945,67.529],[-158.2995,67.5437],[-158.2647,67.5198],[-158.2968,67.5072],[-158.2855,67.4891],[-158.0519,67.5404],[-157.9313,67.532],[-157.9444,67.512],[-157.9059,67.4972],[-157.9405,67.4811],[-157.8447,67.4498],[-157.8602,67.4237],[-157.8298,67.4067],[-157.9181,67.3551],[-157.9412,67.3025],[-157.9272,67.2902],[-158.021,67.2444],[-158.1024,67.2303],[-158.1931,67.2557],[-158.3156,67.2557],[-158.3156,67.1691],[-158.2879,67.1691],[-158.2877,67.1402],[-158.1392,67.1403],[-158.1391,67.0825],[-158.2132,67.0825],[-158.2128,66.9959],[-158.3041,66.9743],[-158.304,66.9563],[-158.374,66.9867],[-158.4779,66.9961],[-158.5448,66.9844],[-158.565,66.9749],[-158.5595,66.9583],[-158.5948,66.9565],[-158.6258,66.9691],[-158.6154,66.983],[-158.6673,66.9967],[-158.8352,66.9709],[-158.9647,66.9801],[-158.9633,66.9642],[-159.0271,66.9309],[-159.1818,66.9408],[-159.1968,66.9248],[-159.2293,66.9549],[-159.3912,66.9146],[-159.4146,66.9321],[-159.4783,66.9118],[-159.5106,66.9278],[-159.4774,66.9614],[-159.5218,66.9736],[-159.65,66.9559],[-159.8602,66.9616],[-159.8603,67.1258],[-159.9736,67.1604],[-160.0429,67.1523],[-160.164,67.1708],[-160.1874,67.1939],[-160.1809,67.2069],[-160.239,67.2404],[-160.2144,67.254],[-160.2465,67.2846],[-160.2067,67.3126],[-160.1672,67.3185],[-160.204,67.3469],[-160.1955,67.3599],[-160.2849,67.3995],[-160.2271,67.4395],[-160.2698,67.4495],[-160.279,67.469],[-160.2617,67.4839],[-160.155,67.4969],[-160.2365,67.5478],[-160.226,67.5557],[-160.2964,67.5734],[-160.2421,67.6056],[-160.2554,67.6107],[-160.2418,67.6377],[-160.2848,67.6498],[-160.2752,67.6739],[-160.2332,67.6873],[-160.246,67.7022],[-160.2285,67.7132],[-160.1819,67.7366],[-160.0292,67.7542],[-159.9949,67.79],[-159.9424,67.8058],[-159.9589,67.8252],[-159.9207,67.8508],[-159.7537,67.8681]]]},"properties":{"park":"kobuk_valley","name":"Kobuk Valley National Park","source":"iNaturalist place","place_id":69115,"source_url":"https://www.inaturalist.org/places/69115"}}