{"type":"Feature","geometry":{"type":"MultiPolygon","coordinates":[[[[-104.4604,32.1122],[-104.4604,32.1096],[-104.462,32.11],[-104.4628,32.1103],[-104.4641,32.1106],[-104.466,32.1102],[-104.4667,32.1105],[-104.4682,32.1103],[-104.4699,32.1097],[-104.4702,32.1095],[-104.4702,32.1083],[-104.4715,32.1089],[-104.4724,32.1086],[-104.4741,32.1092],[-104.4757,32.1107],[-104.4761,32.1146],[-104.4758,32.1157],[-104.4757,32.1157],[-104.4756,32.1149],[-104.4747,32.114],[-104.4742,32.1131],[-104.473,32.1122],[-104.4711,32.112],[-104.4715,32.1105],[-104.4674,32.1111],[-104.467,32.1115],[-104.4656,32.1118],[-104.4628,32.1112],[-104.4619,32.1113],[-104.4615,32.1114],[-104.4608,32.1122],[-104.4604,32.1122]]],[[[-104.5798,32.167],[-104.5795,32.1741],[-104.5624,32.1743],[-104.5619,32.1814],[-104.5447,32.1817],[-104.5276,32.1816],[-104.5278,32.1959],[-104.46,32.196],[-104.4432,32.1953],[-104.4343,32.1954],[-104.4343,32.199],[-104.4086,32.1992],[-104.3921,32.1991],[-104.3921,32.1955],[-104.375,32.1957],[-104.375,32.1848],[-104.3708,32.1848],[-104.3708,32.1812],[-104.3793,32.1811],[-104.3793,32.1775],[-104.3835,32.1775],[-104.3836,32.1665],[-104.4092,32.1666],[-104.4095,32.1591],[-104.4267,32.159],[-104.4433,32.1594],[-104.4692,32.1597],[-104.4692,32.1523],[-104.4863,32.1523],[-104.4863,32.1451],[-104.5034,32.145],[-104.5034,32.1377],[-104.512,32.1377],[-104.512,32.1304],[-104.5205,32.1304],[-104.5205,32.1231],[-104.5291,32.1231],[-104.5376,32.1235],[-104.5376,32.1158],[-104.5463,32.1159],[-104.5464,32.1086],[-104.5463,32.0938],[-104.5888,32.0939],[-104.5888,32.0866],[-104.5973,32.0866],[-104.5973,32.0794],[-104.6401,32.0794],[-104.6408,32.0706],[-104.6495,32.0706],[-104.6621,32.0712],[-104.6637,32.0476],[-104.668,32.0476],[-104.6763,32.0483],[-104.6764,32.0408],[-104.6848,32.0415],[-104.6845,32.049],[-104.6832,32.0642],[-104.6824,32.0938],[-104.6654,32.0938],[-104.6648,32.1229],[-104.6487,32.1229],[-104.6488,32.1664],[-104.5798,32.167]]]]},"properties":{"park":"carlsbad_caverns","name":"Carlsbad Caverns National Park","source":"iNaturalist place","place_id":69109,"source_url":"https://www.inaturalist.org/places/69109"}}