{"type":"FeatureCollection","features":[{"type":"Feature","geometry":{"type":"Polygon","coordinates":[[[-104.46891,32.10819],[-104.46758,32.10978],[-104.46857,32.11156],[-104.47088,32.11174],[-104.4722,32.11015],[-104.47122,32.10837],[-104.46891,32.10819]]]},"properties":{"cell":"8948d430e6fffff","res":9,"coarsened":false,"count":618,"hv":618,"mp":0,"y0":1991,"y1":2026,"sp":[[8,55,55,0,2006,2026],[10,55,55,0,2010,2026],[9,20,20,0,1991,2026],[1,17,17,0,2016,2026],[12,11,11,0,2011,2026],[61,11,11,0,2013,2026],[35,11,11,0,2019,2026],[22,10,10,0,2013,2026],[31,10,10,0,2018,2026],[26,10,10,0,2019,2026],[41,10,10,0,2013,2026],[34,9,9,0,2016,2026],[146,9,9,0,2012,2026],[64,8,8,0,2019,2025],[5,8,8,0,2019,2024],[11,8,8,0,2022,2026],[127,8,8,0,2022,2025],[32,8,8,0,2014,2026],[3,7,7,0,2013,2026],[21,7,7,0,2018,2024],[36,7,7,0,2016,2026],[24,7,7,0,2016,2026],[118,7,7,0,1991,2025],[144,7,7,0,2021,2022],[15,7,7,0,2021,2026],[25,6,6,0,2014,2023],[63,6,6,0,2012,2026],[46,6,6,0,2012,2025],[67,6,6,0,2016,2024],[17,6,6,0,2012,2025],[98,6,6,0,2014,2025],[131,6,6,0,2021,2026],[56,5,5,0,2013,2025],[49,5,5,0,2018,2023],[93,5,5,0,2013,2025],[97,5,5,0,2014,2025],[116,5,5,0,2021,2023],[2,5,5,0,2021,2026],[78,5,5,0,2014,2024],[33,5,5,0,2022,2025],[19,5,5,0,2022,2026],[23,4,4,0,2017,2025],[45,4,4,0,2019,2025],[89,4,4,0,2018,2023],[104,4,4,0,2020,2022],[44,4,4,0,2020,2025],[92,4,4,0,2021,2025],[160,4,4,0,2021,2022],[96,4,4,0,2022,2025],[165,4,4,0,2013,2026],[173,4,4,0,2017,2025],[220,4,4,0,2013,2026],[47,3,3,0,2018,2023],[66,3,3,0,2019,2024],[30,3,3,0,2019,2026],[115,3,3,0,2021,2026],[126,3,3,0,2021,2024],[99,3,3,0,2015,2021],[149,3,3,0,2013,2021],[75,3,3,0,2022,2024],[182,3,3,0,2023,2023],[212,3,3,0,2024,2026],[20,2,2,0,2017,2023],[37,2,2,0,2018,2021],[38,2,2,0,2012,2018],[54,2,2,0,2012,2012],[55,2,2,0,2013,2019],[59,2,2,0,2011,2011],[71,2,2,0,2019,2023],[7,2,2,0,2018,2018],[111,2,2,0,2020,2023],[113,2,2,0,2020,2022],[123,2,2,0,2021,2024],[124,2,2,0,2021,2025],[14,2,2,0,2021,2022],[76,2,2,0,2021,2021],[90,2,2,0,2021,2025],[147,2,2,0,2021,2021],[145,2,2,0,2021,2022],[148,2,2,0,2015,2021],[39,2,2,0,2013,2026],[162,2,2,0,2022,2022],[18,2,2,0,2023,2024],[107,2,2,0,2023,2023],[189,2,2,0,2023,2024],[195,2,2,0,2015,2023],[192,2,2,0,2024,2024],[69,2,2,0,2025,2025],[215,2,2,0,2025,2025],[226,2,2,0,2016,2026],[0,1,1,0,1994,1994],[27,1,1,0,2018,2018],[42,1,1,0,2018,2018],[40,1,1,0,2018,2018],[52,1,1,0,2013,2013],[60,1,1,0,2013,2013],[62,1,1,0,2013,2013],[70,1,1,0,2015,2015],[72,1,1,0,2019,2019],[73,1,1,0,2017,2017],[74,1,1,0,2014,2014],[84,1,1,0,2013,2013],[85,1,1,0,2019,2019],[94,1,1,0,2007,2007],[95,1,1,0,2012,2012],[105,1,1,0,2020,2020],[106,1,1,0,2020,2020],[108,1,1,0,2020,2020],[110,1,1,0,2020,2020],[112,1,1,0,2020,2020],[133,1,1,0,2021,2021],[141,1,1,0,2021,2021],[152,1,1,0,2022,2022],[153,1,1,0,2012,2012],[150,1,1,0,2012,2012],[86,1,1,0,2021,2021],[154,1,1,0,2022,2022],[155,1,1,0,2016,2016],[132,1,1,0,2022,2022],[161,1,1,0,2022,2022],[138,1,1,0,2022,2022],[164,1,1,0,2022,2022],[166,1,1,0,2022,2022],[167,1,1,0,2014,2014],[168,1,1,0,2014,2014],[169,1,1,0,2022,2022],[170,1,1,0,2022,2022],[172,1,1,0,2022,2022],[81,1,1,0,2022,2022],[177,1,1,0,2022,2022],[181,1,1,0,2022,2022],[183,1,1,0,2023,2023],[187,1,1,0,2023,2023],[188,1,1,0,2023,2023],[87,1,1,0,2023,2023],[190,1,1,0,2023,2023],[139,1,1,0,2023,2023],[193,1,1,0,2023,2023],[196,1,1,0,2023,2023],[200,1,1,0,2023,2023],[202,1,1,0,2024,2024],[205,1,1,0,2024,2024],[163,1,1,0,2024,2024],[125,1,1,0,2024,2024],[211,1,1,0,2024,2024],[48,1,1,0,2024,2024],[214,1,1,0,2024,2024],[217,1,1,0,2024,2024],[53,1,1,0,2014,2014],[219,1,1,0,2014,2014],[143,1,1,0,2013,2013],[221,1,1,0,2025,2025],[223,1,1,0,2025,2025],[224,1,1,0,2025,2025],[142,1,1,0,2025,2025],[109,1,1,0,2025,2025],[225,1,1,0,2025,2025],[178,1,1,0,2016,2016],[29,1,1,0,2025,2025],[65,1,1,0,2025,2025],[227,1,1,0,2025,2025],[228,1,1,0,2025,2025],[229,1,1,0,2026,2026],[186,1,1,0,2015,2015]]}},{"type":"Feature","geometry":{"type":"Polygon","coordinates":[[[-104.47255,32.10678],[-104.47122,32.10837],[-104.4722,32.11015],[-104.47452,32.11033],[-104.47584,32.10874],[-104.47486,32.10696],[-104.47255,32.10678]]]},"properties":{"cell":"8948d430e67ffff","res":9,"coarsened":false,"count":49,"hv":49,"mp":0,"y0":2013,"y1":2026,"sp":[[9,5,5,0,2018,2025],[1,4,4,0,2013,2026],[16,3,3,0,2017,2020],[19,2,2,0,2017,2017],[8,2,2,0,2021,2025],[165,2,2,0,2017,2024],[126,2,2,0,2023,2024],[2,1,1,0,2013,2013],[17,1,1,0,2017,2017],[18,1,1,0,2017,2017],[21,1,1,0,2017,2017],[24,1,1,0,2017,2017],[27,1,1,0,2014,2014],[159,1,1,0,2022,2022],[138,1,1,0,2022,2022],[35,1,1,0,2018,2018],[184,1,1,0,2023,2023],[97,1,1,0,2023,2023],[41,1,1,0,2023,2023],[34,1,1,0,2023,2023],[25,1,1,0,2023,2023],[202,1,1,0,2024,2024],[115,1,1,0,2024,2024],[203,1,1,0,2024,2024],[204,1,1,0,2024,2024],[111,1,1,0,2024,2024],[210,1,1,0,2024,2024],[212,1,1,0,2024,2024],[4,1,1,0,2025,2025],[176,1,1,0,2025,2025],[222,1,1,0,2025,2025],[23,1,1,0,2025,2025],[10,1,1,0,2025,2025],[7,1,1,0,2025,2025],[22,1,1,0,2026,2026],[49,1,1,0,2026,2026]]}},{"type":"Feature","geometry":{"type":"Polygon","coordinates":[[[-104.41545,32.18707],[-104.41412,32.18866],[-104.41511,32.19043],[-104.41742,32.19061],[-104.41875,32.18902],[-104.41776,32.18725],[-104.41545,32.18707]]]},"properties":{"cell":"8948d423103ffff","res":9,"coarsened":false,"count":9,"hv":9,"mp":0,"y0":2014,"y1":2026,"sp":[[51,6,6,0,2023,2026],[4,1,1,0,2014,2014],[31,1,1,0,2020,2020],[93,1,1,0,2023,2023]]}},{"type":"Feature","geometry":{"type":"Polygon","coordinates":[[[-104.44127,32.17384],[-104.43994,32.17543],[-104.44093,32.17721],[-104.44324,32.17739],[-104.44457,32.1758],[-104.44358,32.17402],[-104.44127,32.17384]]]},"properties":{"cell":"8948d422213ffff","res":9,"coarsened":false,"count":302,"hv":302,"mp":0,"y0":1987,"y1":2026,"sp":[[7,84,84,0,1999,2026],[50,27,27,0,2006,2026],[6,23,23,0,2012,2026],[36,16,16,0,2010,2026],[14,14,14,0,2013,2026],[102,12,12,0,2017,2025],[127,10,10,0,2024,2026],[65,8,8,0,1995,2024],[45,8,8,0,2021,2026],[28,6,6,0,2013,2026],[22,6,6,0,2013,2024],[151,5,5,0,2023,2026],[43,5,5,0,2015,2024],[64,4,4,0,2020,2025],[62,4,4,0,2023,2026],[196,4,4,0,2023,2026],[118,4,4,0,2023,2025],[12,3,3,0,2021,2024],[82,3,3,0,2012,2024],[93,3,3,0,2025,2026],[99,2,2,0,2013,2017],[139,2,2,0,2023,2024],[46,2,2,0,2023,2024],[4,2,2,0,2024,2024],[156,2,2,0,2024,2026],[25,2,2,0,2024,2025],[40,2,2,0,2024,2026],[114,2,2,0,2012,2026],[5,1,1,0,2014,2014],[15,1,1,0,2017,2017],[58,1,1,0,2018,2018],[100,1,1,0,2013,2013],[101,1,1,0,2017,2017],[107,1,1,0,2017,2017],[109,1,1,0,2020,2020],[31,1,1,0,2021,2021],[122,1,1,0,2021,2021],[9,1,1,0,2021,2021],[135,1,1,0,2021,2021],[157,1,1,0,2022,2022],[13,1,1,0,2023,2023],[191,1,1,0,2023,2023],[77,1,1,0,2023,2023],[160,1,1,0,2023,2023],[92,1,1,0,2023,2023],[140,1,1,0,2023,2023],[197,1,1,0,2023,2023],[26,1,1,0,2023,2023],[134,1,1,0,2024,2024],[17,1,1,0,2024,2024],[185,1,1,0,2024,2024],[63,1,1,0,2012,2012],[193,1,1,0,2025,2025],[49,1,1,0,2025,2025],[232,1,1,0,2021,2021],[61,1,1,0,2026,2026],[233,1,1,0,2008,2008],[57,1,1,0,2023,2023],[67,1,1,0,2008,2008],[11,1,1,0,1987,1987],[235,1,1,0,1987,1987],[236,1,1,0,1987,1987],[182,1,1,0,1987,1987],[225,1,1,0,1987,1987],[19,1,1,0,1987,1987]]}},{"type":"Feature","geometry":{"type":"Polygon","coordinates":[[[-104.556,32.14551],[-104.55468,32.1471],[-104.55567,32.14887],[-104.55798,32.14905],[-104.5593,32.14746],[-104.55832,32.14569],[-104.556,32.14551]]]},"properties":{"cell":"8948d4355cbffff","res":9,"coarsened":false,"count":10,"hv":10,"mp":0,"y0":2012,"y1":2015,"sp":[[66,2,2,0,null,null],[237,2,2,0,null,null],[238,2,2,0,null,null],[7,1,1,0,2015,2015],[36,1,1,0,2012,2012],[14,1,1,0,2012,2012],[209,1,1,0,null,null]]}},{"type":"Feature","geometry":{"type":"Polygon","coordinates":[[[-104.46527,32.1096],[-104.46395,32.1112],[-104.46493,32.11297],[-104.46724,32.11315],[-104.46857,32.11156],[-104.46758,32.10978],[-104.46527,32.1096]]]},"properties":{"cell":"8948d430ad3ffff","res":9,"coarsened":false,"count":347,"hv":347,"mp":0,"y0":2009,"y1":2026,"sp":[[10,53,53,0,2012,2026],[8,28,28,0,2017,2026],[144,15,15,0,2021,2022],[35,12,12,0,2017,2026],[9,11,11,0,2016,2025],[32,11,11,0,2017,2026],[127,11,11,0,2021,2026],[118,8,8,0,2021,2025],[11,7,7,0,2016,2024],[26,7,7,0,2017,2023],[25,6,6,0,2017,2026],[33,6,6,0,2017,2024],[34,6,6,0,2017,2025],[45,6,6,0,2018,2026],[98,6,6,0,2020,2023],[146,6,6,0,2021,2024],[63,5,5,0,2021,2025],[21,4,4,0,2017,2026],[44,4,4,0,2018,2025],[3,4,4,0,2021,2024],[36,4,4,0,2021,2026],[5,4,4,0,2021,2025],[145,4,4,0,2021,2021],[15,4,4,0,2021,2024],[22,4,4,0,2023,2025],[46,3,3,0,2018,2025],[49,3,3,0,2019,2021],[47,3,3,0,2021,2024],[113,3,3,0,2021,2024],[61,3,3,0,2021,2025],[31,3,3,0,2021,2024],[131,3,3,0,2021,2024],[92,3,3,0,2021,2023],[140,3,3,0,2021,2023],[99,3,3,0,2021,2024],[14,3,3,0,2024,2024],[64,3,3,0,2024,2024],[29,2,2,0,2015,2023],[30,2,2,0,2017,2019],[12,2,2,0,2016,2021],[95,2,2,0,2020,2024],[37,2,2,0,2020,2021],[119,2,2,0,2021,2022],[2,2,2,0,2021,2026],[129,2,2,0,2021,2025],[143,2,2,0,2021,2022],[115,2,2,0,2021,2022],[1,2,2,0,2022,2025],[19,2,2,0,2021,2021],[179,2,2,0,2021,2021],[180,2,2,0,2021,2021],[165,2,2,0,2023,2024],[23,2,2,0,2024,2024],[196,2,2,0,2024,2024],[137,2,2,0,2024,2024],[234,2,2,0,2024,2024],[13,1,1,0,2009,2009],[52,1,1,0,2013,2013],[68,1,1,0,2019,2019],[41,1,1,0,2020,2020],[96,1,1,0,2020,2020],[40,1,1,0,2016,2016],[103,1,1,0,2020,2020],[117,1,1,0,2021,2021],[120,1,1,0,2020,2020],[121,1,1,0,2021,2021],[128,1,1,0,2021,2021],[78,1,1,0,2021,2021],[138,1,1,0,2021,2021],[142,1,1,0,2021,2021],[17,1,1,0,2021,2021],[171,1,1,0,2021,2021],[158,1,1,0,2023,2023],[97,1,1,0,2023,2023],[198,1,1,0,2014,2014],[199,1,1,0,2022,2022],[193,1,1,0,2009,2009],[176,1,1,0,2024,2024],[183,1,1,0,2024,2024],[90,1,1,0,2024,2024],[24,1,1,0,2024,2024],[205,1,1,0,2024,2024],[186,1,1,0,2024,2024],[206,1,1,0,2024,2024],[208,1,1,0,2024,2024],[108,1,1,0,2024,2024],[148,1,1,0,2024,2024],[195,1,1,0,2024,2024],[173,1,1,0,2025,2025],[39,1,1,0,2025,2025],[231,1,1,0,2026,2026],[20,1,1,0,2026,2026],[43,1,1,0,2026,2026]]}},{"type":"Feature","geometry":{"type":"Polygon","coordinates":[[[-104.46163,32.11101],[-104.46031,32.11261],[-104.46129,32.11438],[-104.4636,32.11456],[-104.46493,32.11297],[-104.46395,32.1112],[-104.46163,32.11101]]]},"properties":{"cell":"8948d430adbffff","res":9,"coarsened":false,"count":28,"hv":28,"mp":0,"y0":2014,"y1":2026,"sp":[[31,2,2,0,2017,2024],[40,2,2,0,2020,2020],[17,2,2,0,2021,2025],[46,2,2,0,2023,2025],[15,1,1,0,2020,2020],[66,1,1,0,2020,2020],[125,1,1,0,2021,2021],[27,1,1,0,2021,2021],[137,1,1,0,2021,2021],[32,1,1,0,2021,2021],[151,1,1,0,2022,2022],[127,1,1,0,2022,2022],[63,1,1,0,2022,2022],[158,1,1,0,2014,2014],[165,1,1,0,2022,2022],[68,1,1,0,2022,2022],[113,1,1,0,2023,2023],[5,1,1,0,2023,2023],[173,1,1,0,2023,2023],[103,1,1,0,2024,2024],[209,1,1,0,2024,2024],[36,1,1,0,2024,2024],[45,1,1,0,2025,2025],[131,1,1,0,2026,2026]]}},{"type":"Feature","geometry":{"type":"Polygon","coordinates":[[[-104.46198,32.10765],[-104.46065,32.10924],[-104.46163,32.11101],[-104.46395,32.1112],[-104.46527,32.1096],[-104.46429,32.10783],[-104.46198,32.10765]]]},"properties":{"cell":"8948d431da7ffff","res":9,"coarsened":false,"count":73,"hv":73,"mp":0,"y0":2012,"y1":2026,"sp":[[8,5,5,0,2017,2024],[144,5,5,0,2021,2021],[61,4,4,0,2019,2023],[143,4,4,0,2021,2022],[127,4,4,0,2021,2026],[31,3,3,0,2016,2026],[10,3,3,0,2017,2023],[36,2,2,0,2017,2026],[63,2,2,0,2021,2023],[17,2,2,0,2021,2025],[145,2,2,0,2021,2022],[131,2,2,0,2022,2025],[165,2,2,0,2023,2024],[39,1,1,0,2018,2018],[40,1,1,0,2018,2018],[43,1,1,0,2018,2018],[9,1,1,0,2018,2018],[26,1,1,0,2019,2019],[83,1,1,0,2013,2013],[86,1,1,0,2020,2020],[103,1,1,0,2012,2012],[5,1,1,0,2021,2021],[95,1,1,0,2021,2021],[142,1,1,0,2021,2021],[1,1,1,0,2021,2021],[99,1,1,0,2021,2021],[115,1,1,0,2021,2021],[146,1,1,0,2021,2021],[150,1,1,0,2022,2022],[125,1,1,0,2021,2021],[178,1,1,0,2022,2022],[2,1,1,0,2022,2022],[90,1,1,0,2023,2023],[72,1,1,0,2024,2024],[206,1,1,0,2024,2024],[96,1,1,0,2024,2024],[216,1,1,0,2024,2024],[22,1,1,0,2025,2025],[128,1,1,0,2025,2025],[92,1,1,0,2025,2025],[225,1,1,0,2025,2025],[11,1,1,0,2025,2025],[41,1,1,0,2026,2026],[212,1,1,0,2024,2024],[25,1,1,0,2024,2024],[148,1,1,0,2024,2024]]}},{"type":"Feature","geometry":{"type":"Polygon","coordinates":[[[-104.47231,32.17797],[-104.47099,32.17957],[-104.47197,32.18134],[-104.47429,32.18152],[-104.47561,32.17993],[-104.47463,32.17816],[-104.47231,32.17797]]]},"properties":{"cell":"8948d42202fffff","res":9,"coarsened":false,"count":3,"hv":3,"mp":0,"y0":2002,"y1":2021,"sp":[[12,1,1,0,2017,2017],[31,1,1,0,2002,2002],[136,1,1,0,2021,2021]]}},{"type":"Feature","geometry":{"type":"Polygon","coordinates":[[[-104.48391,32.16702],[-104.48259,32.16861],[-104.48357,32.17038],[-104.48589,32.17056],[-104.48721,32.16897],[-104.48623,32.1672],[-104.48391,32.16702]]]},"properties":{"cell":"8948d42256bffff","res":9,"coarsened":false,"count":1,"hv":1,"mp":0,"y0":2017,"y1":2017,"sp":[[31,1,1,0,2017,2017]]}},{"type":"Feature","geometry":{"type":"Polygon","coordinates":[[[-104.44422,32.17916],[-104.4429,32.18075],[-104.44388,32.18252],[-104.44619,32.18271],[-104.44752,32.18112],[-104.44654,32.17934],[-104.44422,32.17916]]]},"properties":{"cell":"8948d422207ffff","res":9,"coarsened":false,"count":1,"hv":1,"mp":0,"y0":2018,"y1":2018,"sp":[[31,1,1,0,2018,2018]]}},{"type":"Feature","geometry":{"type":"Polygon","coordinates":[[[-104.4722,32.11015],[-104.47088,32.11174],[-104.47186,32.11351],[-104.47417,32.11369],[-104.4755,32.1121],[-104.47452,32.11033],[-104.4722,32.11015]]]},"properties":{"cell":"8948d430a9bffff","res":9,"coarsened":false,"count":32,"hv":32,"mp":0,"y0":2013,"y1":2026,"sp":[[10,7,7,0,2017,2025],[118,2,2,0,2017,2017],[22,2,2,0,2017,2024],[26,2,2,0,2017,2021],[5,2,2,0,2023,2023],[41,1,1,0,2018,2018],[53,1,1,0,2013,2013],[67,1,1,0,2017,2017],[21,1,1,0,2017,2017],[23,1,1,0,2017,2017],[18,1,1,0,2017,2017],[73,1,1,0,2017,2017],[153,1,1,0,2023,2023],[172,1,1,0,2023,2023],[104,1,1,0,2021,2021],[36,1,1,0,2024,2024],[97,1,1,0,2024,2024],[78,1,1,0,2025,2025],[35,1,1,0,2025,2025],[8,1,1,0,2025,2025],[11,1,1,0,2025,2025],[165,1,1,0,2026,2026]]}},{"type":"Feature","geometry":{"type":"Polygon","coordinates":[[[-104.45185,32.17298],[-104.45052,32.17457],[-104.4515,32.17634],[-104.45382,32.17652],[-104.45514,32.17493],[-104.45416,32.17316],[-104.45185,32.17298]]]},"properties":{"cell":"8948d4222b3ffff","res":9,"coarsened":false,"count":1,"hv":1,"mp":0,"y0":2018,"y1":2018,"sp":[[48,1,1,0,2018,2018]]}},{"type":"Feature","geometry":{"type":"Polygon","coordinates":[[[-104.49483,32.16278],[-104.4935,32.16438],[-104.49449,32.16615],[-104.4968,32.16633],[-104.49813,32.16474],[-104.49714,32.16296],[-104.49483,32.16278]]]},"properties":{"cell":"8948d42253bffff","res":9,"coarsened":false,"count":1,"hv":1,"mp":0,"y0":2018,"y1":2018,"sp":[[49,1,1,0,2018,2018]]}},{"type":"Feature","geometry":{"type":"Polygon","coordinates":[[[-104.46868,32.17938],[-104.46735,32.18098],[-104.46833,32.18275],[-104.47065,32.18293],[-104.47197,32.18134],[-104.47099,32.17957],[-104.46868,32.17938]]]},"properties":{"cell":"8948d422393ffff","res":9,"coarsened":false,"count":4,"hv":4,"mp":0,"y0":2018,"y1":2022,"sp":[[19,1,1,0,2018,2018],[28,1,1,0,2022,2022],[114,1,1,0,2022,2022],[66,1,1,0,2021,2021]]}},{"type":"Feature","geometry":{"type":"Polygon","coordinates":[[[-104.38441,32.18292],[-104.38308,32.18451],[-104.38406,32.18629],[-104.38637,32.18647],[-104.3877,32.18488],[-104.38672,32.18311],[-104.38441,32.18292]]]},"properties":{"cell":"8948d42306bffff","res":9,"coarsened":false,"count":17,"hv":17,"mp":0,"y0":2018,"y1":2026,"sp":[[51,15,15,0,2018,2026],[6,1,1,0,2020,2020],[69,1,1,0,2025,2025]]}},{"type":"Feature","geometry":{"type":"Polygon","coordinates":[[[-104.43763,32.17525],[-104.4363,32.17684],[-104.43729,32.17862],[-104.4396,32.1788],[-104.44093,32.17721],[-104.43994,32.17543],[-104.43763,32.17525]]]},"properties":{"cell":"8948d42221bffff","res":9,"coarsened":false,"count":46,"hv":46,"mp":0,"y0":2017,"y1":2026,"sp":[[14,9,9,0,2017,2026],[7,5,5,0,2019,2025],[127,4,4,0,2026,2026],[6,3,3,0,2023,2023],[156,3,3,0,2024,2026],[4,2,2,0,2021,2024],[136,2,2,0,2021,2022],[160,2,2,0,2023,2023],[101,2,2,0,2024,2024],[57,1,1,0,2018,2018],[62,1,1,0,2017,2017],[61,1,1,0,2023,2023],[40,1,1,0,2023,2023],[49,1,1,0,2023,2023],[192,1,1,0,2023,2023],[102,1,1,0,2023,2023],[100,1,1,0,2023,2023],[22,1,1,0,2024,2024],[31,1,1,0,2024,2024],[65,1,1,0,2024,2024],[99,1,1,0,2024,2024],[117,1,1,0,2025,2025],[45,1,1,0,2026,2026]]}},{"type":"Feature","geometry":{"type":"Polygon","coordinates":[[[-104.49347,32.17624],[-104.49214,32.17783],[-104.49313,32.1796],[-104.49544,32.17978],[-104.49677,32.17819],[-104.49578,32.17642],[-104.49347,32.17624]]]},"properties":{"cell":"8948d42218fffff","res":9,"coarsened":false,"count":2,"hv":2,"mp":0,"y0":2019,"y1":2019,"sp":[[12,1,1,0,2019,2019],[31,1,1,0,2019,2019]]}},{"type":"Feature","geometry":{"type":"Polygon","coordinates":[[[-104.41909,32.18566],[-104.41776,32.18725],[-104.41875,32.18902],[-104.42106,32.1892],[-104.42239,32.18761],[-104.4214,32.18584],[-104.41909,32.18566]]]},"properties":{"cell":"8948d423117ffff","res":9,"coarsened":false,"count":51,"hv":51,"mp":0,"y0":2012,"y1":2026,"sp":[[5,7,7,0,2021,2025],[51,6,6,0,2019,2026],[14,6,6,0,2022,2026],[127,4,4,0,2021,2025],[6,3,3,0,2022,2024],[64,3,3,0,2023,2024],[163,2,2,0,2023,2023],[101,2,2,0,2023,2023],[136,1,1,0,2021,2021],[49,1,1,0,2022,2022],[63,1,1,0,2022,2022],[125,1,1,0,2022,2022],[123,1,1,0,2022,2022],[176,1,1,0,2022,2022],[98,1,1,0,2022,2022],[182,1,1,0,2023,2023],[114,1,1,0,2023,2023],[185,1,1,0,2023,2023],[50,1,1,0,2023,2023],[77,1,1,0,2023,2023],[186,1,1,0,2023,2023],[22,1,1,0,2023,2023],[78,1,1,0,2023,2023],[46,1,1,0,2024,2024],[28,1,1,0,2012,2012],[156,1,1,0,2026,2026]]}},{"type":"Feature","geometry":{"type":"Polygon","coordinates":[[[-104.43001,32.18143],[-104.42868,32.18302],[-104.42967,32.1848],[-104.43198,32.18498],[-104.4333,32.18339],[-104.43232,32.18162],[-104.43001,32.18143]]]},"properties":{"cell":"8948d42224fffff","res":9,"coarsened":false,"count":3,"hv":3,"mp":0,"y0":2019,"y1":2021,"sp":[[51,2,2,0,2019,2021],[31,1,1,0,2020,2020]]}},{"type":"Feature","geometry":{"type":"Polygon","coordinates":[[[-104.58248,32.12552],[-104.58116,32.12711],[-104.58214,32.12889],[-104.58446,32.12907],[-104.58578,32.12747],[-104.58479,32.1257],[-104.58248,32.12552]]]},"properties":{"cell":"8948d4373b7ffff","res":9,"coarsened":false,"count":1,"hv":1,"mp":0,"y0":2019,"y1":2019,"sp":[[28,1,1,0,2019,2019]]}},{"type":"Feature","geometry":{"type":"Polygon","coordinates":[[[-104.58578,32.12747],[-104.58446,32.12907],[-104.58544,32.13084],[-104.58776,32.13102],[-104.58908,32.12942],[-104.58809,32.12765],[-104.58578,32.12747]]]},"properties":{"cell":"8948d43716bffff","res":9,"coarsened":false,"count":1,"hv":1,"mp":0,"y0":2019,"y1":2019,"sp":[[51,1,1,0,2019,2019]]}},{"type":"Feature","geometry":{"type":"Polygon","coordinates":[[[-104.47584,32.10874],[-104.47452,32.11033],[-104.4755,32.1121],[-104.47781,32.11228],[-104.47914,32.11069],[-104.47815,32.10892],[-104.47584,32.10874]]]},"properties":{"cell":"8948d430a93ffff","res":9,"coarsened":false,"count":3,"hv":3,"mp":0,"y0":2019,"y1":2022,"sp":[[10,1,1,0,2019,2019],[45,1,1,0,2019,2019],[174,1,1,0,2022,2022]]}},{"type":"Feature","geometry":{"type":"Polygon","coordinates":[[[-104.40817,32.18988],[-104.40684,32.19147],[-104.40782,32.19325],[-104.41014,32.19343],[-104.41146,32.19184],[-104.41048,32.19007],[-104.40817,32.18988]]]},"properties":{"cell":"8948d423147ffff","res":9,"coarsened":false,"count":7,"hv":7,"mp":0,"y0":2019,"y1":2024,"sp":[[51,7,7,0,2019,2024]]}},{"type":"Feature","geometry":{"type":"Polygon","coordinates":[[[-104.56565,32.11913],[-104.56432,32.12072],[-104.56531,32.12249],[-104.56762,32.12267],[-104.56895,32.12108],[-104.56796,32.11931],[-104.56565,32.11913]]]},"properties":{"cell":"8948d4373d7ffff","res":9,"coarsened":false,"count":1,"hv":1,"mp":0,"y0":2018,"y1":2018,"sp":[[69,1,1,0,2018,2018]]}},{"type":"Feature","geometry":{"type":"Polygon","coordinates":[[[-104.39464,32.18543],[-104.39331,32.18702],[-104.39429,32.18879],[-104.39661,32.18897],[-104.39793,32.18738],[-104.39695,32.18561],[-104.39464,32.18543]]]},"properties":{"cell":"8948d423393ffff","res":9,"coarsened":false,"count":11,"hv":11,"mp":0,"y0":2019,"y1":2026,"sp":[[51,7,7,0,2019,2026],[31,1,1,0,2021,2021],[14,1,1,0,2024,2024],[127,1,1,0,2024,2024],[92,1,1,0,2024,2024]]}},{"type":"Feature","geometry":{"type":"Polygon","coordinates":[[[-104.56303,32.11045],[-104.5617,32.11204],[-104.56269,32.11381],[-104.565,32.11399],[-104.56633,32.1124],[-104.56534,32.11063],[-104.56303,32.11045]]]},"properties":{"cell":"8948d43707bffff","res":9,"coarsened":false,"count":14,"hv":14,"mp":0,"y0":2010,"y1":2026,"sp":[[163,3,3,0,2012,2012],[75,2,2,0,2010,2018],[82,2,2,0,2022,2024],[76,1,1,0,2018,2018],[49,1,1,0,2024,2024],[77,1,1,0,2012,2012],[36,1,1,0,2010,2010],[33,1,1,0,2010,2010],[4,1,1,0,2026,2026],[101,1,1,0,2026,2026]]}},{"type":"Feature","geometry":{"type":"Polygon","coordinates":[[[-104.56633,32.1124],[-104.565,32.11399],[-104.56599,32.11576],[-104.5683,32.11594],[-104.56963,32.11435],[-104.56864,32.11258],[-104.56633,32.1124]]]},"properties":{"cell":"8948d437063ffff","res":9,"coarsened":false,"count":10,"hv":10,"mp":0,"y0":2018,"y1":2025,"sp":[[77,2,2,0,2018,2025],[51,2,2,0,2021,2022],[163,2,2,0,2022,2022],[9,2,2,0,2022,2024],[61,1,1,0,2022,2022],[35,1,1,0,2024,2024]]}},{"type":"Feature","geometry":{"type":"Polygon","coordinates":[[[-104.56895,32.12108],[-104.56762,32.12267],[-104.56861,32.12445],[-104.57092,32.12463],[-104.57225,32.12303],[-104.57126,32.12126],[-104.56895,32.12108]]]},"properties":{"cell":"8948d43738bffff","res":9,"coarsened":false,"count":7,"hv":7,"mp":0,"y0":2009,"y1":2024,"sp":[[78,1,1,0,2018,2018],[79,1,1,0,2018,2018],[130,1,1,0,2009,2009],[125,1,1,0,2024,2024],[140,1,1,0,2024,2024],[82,1,1,0,2024,2024],[87,1,1,0,2024,2024]]}},{"type":"Feature","geometry":{"type":"Polygon","coordinates":[[[-104.55973,32.1085],[-104.55841,32.11009],[-104.55939,32.11186],[-104.5617,32.11204],[-104.56303,32.11045],[-104.56204,32.10868],[-104.55973,32.1085]]]},"properties":{"cell":"8948d43704fffff","res":9,"coarsened":false,"count":9,"hv":9,"mp":0,"y0":2006,"y1":2022,"sp":[[80,1,1,0,2018,2018],[81,1,1,0,2018,2018],[47,1,1,0,2022,2022],[14,1,1,0,2006,2006],[156,1,1,0,2006,2006],[99,1,1,0,2006,2006],[37,1,1,0,2006,2006],[213,1,1,0,2006,2006],[182,1,1,0,2006,2006]]}},{"type":"Feature","geometry":{"type":"Polygon","coordinates":[[[-104.57157,32.12976],[-104.57025,32.13136],[-104.57123,32.13313],[-104.57354,32.13331],[-104.57487,32.13171],[-104.57388,32.12994],[-104.57157,32.12976]]]},"properties":{"cell":"8948d437307ffff","res":9,"coarsened":false,"count":4,"hv":4,"mp":0,"y0":2016,"y1":2026,"sp":[[82,1,1,0,2018,2018],[87,1,1,0,2016,2016],[5,1,1,0,2026,2026],[64,1,1,0,2026,2026]]}},{"type":"Feature","geometry":{"type":"Polygon","coordinates":[[[-104.56827,32.12781],[-104.56695,32.1294],[-104.56793,32.13118],[-104.57025,32.13136],[-104.57157,32.12976],[-104.57058,32.12799],[-104.56827,32.12781]]]},"properties":{"cell":"8948d437303ffff","res":9,"coarsened":false,"count":2,"hv":2,"mp":0,"y0":2018,"y1":2024,"sp":[[77,1,1,0,2018,2018],[64,1,1,0,2024,2024]]}},{"type":"Feature","geometry":{"type":"Polygon","coordinates":[[[-104.56667,32.10903],[-104.56534,32.11063],[-104.56633,32.1124],[-104.56864,32.11258],[-104.56996,32.11099],[-104.56898,32.10921],[-104.56667,32.10903]]]},"properties":{"cell":"8948d437073ffff","res":9,"coarsened":false,"count":1,"hv":1,"mp":0,"y0":2006,"y1":2006,"sp":[[51,1,1,0,2006,2006]]}},{"type":"Feature","geometry":{"type":"Polygon","coordinates":[[[-104.4515,32.17634],[-104.45018,32.17793],[-104.45116,32.17971],[-104.45347,32.17989],[-104.4548,32.1783],[-104.45382,32.17652],[-104.4515,32.17634]]]},"properties":{"cell":"8948d4222a3ffff","res":9,"coarsened":false,"count":1,"hv":1,"mp":0,"y0":2012,"y1":2012,"sp":[[36,1,1,0,2012,2012]]}},{"type":"Feature","geometry":{"type":"Polygon","coordinates":[[[-104.56963,32.11435],[-104.5683,32.11594],[-104.56929,32.11772],[-104.5716,32.1179],[-104.57292,32.1163],[-104.57194,32.11453],[-104.56963,32.11435]]]},"properties":{"cell":"8948d437067ffff","res":9,"coarsened":false,"count":2,"hv":2,"mp":0,"y0":2016,"y1":2025,"sp":[[69,1,1,0,2016,2016],[156,1,1,0,2025,2025]]}},{"type":"Feature","geometry":{"type":"Polygon","coordinates":[[[-104.56167,32.12391],[-104.56035,32.1255],[-104.56134,32.12727],[-104.56365,32.12745],[-104.56497,32.12586],[-104.56399,32.12409],[-104.56167,32.12391]]]},"properties":{"cell":"8948d4373cfffff","res":9,"coarsened":false,"count":1,"hv":1,"mp":0,"y0":2020,"y1":2020,"sp":[[88,1,1,0,2020,2020]]}},{"type":"Feature","geometry":{"type":"Polygon","coordinates":[[[-104.57191,32.1264],[-104.57058,32.12799],[-104.57157,32.12976],[-104.57388,32.12994],[-104.57521,32.12835],[-104.57422,32.12658],[-104.57191,32.1264]]]},"properties":{"cell":"8948d437317ffff","res":9,"coarsened":false,"count":1,"hv":1,"mp":0,"y0":2020,"y1":2020,"sp":[[50,1,1,0,2020,2020]]}},{"type":"Feature","geometry":{"type":"Polygon","coordinates":[[[-104.58882,32.09718],[-104.5875,32.09878],[-104.58848,32.10055],[-104.5908,32.10073],[-104.59212,32.09914],[-104.59113,32.09736],[-104.58882,32.09718]]]},"properties":{"cell":"8948d437547ffff","res":9,"coarsened":false,"count":2,"hv":2,"mp":0,"y0":2020,"y1":2021,"sp":[[90,1,1,0,2020,2020],[114,1,1,0,2021,2021]]}},{"type":"Feature","geometry":{"type":"Polygon","coordinates":[[[-104.59212,32.09914],[-104.5908,32.10073],[-104.59178,32.1025],[-104.59409,32.10268],[-104.59542,32.10109],[-104.59443,32.09931],[-104.59212,32.09914]]]},"properties":{"cell":"8948d437573ffff","res":9,"coarsened":false,"count":2,"hv":2,"mp":0,"y0":2020,"y1":2026,"sp":[[91,1,1,0,2020,2020],[196,1,1,0,2026,2026]]}},{"type":"Feature","geometry":{"type":"Polygon","coordinates":[[[-104.46242,32.17211],[-104.46109,32.1737],[-104.46208,32.17548],[-104.46439,32.17566],[-104.46572,32.17407],[-104.46473,32.17229],[-104.46242,32.17211]]]},"properties":{"cell":"8948d422073ffff","res":9,"coarsened":false,"count":1,"hv":1,"mp":0,"y0":2020,"y1":2020,"sp":[[92,1,1,0,2020,2020]]}},{"type":"Feature","geometry":{"type":"Polygon","coordinates":[[[-104.473,32.17125],[-104.47167,32.17284],[-104.47266,32.17461],[-104.47497,32.17479],[-104.4763,32.1732],[-104.47531,32.17143],[-104.473,32.17125]]]},"properties":{"cell":"8948d422033ffff","res":9,"coarsened":false,"count":1,"hv":1,"mp":0,"y0":2020,"y1":2020,"sp":[[93,1,1,0,2020,2020]]}},{"type":"Feature","geometry":{"type":"Polygon","coordinates":[[[-104.50507,32.16528],[-104.50374,32.16687],[-104.50473,32.16864],[-104.50704,32.16882],[-104.50837,32.16723],[-104.50738,32.16546],[-104.50507,32.16528]]]},"properties":{"cell":"8948d4352cbffff","res":9,"coarsened":false,"count":1,"hv":1,"mp":0,"y0":2020,"y1":2020,"sp":[[77,1,1,0,2020,2020]]}},{"type":"Feature","geometry":{"type":"Polygon","coordinates":[[[-104.44491,32.17243],[-104.44358,32.17402],[-104.44457,32.1758],[-104.44688,32.17598],[-104.44821,32.17439],[-104.44722,32.17262],[-104.44491,32.17243]]]},"properties":{"cell":"8948d42228fffff","res":9,"coarsened":false,"count":21,"hv":21,"mp":0,"y0":2016,"y1":2026,"sp":[[102,3,3,0,2021,2024],[36,3,3,0,2016,2025],[64,2,2,0,2020,2026],[127,2,2,0,2024,2024],[6,2,2,0,2024,2025],[22,1,1,0,2020,2020],[43,1,1,0,2021,2021],[19,1,1,0,2024,2024],[14,1,1,0,2024,2024],[45,1,1,0,2024,2024],[17,1,1,0,2024,2024],[47,1,1,0,2025,2025],[118,1,1,0,2025,2025],[7,1,1,0,2026,2026]]}},{"type":"Feature","geometry":{"type":"Polygon","coordinates":[[[-104.46936,32.17266],[-104.46803,32.17425],[-104.46902,32.17602],[-104.47133,32.1762],[-104.47266,32.17461],[-104.47167,32.17284],[-104.46936,32.17266]]]},"properties":{"cell":"8948d42203bffff","res":9,"coarsened":false,"count":1,"hv":1,"mp":0,"y0":2020,"y1":2020,"sp":[[4,1,1,0,2020,2020]]}},{"type":"Feature","geometry":{"type":"Polygon","coordinates":[[[-104.45082,32.18307],[-104.44949,32.18466],[-104.45048,32.18643],[-104.45279,32.18661],[-104.45412,32.18502],[-104.45313,32.18325],[-104.45082,32.18307]]]},"properties":{"cell":"8948d422237ffff","res":9,"coarsened":false,"count":1,"hv":1,"mp":0,"y0":2021,"y1":2021,"sp":[[51,1,1,0,2021,2021]]}},{"type":"Feature","geometry":{"type":"Polygon","coordinates":[[[-104.41511,32.19043],[-104.41378,32.19202],[-104.41476,32.19379],[-104.41707,32.19398],[-104.4184,32.19239],[-104.41742,32.19061],[-104.41511,32.19043]]]},"properties":{"cell":"8948d42310fffff","res":9,"coarsened":false,"count":2,"hv":2,"mp":0,"y0":2021,"y1":2022,"sp":[[51,2,2,0,2021,2022]]}},{"type":"Feature","geometry":{"type":"Polygon","coordinates":[[[-104.38111,32.18097],[-104.37978,32.18256],[-104.38076,32.18433],[-104.38308,32.18451],[-104.38441,32.18292],[-104.38342,32.18115],[-104.38111,32.18097]]]},"properties":{"cell":"8948d4232b7ffff","res":9,"coarsened":false,"count":9,"hv":9,"mp":0,"y0":2021,"y1":2026,"sp":[[51,9,9,0,2021,2026]]}},{"type":"Feature","geometry":{"type":"Polygon","coordinates":[[[-104.44093,32.17721],[-104.4396,32.1788],[-104.44058,32.18057],[-104.4429,32.18075],[-104.44422,32.17916],[-104.44324,32.17739],[-104.44093,32.17721]]]},"properties":{"cell":"8948d422203ffff","res":9,"coarsened":false,"count":14,"hv":14,"mp":0,"y0":2019,"y1":2026,"sp":[[14,3,3,0,2022,2025],[7,2,2,0,2019,2022],[156,2,2,0,2022,2022],[6,2,2,0,2021,2026],[230,2,2,0,2026,2026],[45,1,1,0,2023,2023],[40,1,1,0,2024,2024],[36,1,1,0,2025,2025]]}},{"type":"Feature","geometry":{"type":"Polygon","coordinates":[[[-104.41875,32.18902],[-104.41742,32.19061],[-104.4184,32.19239],[-104.42071,32.19257],[-104.42204,32.19098],[-104.42106,32.1892],[-104.41875,32.18902]]]},"properties":{"cell":"8948d423107ffff","res":9,"coarsened":false,"count":3,"hv":3,"mp":0,"y0":2021,"y1":2026,"sp":[[51,3,3,0,2021,2026]]}},{"type":"Feature","geometry":{"type":"Polygon","coordinates":[[[-104.43399,32.17666],[-104.43266,32.17825],[-104.43365,32.18002],[-104.43596,32.18021],[-104.43729,32.17862],[-104.4363,32.17684],[-104.43399,32.17666]]]},"properties":{"cell":"8948d422257ffff","res":9,"coarsened":false,"count":3,"hv":3,"mp":0,"y0":2021,"y1":2024,"sp":[[14,1,1,0,2021,2021],[7,1,1,0,2024,2024],[6,1,1,0,2024,2024]]}},{"type":"Feature","geometry":{"type":"Polygon","coordinates":[[[-104.43365,32.18002],[-104.43232,32.18162],[-104.4333,32.18339],[-104.43562,32.18357],[-104.43694,32.18198],[-104.43596,32.18021],[-104.43365,32.18002]]]},"properties":{"cell":"8948d422247ffff","res":9,"coarsened":false,"count":10,"hv":10,"mp":0,"y0":2021,"y1":2026,"sp":[[14,4,4,0,2022,2025],[5,2,2,0,2022,2022],[36,1,1,0,2021,2021],[136,1,1,0,2021,2021],[125,1,1,0,2025,2025],[51,1,1,0,2026,2026]]}},{"type":"Feature","geometry":{"type":"Polygon","coordinates":[[[-104.45834,32.10906],[-104.45701,32.11065],[-104.458,32.11242],[-104.46031,32.11261],[-104.46163,32.11101],[-104.46065,32.10924],[-104.45834,32.10906]]]},"properties":{"cell":"8948d431dafffff","res":9,"coarsened":false,"count":31,"hv":31,"mp":0,"y0":2021,"y1":2026,"sp":[[34,3,3,0,2021,2025],[4,2,2,0,2023,2025],[95,2,2,0,2023,2024],[22,2,2,0,2025,2025],[132,1,1,0,2021,2021],[10,1,1,0,2021,2021],[134,1,1,0,2021,2021],[136,1,1,0,2022,2022],[37,1,1,0,2022,2022],[129,1,1,0,2022,2022],[173,1,1,0,2022,2022],[175,1,1,0,2022,2022],[96,1,1,0,2023,2023],[93,1,1,0,2023,2023],[45,1,1,0,2023,2023],[127,1,1,0,2023,2023],[194,1,1,0,2023,2023],[179,1,1,0,2023,2023],[100,1,1,0,2024,2024],[201,1,1,0,2024,2024],[31,1,1,0,2024,2024],[207,1,1,0,2024,2024],[215,1,1,0,2024,2024],[82,1,1,0,2025,2025],[35,1,1,0,2025,2025],[8,1,1,0,2026,2026]]}},{"type":"Feature","geometry":{"type":"Polygon","coordinates":[[[-104.5544,32.12673],[-104.55307,32.12833],[-104.55406,32.1301],[-104.55637,32.13028],[-104.5577,32.12869],[-104.55671,32.12691],[-104.5544,32.12673]]]},"properties":{"cell":"8948d43735bffff","res":9,"coarsened":false,"count":11,"hv":11,"mp":0,"y0":2008,"y1":2022,"sp":[[118,2,2,0,2008,2008],[90,2,2,0,2008,2008],[123,2,2,0,2008,2008],[139,1,1,0,2021,2021],[36,1,1,0,2022,2022],[102,1,1,0,2008,2008],[24,1,1,0,2008,2008],[67,1,1,0,2008,2008]]}},{"type":"Feature","geometry":{"type":"Polygon","coordinates":[[[-104.4614,32.1822],[-104.46007,32.1838],[-104.46105,32.18557],[-104.46337,32.18575],[-104.46469,32.18416],[-104.46371,32.18239],[-104.4614,32.1822]]]},"properties":{"cell":"8948d4223d7ffff","res":9,"coarsened":false,"count":3,"hv":3,"mp":0,"y0":2021,"y1":2025,"sp":[[136,1,1,0,2021,2021],[31,1,1,0,2021,2021],[4,1,1,0,2025,2025]]}},{"type":"Feature","geometry":{"type":"Polygon","coordinates":[[[-104.44718,32.18448],[-104.44585,32.18607],[-104.44684,32.18784],[-104.44915,32.18802],[-104.45048,32.18643],[-104.44949,32.18466],[-104.44718,32.18448]]]},"properties":{"cell":"8948d422223ffff","res":9,"coarsened":false,"count":1,"hv":1,"mp":0,"y0":2021,"y1":2021,"sp":[[140,1,1,0,2021,2021]]}},{"type":"Feature","geometry":{"type":"Polygon","coordinates":[[[-104.44024,32.18393],[-104.43891,32.18552],[-104.4399,32.1873],[-104.44221,32.18748],[-104.44354,32.18589],[-104.44255,32.18412],[-104.44024,32.18393]]]},"properties":{"cell":"8948d422277ffff","res":9,"coarsened":false,"count":2,"hv":2,"mp":0,"y0":2021,"y1":2022,"sp":[[136,1,1,0,2021,2021],[19,1,1,0,2022,2022]]}},{"type":"Feature","geometry":{"type":"Polygon","coordinates":[[[-104.4366,32.18534],[-104.43527,32.18693],[-104.43626,32.18871],[-104.43857,32.18889],[-104.4399,32.1873],[-104.43891,32.18552],[-104.4366,32.18534]]]},"properties":{"cell":"8948d422263ffff","res":9,"coarsened":false,"count":7,"hv":7,"mp":0,"y0":2021,"y1":2024,"sp":[[51,2,2,0,2021,2023],[136,1,1,0,2021,2021],[5,1,1,0,2024,2024],[114,1,1,0,2024,2024],[50,1,1,0,2024,2024],[218,1,1,0,2024,2024]]}},{"type":"Feature","geometry":{"type":"Polygon","coordinates":[[[-104.40123,32.18934],[-104.3999,32.19093],[-104.40089,32.1927],[-104.4032,32.19288],[-104.40453,32.19129],[-104.40354,32.18952],[-104.40123,32.18934]]]},"properties":{"cell":"8948d42314bffff","res":9,"coarsened":false,"count":4,"hv":4,"mp":0,"y0":2021,"y1":2024,"sp":[[51,2,2,0,2023,2024],[6,1,1,0,2021,2021],[191,1,1,0,2023,2023]]}},{"type":"Feature","geometry":{"type":"Polygon","coordinates":[[[-104.4333,32.18339],[-104.43198,32.18498],[-104.43296,32.18675],[-104.43527,32.18693],[-104.4366,32.18534],[-104.43562,32.18357],[-104.4333,32.18339]]]},"properties":{"cell":"8948d42227bffff","res":9,"coarsened":false,"count":10,"hv":10,"mp":0,"y0":2021,"y1":2025,"sp":[[51,3,3,0,2023,2024],[12,1,1,0,2021,2021],[43,1,1,0,2024,2024],[6,1,1,0,2022,2022],[99,1,1,0,2024,2024],[15,1,1,0,2024,2024],[40,1,1,0,2025,2025],[14,1,1,0,2025,2025]]}},{"type":"Feature","geometry":{"type":"Polygon","coordinates":[[[-104.42603,32.18621],[-104.4247,32.1878],[-104.42568,32.18957],[-104.42799,32.18975],[-104.42932,32.18816],[-104.42834,32.18639],[-104.42603,32.18621]]]},"properties":{"cell":"8948d4231a3ffff","res":9,"coarsened":false,"count":4,"hv":4,"mp":0,"y0":2022,"y1":2025,"sp":[[51,2,2,0,2022,2025],[6,1,1,0,2022,2022],[31,1,1,0,2025,2025]]}},{"type":"Feature","geometry":{"type":"Polygon","coordinates":[[[-104.50109,32.17005],[-104.49976,32.17165],[-104.50075,32.17342],[-104.50306,32.1736],[-104.50439,32.17201],[-104.5034,32.17023],[-104.50109,32.17005]]]},"properties":{"cell":"8948d43525bffff","res":9,"coarsened":false,"count":2,"hv":2,"mp":0,"y0":2010,"y1":2022,"sp":[[11,1,1,0,2022,2022],[12,1,1,0,2010,2010]]}},{"type":"Feature","geometry":{"type":"Polygon","coordinates":[[[-104.48289,32.17711],[-104.48156,32.1787],[-104.48255,32.18047],[-104.48486,32.18065],[-104.48619,32.17906],[-104.4852,32.17729],[-104.48289,32.17711]]]},"properties":{"cell":"8948d4221cfffff","res":9,"coarsened":false,"count":1,"hv":1,"mp":0,"y0":2022,"y1":2022,"sp":[[31,1,1,0,2022,2022]]}},{"type":"Feature","geometry":{"type":"Polygon","coordinates":[[[-104.38145,32.1776],[-104.38012,32.17919],[-104.38111,32.18097],[-104.38342,32.18115],[-104.38475,32.17956],[-104.38376,32.17779],[-104.38145,32.1776]]]},"properties":{"cell":"8948d42304fffff","res":9,"coarsened":false,"count":12,"hv":12,"mp":0,"y0":2022,"y1":2026,"sp":[[51,10,10,0,2022,2026],[19,1,1,0,2024,2024],[14,1,1,0,2025,2025]]}},{"type":"Feature","geometry":{"type":"Polygon","coordinates":[[[-104.3877,32.18488],[-104.38637,32.18647],[-104.38736,32.18824],[-104.38967,32.18842],[-104.391,32.18683],[-104.39001,32.18506],[-104.3877,32.18488]]]},"properties":{"cell":"8948d42306fffff","res":9,"coarsened":false,"count":7,"hv":7,"mp":0,"y0":2016,"y1":2025,"sp":[[51,6,6,0,2016,2025],[44,1,1,0,2023,2023]]}},{"type":"Feature","geometry":{"type":"Polygon","coordinates":[[[-104.55076,32.12815],[-104.54944,32.12974],[-104.55042,32.13151],[-104.55274,32.13169],[-104.55406,32.1301],[-104.55307,32.12833],[-104.55076,32.12815]]]},"properties":{"cell":"8948d435497ffff","res":9,"coarsened":false,"count":1,"hv":1,"mp":0,"y0":2008,"y1":2008,"sp":[[98,1,1,0,2008,2008]]}},{"type":"Feature","geometry":{"type":"Polygon","coordinates":[[[-104.46105,32.18557],[-104.45973,32.18716],[-104.46071,32.18893],[-104.46303,32.18911],[-104.46435,32.18752],[-104.46337,32.18575],[-104.46105,32.18557]]]},"properties":{"cell":"8948d4223c7ffff","res":9,"coarsened":false,"count":1,"hv":1,"mp":0,"y0":2008,"y1":2008,"sp":[[35,1,1,0,2008,2008]]}},{"type":"Feature","geometry":{"type":"Polygon","coordinates":[[[-104.42898,32.19152],[-104.42765,32.19311],[-104.42864,32.19489],[-104.43095,32.19507],[-104.43228,32.19348],[-104.43129,32.19171],[-104.42898,32.19152]]]},"properties":{"cell":"8948d4204dbffff","res":9,"coarsened":false,"count":2,"hv":2,"mp":0,"y0":2021,"y1":2026,"sp":[[51,1,1,0,2021,2021],[176,1,1,0,2026,2026]]}},{"type":"Feature","geometry":{"type":"Polygon","coordinates":[[[-104.5577,32.12869],[-104.55637,32.13028],[-104.55736,32.13205],[-104.55967,32.13223],[-104.561,32.13064],[-104.56001,32.12887],[-104.5577,32.12869]]]},"properties":{"cell":"8948d437343ffff","res":9,"coarsened":false,"count":1,"hv":1,"mp":0,"y0":2018,"y1":2018,"sp":[[65,1,1,0,2018,2018]]}},{"type":"Feature","geometry":{"type":"Polygon","coordinates":[[[-104.42239,32.18761],[-104.42106,32.1892],[-104.42204,32.19098],[-104.42435,32.19116],[-104.42568,32.18957],[-104.4247,32.1878],[-104.42239,32.18761]]]},"properties":{"cell":"8948d4231abffff","res":9,"coarsened":false,"count":2,"hv":2,"mp":0,"y0":2022,"y1":2023,"sp":[[36,1,1,0,2022,2022],[29,1,1,0,2023,2023]]}},{"type":"Feature","geometry":{"type":"Polygon","coordinates":[[[-104.55779,32.09308],[-104.55646,32.09468],[-104.55745,32.09645],[-104.55976,32.09663],[-104.56109,32.09503],[-104.5601,32.09326],[-104.55779,32.09308]]]},"properties":{"cell":"8948d4376afffff","res":9,"coarsened":false,"count":1,"hv":1,"mp":0,"y0":2022,"y1":2022,"sp":[[107,1,1,0,2022,2022]]}},{"type":"Feature","geometry":{"type":"Polygon","coordinates":[[[-104.39134,32.18347],[-104.39001,32.18506],[-104.391,32.18683],[-104.39331,32.18702],[-104.39464,32.18543],[-104.39365,32.18365],[-104.39134,32.18347]]]},"properties":{"cell":"8948d423067ffff","res":9,"coarsened":false,"count":1,"hv":1,"mp":0,"y0":2022,"y1":2022,"sp":[[51,1,1,0,2022,2022]]}},{"type":"Feature","geometry":{"type":"Polygon","coordinates":[[[-104.42967,32.1848],[-104.42834,32.18639],[-104.42932,32.18816],[-104.43163,32.18834],[-104.43296,32.18675],[-104.43198,32.18498],[-104.42967,32.1848]]]},"properties":{"cell":"8948d4231b7ffff","res":9,"coarsened":false,"count":9,"hv":9,"mp":0,"y0":2022,"y1":2025,"sp":[[51,8,8,0,2022,2025],[6,1,1,0,2022,2022]]}},{"type":"Feature","geometry":{"type":"Polygon","coordinates":[[[-104.57123,32.13313],[-104.56991,32.13472],[-104.57089,32.13649],[-104.57321,32.13667],[-104.57453,32.13508],[-104.57354,32.13331],[-104.57123,32.13313]]]},"properties":{"cell":"8948d43733bffff","res":9,"coarsened":false,"count":2,"hv":2,"mp":0,"y0":2017,"y1":2017,"sp":[[87,1,1,0,2017,2017],[77,1,1,0,2017,2017]]}},{"type":"Feature","geometry":{"type":"Polygon","coordinates":[[[-104.57419,32.13844],[-104.57287,32.14004],[-104.57385,32.14181],[-104.57617,32.14199],[-104.57749,32.1404],[-104.5765,32.13862],[-104.57419,32.13844]]]},"properties":{"cell":"8948d43732fffff","res":9,"coarsened":false,"count":2,"hv":2,"mp":0,"y0":2017,"y1":2025,"sp":[[71,1,1,0,2017,2017],[12,1,1,0,2025,2025]]}},{"type":"Feature","geometry":{"type":"Polygon","coordinates":[[[-104.41146,32.19184],[-104.41014,32.19343],[-104.41112,32.1952],[-104.41343,32.19538],[-104.41476,32.19379],[-104.41378,32.19202],[-104.41146,32.19184]]]},"properties":{"cell":"8948d423173ffff","res":9,"coarsened":false,"count":1,"hv":1,"mp":0,"y0":2023,"y1":2023,"sp":[[51,1,1,0,2023,2023]]}},{"type":"Feature","geometry":{"type":"Polygon","coordinates":[[[-104.44457,32.1758],[-104.44324,32.17739],[-104.44422,32.17916],[-104.44654,32.17934],[-104.44786,32.17775],[-104.44688,32.17598],[-104.44457,32.1758]]]},"properties":{"cell":"8948d422217ffff","res":9,"coarsened":false,"count":7,"hv":7,"mp":0,"y0":2010,"y1":2026,"sp":[[45,1,1,0,2023,2023],[51,1,1,0,2023,2023],[14,1,1,0,2010,2010],[26,1,1,0,2023,2023],[102,1,1,0,2024,2024],[50,1,1,0,2024,2024],[22,1,1,0,2026,2026]]}},{"type":"Feature","geometry":{"type":"Polygon","coordinates":[[[-104.39793,32.18738],[-104.39661,32.18897],[-104.39759,32.19074],[-104.3999,32.19093],[-104.40123,32.18934],[-104.40025,32.18756],[-104.39793,32.18738]]]},"properties":{"cell":"8948d423397ffff","res":9,"coarsened":false,"count":4,"hv":4,"mp":0,"y0":2022,"y1":2025,"sp":[[51,4,4,0,2022,2025]]}},{"type":"Feature","geometry":{"type":"Polygon","coordinates":[[[-104.54315,32.13434],[-104.54182,32.13593],[-104.54281,32.1377],[-104.54512,32.13788],[-104.54645,32.13629],[-104.54546,32.13452],[-104.54315,32.13434]]]},"properties":{"cell":"8948d435413ffff","res":9,"coarsened":false,"count":4,"hv":4,"mp":0,"y0":2022,"y1":2024,"sp":[[6,1,1,0,2023,2023],[7,1,1,0,2023,2023],[31,1,1,0,2024,2024],[144,1,1,0,2022,2022]]}},{"type":"Feature","geometry":{"type":"Polygon","coordinates":[[[-104.38839,32.17815],[-104.38706,32.17974],[-104.38805,32.18152],[-104.39036,32.1817],[-104.39169,32.18011],[-104.3907,32.17833],[-104.38839,32.17815]]]},"properties":{"cell":"8948d423073ffff","res":9,"coarsened":false,"count":1,"hv":1,"mp":0,"y0":2023,"y1":2023,"sp":[[51,1,1,0,2023,2023]]}},{"type":"Feature","geometry":{"type":"Polygon","coordinates":[[[-104.38406,32.18629],[-104.38273,32.18788],[-104.38372,32.18965],[-104.38603,32.18983],[-104.38736,32.18824],[-104.38637,32.18647],[-104.38406,32.18629]]]},"properties":{"cell":"8948d4233d3ffff","res":9,"coarsened":false,"count":5,"hv":5,"mp":0,"y0":2023,"y1":2025,"sp":[[51,4,4,0,2024,2025],[14,1,1,0,2023,2023]]}},{"type":"Feature","geometry":{"type":"Polygon","coordinates":[[[-104.52598,32.13131],[-104.52465,32.1329],[-104.52564,32.13467],[-104.52795,32.13485],[-104.52928,32.13326],[-104.52829,32.13149],[-104.52598,32.13131]]]},"properties":{"cell":"8948d430923ffff","res":9,"coarsened":false,"count":4,"hv":4,"mp":0,"y0":2023,"y1":2023,"sp":[[31,1,1,0,2023,2023],[51,1,1,0,2023,2023],[50,1,1,0,2023,2023],[7,1,1,0,2023,2023]]}},{"type":"Feature","geometry":{"type":"Polygon","coordinates":[[[-104.43694,32.18198],[-104.43562,32.18357],[-104.4366,32.18534],[-104.43891,32.18552],[-104.44024,32.18393],[-104.43926,32.18216],[-104.43694,32.18198]]]},"properties":{"cell":"8948d422273ffff","res":9,"coarsened":false,"count":1,"hv":1,"mp":0,"y0":2023,"y1":2023,"sp":[[14,1,1,0,2023,2023]]}},{"type":"Feature","geometry":{"type":"Polygon","coordinates":[[[-104.40453,32.19129],[-104.4032,32.19288],[-104.40418,32.19466],[-104.4065,32.19484],[-104.40782,32.19325],[-104.40684,32.19147],[-104.40453,32.19129]]]},"properties":{"cell":"8948d42314fffff","res":9,"coarsened":false,"count":11,"hv":11,"mp":0,"y0":2012,"y1":2025,"sp":[[51,8,8,0,2012,2025],[99,1,1,0,2023,2023],[58,1,1,0,2024,2024],[66,1,1,0,2025,2025]]}},{"type":"Feature","geometry":{"type":"Polygon","coordinates":[[[-104.3967,32.16525],[-104.39537,32.16684],[-104.39636,32.16861],[-104.39867,32.16879],[-104.4,32.1672],[-104.39901,32.16543],[-104.3967,32.16525]]]},"properties":{"cell":"8948d423083ffff","res":9,"coarsened":false,"count":1,"hv":1,"mp":0,"y0":2023,"y1":2023,"sp":[[10,1,1,0,2023,2023]]}},{"type":"Feature","geometry":{"type":"Polygon","coordinates":[[[-104.42273,32.18425],[-104.4214,32.18584],[-104.42239,32.18761],[-104.4247,32.1878],[-104.42603,32.18621],[-104.42504,32.18443],[-104.42273,32.18425]]]},"properties":{"cell":"8948d4231bbffff","res":9,"coarsened":false,"count":3,"hv":3,"mp":0,"y0":2023,"y1":2024,"sp":[[51,2,2,0,2023,2024],[48,1,1,0,2023,2023]]}},{"type":"Feature","geometry":{"type":"Polygon","coordinates":[[[-104.54281,32.1377],[-104.54148,32.13929],[-104.54247,32.14107],[-104.54478,32.14125],[-104.54611,32.13965],[-104.54512,32.13788],[-104.54281,32.1377]]]},"properties":{"cell":"8948d435403ffff","res":9,"coarsened":false,"count":1,"hv":1,"mp":0,"y0":2023,"y1":2023,"sp":[[127,1,1,0,2023,2023]]}},{"type":"Feature","geometry":{"type":"Polygon","coordinates":[[[-104.38736,32.18824],[-104.38603,32.18983],[-104.38701,32.1916],[-104.38933,32.19179],[-104.39065,32.1902],[-104.38967,32.18842],[-104.38736,32.18824]]]},"properties":{"cell":"8948d4233d7ffff","res":9,"coarsened":false,"count":2,"hv":2,"mp":0,"y0":2024,"y1":2026,"sp":[[51,2,2,0,2024,2026]]}},{"type":"Feature","geometry":{"type":"Polygon","coordinates":[[[-104.391,32.18683],[-104.38967,32.18842],[-104.39065,32.1902],[-104.39297,32.19038],[-104.39429,32.18879],[-104.39331,32.18702],[-104.391,32.18683]]]},"properties":{"cell":"8948d42339bffff","res":9,"coarsened":false,"count":8,"hv":8,"mp":0,"y0":2018,"y1":2026,"sp":[[51,8,8,0,2018,2026]]}},{"type":"Feature","geometry":{"type":"Polygon","coordinates":[[[-104.43729,32.17862],[-104.43596,32.18021],[-104.43694,32.18198],[-104.43926,32.18216],[-104.44058,32.18057],[-104.4396,32.1788],[-104.43729,32.17862]]]},"properties":{"cell":"8948d42220bffff","res":9,"coarsened":false,"count":2,"hv":2,"mp":0,"y0":2024,"y1":2025,"sp":[[12,1,1,0,2024,2024],[7,1,1,0,2025,2025]]}},{"type":"Feature","geometry":{"type":"Polygon","coordinates":[[[-104.53874,32.17807],[-104.53741,32.17967],[-104.5384,32.18144],[-104.54071,32.18162],[-104.54204,32.18003],[-104.54105,32.17825],[-104.53874,32.17807]]]},"properties":{"cell":"8948d43538bffff","res":9,"coarsened":false,"count":1,"hv":1,"mp":0,"y0":2024,"y1":2024,"sp":[[156,1,1,0,2024,2024]]}},{"type":"Feature","geometry":{"type":"Polygon","coordinates":[[[-104.54204,32.18003],[-104.54071,32.18162],[-104.5417,32.18339],[-104.54401,32.18357],[-104.54534,32.18198],[-104.54435,32.18021],[-104.54204,32.18003]]]},"properties":{"cell":"8948d43538fffff","res":9,"coarsened":false,"count":1,"hv":1,"mp":0,"y0":2024,"y1":2024,"sp":[[6,1,1,0,2024,2024]]}},{"type":"Feature","geometry":{"type":"Polygon","coordinates":[[[-104.40487,32.18793],[-104.40354,32.18952],[-104.40453,32.19129],[-104.40684,32.19147],[-104.40817,32.18988],[-104.40718,32.18811],[-104.40487,32.18793]]]},"properties":{"cell":"8948d423143ffff","res":9,"coarsened":false,"count":1,"hv":1,"mp":0,"y0":2024,"y1":2024,"sp":[[51,1,1,0,2024,2024]]}},{"type":"Feature","geometry":{"type":"Polygon","coordinates":[[[-104.60558,32.13918],[-104.60425,32.14077],[-104.60524,32.14254],[-104.60755,32.14272],[-104.60888,32.14113],[-104.60789,32.13936],[-104.60558,32.13918]]]},"properties":{"cell":"8948d4346b7ffff","res":9,"coarsened":false,"count":1,"hv":1,"mp":0,"y0":2024,"y1":2024,"sp":[[51,1,1,0,2024,2024]]}},{"type":"Feature","geometry":{"type":"Polygon","coordinates":[[[-104.41181,32.18848],[-104.41048,32.19007],[-104.41146,32.19184],[-104.41378,32.19202],[-104.41511,32.19043],[-104.41412,32.18866],[-104.41181,32.18848]]]},"properties":{"cell":"8948d42310bffff","res":9,"coarsened":false,"count":1,"hv":1,"mp":0,"y0":2024,"y1":2024,"sp":[[51,1,1,0,2024,2024]]}},{"type":"Feature","geometry":{"type":"Polygon","coordinates":[[[-104.56599,32.11576],[-104.56466,32.11736],[-104.56565,32.11913],[-104.56796,32.11931],[-104.56929,32.11772],[-104.5683,32.11594],[-104.56599,32.11576]]]},"properties":{"cell":"8948d43706fffff","res":9,"coarsened":false,"count":1,"hv":1,"mp":0,"y0":2024,"y1":2024,"sp":[[61,1,1,0,2024,2024]]}},{"type":"Feature","geometry":{"type":"Polygon","coordinates":[[[-104.56793,32.13118],[-104.56661,32.13277],[-104.56759,32.13454],[-104.56991,32.13472],[-104.57123,32.13313],[-104.57025,32.13136],[-104.56793,32.13118]]]},"properties":{"cell":"8948d43730fffff","res":9,"coarsened":false,"count":1,"hv":1,"mp":0,"y0":2024,"y1":2024,"sp":[[118,1,1,0,2024,2024]]}},{"type":"Feature","geometry":{"type":"Polygon","coordinates":[[[-104.46743,32.15725],[-104.4661,32.15884],[-104.46708,32.16061],[-104.4694,32.16079],[-104.47072,32.1592],[-104.46974,32.15743],[-104.46743,32.15725]]]},"properties":{"cell":"8948d42209bffff","res":9,"coarsened":false,"count":3,"hv":3,"mp":0,"y0":2024,"y1":2024,"sp":[[99,1,1,0,2024,2024],[14,1,1,0,2024,2024],[92,1,1,0,2024,2024]]}},{"type":"Feature","geometry":{"type":"Polygon","coordinates":[[[-104.47072,32.1592],[-104.4694,32.16079],[-104.47038,32.16257],[-104.47269,32.16275],[-104.47402,32.16116],[-104.47304,32.15938],[-104.47072,32.1592]]]},"properties":{"cell":"8948d422083ffff","res":9,"coarsened":false,"count":8,"hv":8,"mp":0,"y0":2024,"y1":2024,"sp":[[102,3,3,0,2024,2024],[14,2,2,0,2024,2024],[99,1,1,0,2024,2024],[92,1,1,0,2024,2024],[6,1,1,0,2024,2024]]}},{"type":"Feature","geometry":{"type":"Polygon","coordinates":[[[-104.37816,32.17565],[-104.37683,32.17724],[-104.37781,32.17901],[-104.38012,32.17919],[-104.38145,32.1776],[-104.38047,32.17583],[-104.37816,32.17565]]]},"properties":{"cell":"8948d42304bffff","res":9,"coarsened":false,"count":1,"hv":1,"mp":0,"y0":2024,"y1":2024,"sp":[[51,1,1,0,2024,2024]]}},{"type":"Feature","geometry":{"type":"Polygon","coordinates":[[[-104.60996,32.09543],[-104.60864,32.09702],[-104.60963,32.09879],[-104.61194,32.09897],[-104.61326,32.09738],[-104.61228,32.09561],[-104.60996,32.09543]]]},"properties":{"cell":"8948d4375a7ffff","res":9,"coarsened":false,"count":1,"hv":1,"mp":0,"y0":2010,"y1":2010,"sp":[[51,1,1,0,2010,2010]]}},{"type":"Feature","geometry":{"type":"Polygon","coordinates":[[[-104.39272,32.17002],[-104.39139,32.17161],[-104.39237,32.17338],[-104.39468,32.17356],[-104.39601,32.17197],[-104.39503,32.1702],[-104.39272,32.17002]]]},"properties":{"cell":"8948d423013ffff","res":9,"coarsened":false,"count":1,"hv":1,"mp":0,"y0":2024,"y1":2024,"sp":[[61,1,1,0,2024,2024]]}},{"type":"Feature","geometry":{"type":"Polygon","coordinates":[[[-104.38942,32.16806],[-104.38809,32.16965],[-104.38908,32.17143],[-104.39139,32.17161],[-104.39272,32.17002],[-104.39173,32.16825],[-104.38942,32.16806]]]},"properties":{"cell":"8948d4230c7ffff","res":9,"coarsened":false,"count":1,"hv":1,"mp":0,"y0":2024,"y1":2024,"sp":[[34,1,1,0,2024,2024]]}},{"type":"Feature","geometry":{"type":"Polygon","coordinates":[[[-104.43069,32.17471],[-104.42937,32.1763],[-104.43035,32.17807],[-104.43266,32.17825],[-104.43399,32.17666],[-104.43301,32.17489],[-104.43069,32.17471]]]},"properties":{"cell":"8948d422253ffff","res":9,"coarsened":false,"count":1,"hv":1,"mp":0,"y0":2024,"y1":2024,"sp":[[92,1,1,0,2024,2024]]}},{"type":"Feature","geometry":{"type":"Polygon","coordinates":[[[-104.41318,32.17502],[-104.41185,32.17661],[-104.41284,32.17839],[-104.41515,32.17857],[-104.41648,32.17698],[-104.41549,32.17521],[-104.41318,32.17502]]]},"properties":{"cell":"8948d42356fffff","res":9,"coarsened":false,"count":1,"hv":1,"mp":0,"y0":2024,"y1":2024,"sp":[[48,1,1,0,2024,2024]]}},{"type":"Feature","geometry":{"type":"Polygon","coordinates":[[[-104.49745,32.17146],[-104.49612,32.17306],[-104.49711,32.17483],[-104.49942,32.17501],[-104.50075,32.17342],[-104.49976,32.17165],[-104.49745,32.17146]]]},"properties":{"cell":"8948d422197ffff","res":9,"coarsened":false,"count":1,"hv":1,"mp":0,"y0":2024,"y1":2024,"sp":[[20,1,1,0,2024,2024]]}},{"type":"Feature","geometry":{"type":"Polygon","coordinates":[[[-104.38475,32.17956],[-104.38342,32.18115],[-104.38441,32.18292],[-104.38672,32.18311],[-104.38805,32.18152],[-104.38706,32.17974],[-104.38475,32.17956]]]},"properties":{"cell":"8948d42307bffff","res":9,"coarsened":false,"count":2,"hv":2,"mp":0,"y0":2025,"y1":2026,"sp":[[51,2,2,0,2025,2026]]}},{"type":"Feature","geometry":{"type":"Polygon","coordinates":[[[-104.49017,32.17429],[-104.48884,32.17588],[-104.48983,32.17765],[-104.49214,32.17783],[-104.49347,32.17624],[-104.49248,32.17447],[-104.49017,32.17429]]]},"properties":{"cell":"8948d42218bffff","res":9,"coarsened":false,"count":1,"hv":1,"mp":0,"y0":2025,"y1":2025,"sp":[[99,1,1,0,2025,2025]]}},{"type":"Feature","geometry":{"type":"Polygon","coordinates":[[[-104.49381,32.17288],[-104.49248,32.17447],[-104.49347,32.17624],[-104.49578,32.17642],[-104.49711,32.17483],[-104.49612,32.17306],[-104.49381,32.17288]]]},"properties":{"cell":"8948d422183ffff","res":9,"coarsened":false,"count":1,"hv":1,"mp":0,"y0":2010,"y1":2010,"sp":[[78,1,1,0,2010,2010]]}},{"type":"Feature","geometry":{"type":"Polygon","coordinates":[[[-104.53849,32.14584],[-104.53717,32.14744],[-104.53815,32.14921],[-104.54047,32.14939],[-104.54179,32.1478],[-104.5408,32.14602],[-104.53849,32.14584]]]},"properties":{"cell":"8948d435463ffff","res":9,"coarsened":false,"count":1,"hv":1,"mp":0,"y0":2023,"y1":2023,"sp":[[7,1,1,0,2023,2023]]}},{"type":"Feature","geometry":{"type":"Polygon","coordinates":[[[-104.55745,32.09645],[-104.55612,32.09804],[-104.55711,32.09981],[-104.55942,32.09999],[-104.56075,32.0984],[-104.55976,32.09663],[-104.55745,32.09645]]]},"properties":{"cell":"8948d437637ffff","res":9,"coarsened":false,"count":1,"hv":1,"mp":0,"y0":2025,"y1":2025,"sp":[[43,1,1,0,2025,2025]]}},{"type":"Feature","geometry":{"type":"Polygon","coordinates":[[[-104.39759,32.19074],[-104.39626,32.19234],[-104.39725,32.19411],[-104.39956,32.19429],[-104.40089,32.1927],[-104.3999,32.19093],[-104.39759,32.19074]]]},"properties":{"cell":"8948d423387ffff","res":9,"coarsened":false,"count":1,"hv":1,"mp":0,"y0":2025,"y1":2025,"sp":[[51,1,1,0,2025,2025]]}},{"type":"Feature","geometry":{"type":"Polygon","coordinates":[[[-104.53815,32.14921],[-104.53683,32.1508],[-104.53781,32.15257],[-104.54013,32.15275],[-104.54145,32.15116],[-104.54047,32.14939],[-104.53815,32.14921]]]},"properties":{"cell":"8948d43546fffff","res":9,"coarsened":false,"count":1,"hv":1,"mp":0,"y0":2023,"y1":2023,"sp":[[51,1,1,0,2023,2023]]}},{"type":"Feature","geometry":{"type":"Polygon","coordinates":[[[-104.51268,32.15909],[-104.51136,32.16068],[-104.51234,32.16246],[-104.51466,32.16264],[-104.51598,32.16104],[-104.515,32.15927],[-104.51268,32.15909]]]},"properties":{"cell":"8948d43566fffff","res":9,"coarsened":false,"count":1,"hv":1,"mp":0,"y0":2026,"y1":2026,"sp":[[99,1,1,0,2026,2026]]}},{"type":"Feature","geometry":{"type":"Polygon","coordinates":[[[-104.62545,32.11528],[-104.62412,32.11687],[-104.62511,32.11864],[-104.62742,32.11882],[-104.62875,32.11723],[-104.62776,32.11546],[-104.62545,32.11528]]]},"properties":{"cell":"8948d436223ffff","res":9,"coarsened":false,"count":1,"hv":1,"mp":0,"y0":2026,"y1":2026,"sp":[[28,1,1,0,2026,2026]]}},{"type":"Feature","geometry":{"type":"Polygon","coordinates":[[[-104.55008,32.13488],[-104.54876,32.13647],[-104.54975,32.13824],[-104.55206,32.13842],[-104.55338,32.13683],[-104.5524,32.13506],[-104.55008,32.13488]]]},"properties":{"cell":"8948d4354bbffff","res":9,"coarsened":false,"count":1,"hv":1,"mp":0,"y0":2026,"y1":2026,"sp":[[28,1,1,0,2026,2026]]}},{"type":"Feature","geometry":{"type":"Polygon","coordinates":[[[-104.45436,32.11383],[-104.45303,32.11543],[-104.45402,32.1172],[-104.45633,32.11738],[-104.45766,32.11579],[-104.45667,32.11402],[-104.45436,32.11383]]]},"properties":{"cell":"8948d431d23ffff","res":9,"coarsened":false,"count":1,"hv":1,"mp":0,"y0":2012,"y1":2012,"sp":[[228,1,1,0,2012,2012]]}}],"park":"carlsbad_caverns","h3_res":9,"species_index":[{"n":"Setophaga tigrina","c":"Cape May Warbler","k":"Aves"},{"n":"Sayornis nigricans","c":"Black Phoebe","k":"Aves"},{"n":"Bombycilla cedrorum","c":"Cedar Waxwing","k":"Aves"},{"n":"Bubo virginianus","c":"Great Horned Owl","k":"Aves"},{"n":"Lanius ludovicianus","c":"Loggerhead Shrike","k":"Aves"},{"n":"Spizella passerina","c":"Chipping Sparrow","k":"Aves"},{"n":"Salpinctes obsoletus","c":"Rock Wren","k":"Aves"},{"n":"Petrochelidon fulva","c":"Cave Swallow","k":"Aves"},{"n":"Meleagris gallopavo","c":"Wild Turkey","k":"Aves"},{"n":"Piranga rubra","c":"Summer Tanager","k":"Aves"},{"n":"Pyrocephalus rubinus","c":"Vermilion Flycatcher","k":"Aves"},{"n":"Zenaida asiatica","c":"White-winged Dove","k":"Aves"},{"n":"Pecari tajacu","c":"Collared Peccary","k":"Mammalia"},{"n":"Chordeiles minor","c":"Common Nighthawk","k":"Aves"},{"n":"Amphispiza bilineata","c":"Black-throated Sparrow","k":"Aves"},{"n":"Corthylio calendula","c":"Ruby-crowned Kinglet","k":"Aves"},{"n":"Mareca americana","c":"American Wigeon","k":"Aves"},{"n":"Turdus migratorius","c":"American Robin","k":"Aves"},{"n":"Spatula cyanoptera","c":"Cinnamon Teal","k":"Aves"},{"n":"Buteo jamaicensis","c":"Red-tailed Hawk","k":"Aves"},{"n":"Sialia mexicana","c":"Western Bluebird","k":"Aves"},{"n":"Sciurus niger","c":"Eastern Fox Squirrel","k":"Mammalia"},{"n":"Dryobates scalaris","c":"Ladder-backed Woodpecker","k":"Aves"},{"n":"Melospiza melodia","c":"Song Sparrow","k":"Aves"},{"n":"Astur cooperii","c":"Cooper's Hawk","k":"Aves"},{"n":"Colaptes auratus","c":"Northern Flicker","k":"Aves"},{"n":"Setophaga coronata","c":"Yellow-rumped Warbler","k":"Aves"},{"n":"Setophaga aestiva","c":"Northern Yellow Warbler","k":"Aves"},{"n":"Catherpes mexicanus","c":"Canyon Wren","k":"Aves"},{"n":"Antrozous pallidus","c":"Pallid Bat","k":"Mammalia"},{"n":"Sylvilagus audubonii","c":"Desert Cottontail","k":"Mammalia"},{"n":"Odocoileus hemionus","c":"Mule Deer","k":"Mammalia"},{"n":"Cardinalis cardinalis","c":"Northern Cardinal","k":"Aves"},{"n":"Buteo swainsoni","c":"Swainson's Hawk","k":"Aves"},{"n":"Contopus sordidulus","c":"Western Wood-Pewee","k":"Aves"},{"n":"Tyrannus vociferans","c":"Cassin's Kingbird","k":"Aves"},{"n":"Cathartes aura","c":"Turkey Vulture","k":"Aves"},{"n":"Thryomanes bewickii","c":"Bewick's Wren","k":"Aves"},{"n":"Aythya americana","c":"Redhead","k":"Aves"},{"n":"Icterus spurius","c":"Orchard Oriole","k":"Aves"},{"n":"Callipepla squamata","c":"Scaled Quail","k":"Aves"},{"n":"Vireo bellii","c":"Bell's Vireo","k":"Aves"},{"n":"Lynx rufus","c":"Bobcat","k":"Mammalia"},{"n":"Geococcyx californianus","c":"Greater Roadrunner","k":"Aves"},{"n":"Mimus polyglottos","c":"Northern Mockingbird","k":"Aves"},{"n":"Haemorhous mexicanus","c":"House Finch","k":"Aves"},{"n":"Spinus psaltria","c":"Lesser Goldfinch","k":"Aves"},{"n":"Chondestes grammacus","c":"Lark Sparrow","k":"Aves"},{"n":"Canis latrans","c":"Coyote","k":"Mammalia"},{"n":"Cardellina pusilla","c":"Wilson's Warbler","k":"Aves"},{"n":"Otospermophilus variegatus","c":"Rock Squirrel","k":"Mammalia"},{"n":"Ammotragus lervia","c":"Aoudad","k":"Mammalia"},{"n":"Vireo flavoviridis","c":"Yellow-green Vireo","k":"Aves"},{"n":"Icterus pustulatus","c":"Streak-backed Oriole","k":"Aves"},{"n":"Legatus leucophaius","c":"Piratic Flycatcher","k":"Aves"},{"n":"Parkesia motacilla","c":"Louisiana Waterthrush","k":"Aves"},{"n":"Parkesia noveboracensis","c":"Northern Waterthrush","k":"Aves"},{"n":"Petrochelidon pyrrhonota","c":"Cliff Swallow","k":"Aves"},{"n":"Bassariscus astutus","c":"Ringtail","k":"Mammalia"},{"n":"Crotophaga sulcirostris","c":"Groove-billed Ani","k":"Aves"},{"n":"Myioborus pictus","c":"Painted Redstart","k":"Aves"},{"n":"Myiarchus cinerascens","c":"Ash-throated Flycatcher","k":"Aves"},{"n":"Oreoscoptes montanus","c":"Sage Thrasher","k":"Aves"},{"n":"Catharus guttatus","c":"Hermit Thrush","k":"Aves"},{"n":"Junco hyemalis","c":"Dark-eyed Junco","k":"Aves"},{"n":"Tadarida brasiliensis","c":"Mexican Free-tailed Bat","k":"Mammalia"},{"n":"Zenaida macroura","c":"Mourning Dove","k":"Aves"},{"n":"Hirundo rustica","c":"Barn Swallow","k":"Aves"},{"n":"Molothrus ater","c":"Brown-headed Cowbird","k":"Aves"},{"n":"Cervus canadensis","c":"Wapiti","k":"Mammalia"},{"n":"Pitangus sulphuratus","c":"Great Kiskadee","k":"Aves"},{"n":"Empidonax traillii","c":"Willow Flycatcher","k":"Aves"},{"n":"Vireo swainsoni","c":"Western Warbling Vireo","k":"Aves"},{"n":"Buteo albonotatus","c":"Zone-tailed Hawk","k":"Aves"},{"n":"Icterus galbula","c":"Baltimore Oriole","k":"Aves"},{"n":"Leiothlypis virginiae","c":"Virginia's Warbler","k":"Aves"},{"n":"Icterus cucullatus","c":"Hooded Oriole","k":"Aves"},{"n":"Vireo vicinior","c":"Gray Vireo","k":"Aves"},{"n":"Geothlypis tolmiei","c":"MacGillivray's Warbler","k":"Aves"},{"n":"Calothorax lucifer","c":"Lucifer Hummingbird","k":"Aves"},{"n":"Aeronautes saxatalis","c":"White-throated Swift","k":"Aves"},{"n":"Troglodytes aedon","c":"Northern House Wren","k":"Aves"},{"n":"Icterus parisorum","c":"Scott's Oriole","k":"Aves"},{"n":"Hesperiphona vespertina","c":"Evening Grosbeak","k":"Aves"},{"n":"Aythya valisineria","c":"Canvasback","k":"Aves"},{"n":"Zonotrichia querula","c":"Harris's Sparrow","k":"Aves"},{"n":"Euphagus carolinus","c":"Rusty Blackbird","k":"Aves"},{"n":"Polioptila caerulea","c":"Blue-gray Gnatcatcher","k":"Aves"},{"n":"Cyrtonyx montezumae","c":"Montezuma Quail","k":"Aves"},{"n":"Piranga ludoviciana","c":"Western Tanager","k":"Aves"},{"n":"Archilochus alexandri","c":"Black-chinned Hummingbird","k":"Aves"},{"n":"Selasphorus platycercus","c":"Broad-tailed Hummingbird","k":"Aves"},{"n":"Spizella breweri","c":"Brewer's Sparrow","k":"Aves"},{"n":"Passerina caerulea","c":"Blue Grosbeak","k":"Aves"},{"n":"Tyrannus forficatus","c":"Scissor-tailed Flycatcher","k":"Aves"},{"n":"Molothrus aeneus","c":"Bronzed Cowbird","k":"Aves"},{"n":"Icterus bullockii","c":"Bullock's Oriole","k":"Aves"},{"n":"Icteria virens","c":"Yellow-breasted Chat","k":"Aves"},{"n":"Tyrannus verticalis","c":"Western Kingbird","k":"Aves"},{"n":"Cardinalis sinuatus","c":"Pyrrhuloxia","k":"Aves"},{"n":"Toxostoma curvirostre","c":"Curve-billed Thrasher","k":"Aves"},{"n":"Aimophila ruficeps","c":"Rufous-crowned Sparrow","k":"Aves"},{"n":"Melozone fusca","c":"Canyon Towhee","k":"Aves"},{"n":"Erethizon dorsatum","c":"North American Porcupine","k":"Mammalia"},{"n":"Phainopepla nitens","c":"Phainopepla","k":"Aves"},{"n":"Ardea ibis","c":"Western Cattle-Egret","k":"Aves"},{"n":"Sphyrapicus thyroideus","c":"Williamson's Sapsucker","k":"Aves"},{"n":"Aphelocoma woodhouseii","c":"Woodhouse's Scrub-Jay","k":"Aves"},{"n":"Catharus ustulatus","c":"Swainson's Thrush","k":"Aves"},{"n":"Setophaga nigrescens","c":"Black-throated Gray Warbler","k":"Aves"},{"n":"Mephitis mephitis","c":"Striped Skunk","k":"Mammalia"},{"n":"Mareca strepera","c":"Gadwall","k":"Aves"},{"n":"Streptopelia decaocto","c":"Eurasian Collared-Dove","k":"Aves"},{"n":"Sayornis phoebe","c":"Eastern Phoebe","k":"Aves"},{"n":"Ammospermophilus interpres","c":"Texas Antelope Squirrel","k":"Mammalia"},{"n":"Melospiza lincolnii","c":"Lincoln's Sparrow","k":"Aves"},{"n":"Aythya collaris","c":"Ring-necked Duck","k":"Aves"},{"n":"Urocyon cinereoargenteus","c":"Gray Fox","k":"Mammalia"},{"n":"Sayornis saya","c":"Say's Phoebe","k":"Aves"},{"n":"Cratogeomys castanops","c":"Yellow-faced Pocket Gopher","k":"Mammalia"},{"n":"Setophaga ruticilla","c":"American Redstart","k":"Aves"},{"n":"Pandion haliaetus","c":"Osprey","k":"Aves"},{"n":"Campylorhynchus brunneicapillus","c":"Cactus Wren","k":"Aves"},{"n":"Empidonax wrightii","c":"Gray Flycatcher","k":"Aves"},{"n":"Columbina passerina","c":"Common Ground Dove","k":"Aves"},{"n":"Pipilo chlorurus","c":"Green-tailed Towhee","k":"Aves"},{"n":"Spatula discors","c":"Blue-winged Teal","k":"Aves"},{"n":"Zonotrichia leucophrys","c":"White-crowned Sparrow","k":"Aves"},{"n":"Sialia currucoides","c":"Mountain Bluebird","k":"Aves"},{"n":"Pheucticus melanocephalus","c":"Black-headed Grosbeak","k":"Aves"},{"n":"Vireo atricapilla","c":"Black-capped Vireo","k":"Aves"},{"n":"Leiothlypis luciae","c":"Lucy's Warbler","k":"Aves"},{"n":"Spiza americana","c":"Dickcissel","k":"Aves"},{"n":"Plegadis chihi","c":"White-faced Ibis","k":"Aves"},{"n":"Passerina amoena","c":"Lazuli Bunting","k":"Aves"},{"n":"Phalaenoptilus nuttallii","c":"Common Poorwill","k":"Aves"},{"n":"Calamospiza melanocorys","c":"Lark Bunting","k":"Aves"},{"n":"Setophaga pensylvanica","c":"Chestnut-sided Warbler","k":"Aves"},{"n":"Buteo platypterus","c":"Broad-winged Hawk","k":"Aves"},{"n":"Leiothlypis celata","c":"Orange-crowned Warbler","k":"Aves"},{"n":"Pooecetes gramineus","c":"Vesper Sparrow","k":"Aves"},{"n":"Falco columbarius","c":"Merlin","k":"Aves"},{"n":"Spinus tristis","c":"American Goldfinch","k":"Aves"},{"n":"Zonotrichia albicollis","c":"White-throated Sparrow","k":"Aves"},{"n":"Melanotis caerulescens","c":"Blue Mockingbird","k":"Aves"},{"n":"Dumetella carolinensis","c":"Gray Catbird","k":"Aves"},{"n":"Toxostoma rufum","c":"Brown Thrasher","k":"Aves"},{"n":"Megascops kennicottii","c":"Western Screech-Owl","k":"Aves"},{"n":"Cistothorus palustris","c":"Marsh Wren","k":"Aves"},{"n":"Troglodytes pacificus","c":"Pacific Wren","k":"Aves"},{"n":"Melospiza georgiana","c":"Swamp Sparrow","k":"Aves"},{"n":"Peucaea cassinii","c":"Cassin's Sparrow","k":"Aves"},{"n":"Gallinago delicata","c":"Wilson's Snipe","k":"Aves"},{"n":"Poecile gambeli","c":"Mountain Chickadee","k":"Aves"},{"n":"Corvus corax","c":"Common Raven","k":"Aves"},{"n":"Tachycineta bicolor","c":"Tree Swallow","k":"Aves"},{"n":"Spizella atrogularis","c":"Black-chinned Sparrow","k":"Aves"},{"n":"Stelgidopteryx serripennis","c":"Northern Rough-winged Swallow","k":"Aves"},{"n":"Sialia sialis","c":"Eastern Bluebird","k":"Aves"},{"n":"Vireo flavifrons","c":"Yellow-throated Vireo","k":"Aves"},{"n":"Spizella pallida","c":"Clay-colored Sparrow","k":"Aves"},{"n":"Tringa solitaria","c":"Solitary Sandpiper","k":"Aves"},{"n":"Vireo plumbeus","c":"Plumbeous Vireo","k":"Aves"},{"n":"Passerina versicolor","c":"Varied Bunting","k":"Aves"},{"n":"Buteogallus anthracinus","c":"Common Black Hawk","k":"Aves"},{"n":"Passerina ciris","c":"Painted Bunting","k":"Aves"},{"n":"Vireo griseus","c":"White-eyed Vireo","k":"Aves"},{"n":"Ardea alba","c":"Great Egret","k":"Aves"},{"n":"Aythya affinis","c":"Lesser Scaup","k":"Aves"},{"n":"Setophaga caerulescens","c":"Black-throated Blue Warbler","k":"Aves"},{"n":"Seiurus aurocapilla","c":"Ovenbird","k":"Aves"},{"n":"Myiarchus nuttingi","c":"Nutting's Flycatcher","k":"Aves"},{"n":"Procyon lotor","c":"Common Raccoon","k":"Mammalia"},{"n":"Contopus cooperi","c":"Olive-sided Flycatcher","k":"Aves"},{"n":"Selasphorus rufus","c":"Rufous Hummingbird","k":"Aves"},{"n":"Vireo philadelphicus","c":"Philadelphia Vireo","k":"Aves"},{"n":"Accipiter striatus","c":"Sharp-shinned Hawk","k":"Aves"},{"n":"Aix sponsa","c":"Wood Duck","k":"Aves"},{"n":"Setophaga virens","c":"Black-throated Green Warbler","k":"Aves"},{"n":"Buteo regalis","c":"Ferruginous Hawk","k":"Aves"},{"n":"Parabuteo unicinctus","c":"Harris's Hawk","k":"Aves"},{"n":"Passerella iliaca","c":"Fox Sparrow","k":"Aves"},{"n":"Myadestes townsendi","c":"Townsend's Solitaire","k":"Aves"},{"n":"Buteo lineatus","c":"Red-shouldered Hawk","k":"Aves"},{"n":"Baeolophus ridgwayi","c":"Juniper Titmouse","k":"Aves"},{"n":"Spinus pinus","c":"Pine Siskin","k":"Aves"},{"n":"Empidonax oberholseri","c":"Dusky Flycatcher","k":"Aves"},{"n":"Actitis macularius","c":"Spotted Sandpiper","k":"Aves"},{"n":"Limnothlypis swainsonii","c":"Swainson's Warbler","k":"Aves"},{"n":"Contopus virens","c":"Eastern Wood-Pewee","k":"Aves"},{"n":"Myiarchus crinitus","c":"Great Crested Flycatcher","k":"Aves"},{"n":"Sigmodon hispidus","c":"Hispid Cotton Rat","k":"Mammalia"},{"n":"Setophaga townsendi","c":"Townsend's Warbler","k":"Aves"},{"n":"Sphyrapicus nuchalis","c":"Red-naped Sapsucker","k":"Aves"},{"n":"Ixoreus naevius","c":"Varied Thrush","k":"Aves"},{"n":"Troglodytes hiemalis","c":"Winter Wren","k":"Aves"},{"n":"Pipilo maculatus","c":"Spotted Towhee","k":"Aves"},{"n":"Ammodramus savannarum","c":"Grasshopper Sparrow","k":"Aves"},{"n":"Peromyscus labecula","c":"Southern Deer Mouse","k":"Mammalia"},{"n":"Eptesicus fuscus","c":"Big Brown Bat","k":"Mammalia"},{"n":"Nyctinomops macrotis","c":"Big Free-tailed Bat","k":"Mammalia"},{"n":"Lophodytes cucullatus","c":"Hooded Merganser","k":"Aves"},{"n":"Fulica americana","c":"American Coot","k":"Aves"},{"n":"Columbina inca","c":"Inca Dove","k":"Aves"},{"n":"Leiothlypis ruficapilla","c":"Nashville Warbler","k":"Aves"},{"n":"Antilocapra americana","c":"Pronghorn","k":"Mammalia"},{"n":"Helmitheros vermivorum","c":"Worm-eating Warbler","k":"Aves"},{"n":"Setophaga magnolia","c":"Magnolia Warbler","k":"Aves"},{"n":"Setophaga citrina","c":"Hooded Warbler","k":"Aves"},{"n":"Egretta thula","c":"Snowy Egret","k":"Aves"},{"n":"Pheucticus ludovicianus","c":"Rose-breasted Grosbeak","k":"Aves"},{"n":"Butorides virescens","c":"Green Heron","k":"Aves"},{"n":"Ardea herodias","c":"Great Blue Heron","k":"Aves"},{"n":"Toxostoma crissale","c":"Crissal Thrasher","k":"Aves"},{"n":"Hylocichla mustelina","c":"Wood Thrush","k":"Aves"},{"n":"Setophaga americana","c":"Northern Parula","k":"Aves"},{"n":"Antigone canadensis","c":"Sandhill Crane","k":"Aves"},{"n":"Megaceryle alcyon","c":"Belted Kingfisher","k":"Aves"},{"n":"Aquila chrysaetos","c":"Golden Eagle","k":"Aves"},{"n":"Circus hudsonius","c":"Northern Harrier","k":"Aves"},{"n":"Cyanocitta stelleri","c":"Steller's Jay","k":"Aves"},{"n":"Anas crecca","c":"Green-winged Teal","k":"Aves"},{"n":"Nannopterum auritum","c":"Double-crested Cormorant","k":"Aves"},{"n":"Dryobates pubescens","c":"Downy Woodpecker","k":"Aves"},{"n":"Anthus rubescens","c":"American Pipit","k":"Aves"},{"n":"Falco sparverius","c":"American Kestrel","k":"Aves"},{"n":"Charadrius vociferus","c":"Killdeer","k":"Aves"},{"n":"Lasiurus cinereus","c":"Northern Hoary Bat","k":"Mammalia"},{"n":"Sitta carolinensis","c":"White-breasted Nuthatch","k":"Aves"},{"n":"Sus scrofa","c":"Domestic Pig","k":"Mammalia"},{"n":"Neotoma albigula","c":"White-throated Woodrat","k":"Mammalia"},{"n":"Corynorhinus townsendii","c":"Townsend's Big-eared Bat","k":"Mammalia"},{"n":"Melanerpes formicivorus","c":"Acorn Woodpecker","k":"Aves"},{"n":"Chiroptera","c":null,"k":"Mammalia"},{"n":"Pyrocephalus obscurus","c":"Vermilion Flycatcher","k":"Aves"},{"n":"Sturnella neglecta","c":null,"k":"Aves"},{"n":"Calcarius ornatus","c":null,"k":"Aves"},{"n":"Athene cunicularia","c":"Burrowing Owl","k":"Aves"},{"n":"Aphelocoma californica","c":"Western Scrub-Jay","k":"Aves"}],"entry":["species_index","count","human_verified","model_predicted","first_year","last_year"],"suppressed":{"excluded":{},"coarsened":{}},"merged_names":{"Meleagris gallopavo intermedia":"Meleagris gallopavo","Colaptes auratus cafer":"Colaptes auratus","Setophaga coronata auduboni":"Setophaga coronata","Junco hyemalis caniceps":"Junco hyemalis","Melanotis caerulescens caerulescens":"Melanotis caerulescens","Setophaga coronata coronata \u00d7 auduboni":"Setophaga coronata","Colaptes auratus luteus":"Colaptes auratus","Zonotrichia leucophrys gambelii":"Zonotrichia leucophrys","Salpinctes obsoletus obsoletus":"Salpinctes obsoletus","Junco hyemalis hyemalis":"Junco hyemalis","Sus scrofa domesticus":"Sus scrofa"}}