{"type":"Feature","geometry":{"type":"MultiPolygon","coordinates":[[[[-156.0411,20.6653],[-156.0411,20.6651],[-156.0413,20.6654],[-156.041,20.6661],[-156.041,20.6672],[-156.0408,20.6674],[-156.0407,20.6673],[-156.0411,20.6653]]],[[[-156.132,20.6487],[-156.1347,20.6484],[-156.1354,20.6507],[-156.133,20.651],[-156.132,20.6487]]],[[[-156.1509,20.7368],[-156.1419,20.7305],[-156.1482,20.7368],[-156.103,20.7366],[-156.0882,20.7277],[-156.0873,20.7269],[-156.0872,20.7262],[-156.0875,20.7246],[-156.0875,20.7234],[-156.0879,20.7228],[-156.0876,20.7217],[-156.0864,20.7212],[-156.0847,20.7191],[-156.0829,20.7159],[-156.0827,20.7148],[-156.0811,20.7124],[-156.0801,20.7113],[-156.0761,20.7109],[-156.0745,20.7104],[-156.0738,20.7103],[-156.073,20.7105],[-156.0723,20.7109],[-156.0718,20.7109],[-156.0705,20.7105],[-156.068,20.7085],[-156.0678,20.7078],[-156.0669,20.7063],[-156.0519,20.6817],[-156.0529,20.6811],[-156.0453,20.6707],[-156.0445,20.6699],[-156.0439,20.6689],[-156.0435,20.6693],[-156.0431,20.6687],[-156.0427,20.6686],[-156.0423,20.6679],[-156.0415,20.6673],[-156.0419,20.6667],[-156.0425,20.6662],[-156.0422,20.6658],[-156.0418,20.666],[-156.0423,20.6652],[-156.0412,20.665],[-156.0411,20.664],[-156.0409,20.6638],[-156.0411,20.6635],[-156.0412,20.6629],[-156.041,20.6623],[-156.0405,20.6621],[-156.0404,20.6617],[-156.0412,20.6618],[-156.0415,20.6615],[-156.0417,20.6614],[-156.0415,20.6608],[-156.0416,20.6607],[-156.0421,20.6607],[-156.0422,20.6603],[-156.0424,20.6602],[-156.0422,20.66],[-156.0427,20.6599],[-156.0427,20.6596],[-156.0429,20.6596],[-156.0429,20.6593],[-156.0431,20.6592],[-156.0429,20.6588],[-156.0433,20.659],[-156.0443,20.659],[-156.0442,20.6586],[-156.0438,20.6585],[-156.0436,20.6582],[-156.0449,20.6581],[-156.0444,20.6579],[-156.0438,20.658],[-156.0432,20.6576],[-156.0437,20.6577],[-156.0446,20.6577],[-156.0455,20.658],[-156.0456,20.6586],[-156.0465,20.6589],[-156.0473,20.6585],[-156.0473,20.658],[-156.0471,20.6572],[-156.0465,20.6572],[-156.0463,20.6566],[-156.0465,20.6566],[-156.0465,20.6564],[-156.0467,20.6564],[-156.0468,20.6561],[-156.0462,20.6556],[-156.0467,20.6549],[-156.0467,20.6546],[-156.0463,20.6544],[-156.0462,20.6541],[-156.0455,20.6539],[-156.0454,20.6534],[-156.0457,20.653],[-156.0458,20.6529],[-156.046,20.6531],[-156.0462,20.6529],[-156.0465,20.6529],[-156.0467,20.6524],[-156.0471,20.6527],[-156.0473,20.6526],[-156.0473,20.6524],[-156.0469,20.6517],[-156.0477,20.6519],[-156.048,20.6516],[-156.0484,20.6518],[-156.0493,20.653],[-156.0505,20.6554],[-156.0511,20.656],[-156.0507,20.6563],[-156.0499,20.655],[-156.0497,20.6549],[-156.0491,20.6552],[-156.049,20.6554],[-156.0493,20.6558],[-156.0489,20.6562],[-156.05,20.6569],[-156.0506,20.6564],[-156.0525,20.6592],[-156.0521,20.6595],[-156.05,20.6569],[-156.0475,20.6592],[-156.0559,20.6646],[-156.0585,20.6664],[-156.0603,20.6675],[-156.0628,20.6692],[-156.0637,20.6692],[-156.0645,20.6695],[-156.0715,20.6764],[-156.0792,20.6737],[-156.0854,20.6818],[-156.085,20.682],[-156.0853,20.6826],[-156.0863,20.6828],[-156.0871,20.6835],[-156.0887,20.6837],[-156.092,20.6853],[-156.0892,20.6787],[-156.0891,20.6782],[-156.0887,20.6776],[-156.088,20.6754],[-156.088,20.6747],[-156.0874,20.6721],[-156.0861,20.6699],[-156.0854,20.6676],[-156.0848,20.6668],[-156.0836,20.6659],[-156.0831,20.6654],[-156.0823,20.6623],[-156.0816,20.6607],[-156.0811,20.6601],[-156.0805,20.6599],[-156.0802,20.6599],[-156.079,20.6589],[-156.0784,20.6573],[-156.0773,20.6564],[-156.0775,20.6538],[-156.0762,20.6526],[-156.076,20.6521],[-156.0761,20.6513],[-156.0754,20.6508],[-156.0754,20.6502],[-156.0778,20.6512],[-156.0787,20.6512],[-156.0798,20.6508],[-156.081,20.65],[-156.0815,20.6491],[-156.0821,20.6486],[-156.0841,20.6478],[-156.0848,20.6467],[-156.0853,20.6465],[-156.0855,20.6466],[-156.086,20.6462],[-156.0867,20.6471],[-156.0874,20.6487],[-156.0884,20.6493],[-156.0893,20.6496],[-156.0897,20.6501],[-156.0902,20.6515],[-156.092,20.6536],[-156.0925,20.6551],[-156.0929,20.6559],[-156.0944,20.6575],[-156.0944,20.6584],[-156.0948,20.6593],[-156.0961,20.6599],[-156.0964,20.6603],[-156.0967,20.6624],[-156.0984,20.6655],[-156.0981,20.6664],[-156.0989,20.6668],[-156.0988,20.6671],[-156.0983,20.6676],[-156.0982,20.668],[-156.0985,20.6693],[-156.0985,20.67],[-156.099,20.6705],[-156.0993,20.6711],[-156.0993,20.6723],[-156.1001,20.6732],[-156.1007,20.6743],[-156.1018,20.675],[-156.1023,20.6757],[-156.1025,20.6769],[-156.1036,20.679],[-156.1056,20.6813],[-156.1061,20.6831],[-156.1067,20.6837],[-156.1075,20.6855],[-156.1089,20.6896],[-156.1089,20.6906],[-156.1095,20.6905],[-156.11,20.6906],[-156.1103,20.6902],[-156.1115,20.6897],[-156.1121,20.6898],[-156.1125,20.6895],[-156.1132,20.6894],[-156.1136,20.6894],[-156.1146,20.6899],[-156.1151,20.69],[-156.116,20.6908],[-156.1167,20.6905],[-156.1172,20.6908],[-156.1177,20.6907],[-156.1182,20.6912],[-156.1187,20.6908],[-156.1193,20.6909],[-156.1196,20.6905],[-156.1208,20.6904],[-156.1211,20.6905],[-156.1214,20.6903],[-156.1217,20.6904],[-156.122,20.6909],[-156.1223,20.6902],[-156.1231,20.6899],[-156.1237,20.6893],[-156.1244,20.6895],[-156.1247,20.6892],[-156.1255,20.6889],[-156.1267,20.6887],[-156.127,20.6883],[-156.1274,20.688],[-156.1278,20.6881],[-156.128,20.6877],[-156.1285,20.6877],[-156.129,20.6883],[-156.1293,20.6877],[-156.1306,20.6874],[-156.1309,20.6874],[-156.1318,20.6871],[-156.132,20.6871],[-156.1323,20.6875],[-156.1325,20.6873],[-156.1329,20.6876],[-156.1332,20.6872],[-156.1335,20.6872],[-156.1336,20.6868],[-156.134,20.6864],[-156.1339,20.6853],[-156.1344,20.6803],[-156.1544,20.679],[-156.1732,20.6989],[-156.1728,20.6728],[-156.1701,20.6476],[-156.1726,20.6441],[-156.1771,20.64],[-156.1765,20.638],[-156.1788,20.6336],[-156.1795,20.6293],[-156.1797,20.6292],[-156.1801,20.6271],[-156.1811,20.6265],[-156.1844,20.6264],[-156.1871,20.627],[-156.1876,20.6279],[-156.1881,20.6281],[-156.1876,20.6291],[-156.1921,20.6556],[-156.2024,20.6995],[-156.2393,20.7003],[-156.2517,20.7064],[-156.2567,20.7103],[-156.2435,20.7289],[-156.2551,20.7444],[-156.2448,20.7724],[-156.2154,20.7558],[-156.1768,20.737],[-156.1509,20.7368]]]]},"properties":{"park":"haleakala","name":"Haleakala National Park","source":"iNaturalist place","place_id":56788,"source_url":"https://www.inaturalist.org/places/56788"}}