{"type":"FeatureCollection","features":[{"type":"Feature","geometry":{"type":"Polygon","coordinates":[[[-156.21989,20.74058],[-156.22052,20.73872],[-156.21911,20.73729],[-156.21707,20.73773],[-156.21643,20.7396],[-156.21784,20.74102],[-156.21989,20.74058]]]},"properties":{"cell":"895d1479b8fffff","res":9,"coarsened":false,"count":8,"hv":8,"mp":0,"y0":1999,"y1":2025,"sp":[[0,6,6,0,1999,2025],[1,2,2,0,2019,2023]]}},{"type":"Feature","geometry":{"type":"Polygon","coordinates":[[[-156.22912,20.75241],[-156.22976,20.75054],[-156.22835,20.74912],[-156.2263,20.74956],[-156.22567,20.75142],[-156.22708,20.75285],[-156.22912,20.75241]]]},"properties":{"cell":"895d1479873ffff","res":9,"coarsened":false,"count":66,"hv":66,"mp":0,"y0":2011,"y1":2026,"sp":[[0,36,36,0,2016,2026],[6,12,12,0,2021,2026],[11,4,4,0,2019,2021],[8,4,4,0,2019,2025],[3,4,4,0,2020,2025],[20,2,2,0,2025,2025],[1,1,1,0,2011,2011],[7,1,1,0,2016,2016],[5,1,1,0,2026,2026],[42,1,1,0,2024,2024]]}},{"type":"Feature","geometry":{"type":"Polygon","coordinates":[[[-156.18336,20.70871],[-156.184,20.70685],[-156.18259,20.70542],[-156.18054,20.70586],[-156.17991,20.70773],[-156.18132,20.70915],[-156.18336,20.70871]]]},"properties":{"cell":"895d146a2a3ffff","res":9,"coarsened":false,"count":1,"hv":1,"mp":0,"y0":2012,"y1":2012,"sp":[[2,1,1,0,2012,2012]]}},{"type":"Feature","geometry":{"type":"Polygon","coordinates":[[[-156.23629,20.7146],[-156.23692,20.71273],[-156.23551,20.71131],[-156.23347,20.71175],[-156.23284,20.71361],[-156.23425,20.71504],[-156.23629,20.7146]]]},"properties":{"cell":"895d146b43bffff","res":9,"coarsened":false,"count":1,"hv":1,"mp":0,"y0":2012,"y1":2012,"sp":[[0,1,1,0,2012,2012]]}},{"type":"Feature","geometry":{"type":"Polygon","coordinates":[[[-156.15772,20.72286],[-156.15835,20.721],[-156.15694,20.71957],[-156.15489,20.72001],[-156.15426,20.72187],[-156.15567,20.7233],[-156.15772,20.72286]]]},"properties":{"cell":"895d146a1d3ffff","res":9,"coarsened":false,"count":9,"hv":9,"mp":0,"y0":2007,"y1":2024,"sp":[[2,4,4,0,2007,2024],[11,1,1,0,2016,2016],[1,1,1,0,2016,2016],[6,1,1,0,2016,2016],[3,1,1,0,2016,2016],[0,1,1,0,2011,2011]]}},{"type":"Feature","geometry":{"type":"Polygon","coordinates":[[[-156.15694,20.71957],[-156.15757,20.71771],[-156.15616,20.71628],[-156.15412,20.71672],[-156.15348,20.71859],[-156.15489,20.72001],[-156.15694,20.71957]]]},"properties":{"cell":"895d146a1c3ffff","res":9,"coarsened":false,"count":1,"hv":1,"mp":0,"y0":2010,"y1":2010,"sp":[[2,1,1,0,2010,2010]]}},{"type":"Feature","geometry":{"type":"Polygon","coordinates":[[[-156.24717,20.76061],[-156.24781,20.75875],[-156.24639,20.75732],[-156.24435,20.75776],[-156.24372,20.75963],[-156.24513,20.76105],[-156.24717,20.76061]]]},"properties":{"cell":"895d1479e3bffff","res":9,"coarsened":false,"count":59,"hv":59,"mp":0,"y0":2003,"y1":2026,"sp":[[0,37,37,0,2003,2026],[5,10,10,0,2016,2026],[6,4,4,0,2024,2026],[7,3,3,0,2018,2025],[2,2,2,0,2010,2022],[13,1,1,0,2016,2016],[3,1,1,0,2022,2022],[8,1,1,0,2024,2024]]}},{"type":"Feature","geometry":{"type":"Polygon","coordinates":[[[-156.23992,20.77081],[-156.24055,20.76894],[-156.23914,20.76752],[-156.2371,20.76796],[-156.23646,20.76982],[-156.23788,20.77125],[-156.23992,20.77081]]]},"properties":{"cell":"895d1479eb7ffff","res":9,"coarsened":false,"count":301,"hv":301,"mp":0,"y0":2001,"y1":2026,"sp":[[3,107,107,0,2015,2026],[6,50,50,0,2015,2026],[0,30,30,0,2001,2026],[42,28,28,0,2016,2026],[5,22,22,0,2018,2026],[16,16,16,0,2019,2026],[33,10,10,0,2016,2025],[8,9,9,0,2016,2026],[22,5,5,0,2020,2026],[12,4,4,0,2016,2026],[1,3,3,0,2018,2026],[20,3,3,0,2016,2019],[21,3,3,0,2026,2026],[45,3,3,0,2016,2017],[17,1,1,0,2021,2021],[14,1,1,0,2022,2022],[19,1,1,0,2023,2023],[26,1,1,0,2026,2026],[11,1,1,0,2026,2026],[2,1,1,0,2024,2024],[24,1,1,0,2024,2024],[44,1,1,0,2020,2020]]}},{"type":"Feature","geometry":{"type":"Polygon","coordinates":[[[-156.04367,20.66267],[-156.0443,20.66081],[-156.04289,20.65938],[-156.04085,20.65982],[-156.04021,20.66168],[-156.04162,20.66311],[-156.04367,20.66267]]]},"properties":{"cell":"895d146f507ffff","res":9,"coarsened":false,"count":17,"hv":17,"mp":0,"y0":2010,"y1":2025,"sp":[[31,3,3,0,2023,2024],[8,3,3,0,2022,2025],[4,2,2,0,2010,2015],[18,2,2,0,2010,2025],[27,2,2,0,2022,2024],[15,2,2,0,2022,2022],[13,1,1,0,2022,2022],[12,1,1,0,2024,2024],[22,1,1,0,2014,2014]]}},{"type":"Feature","geometry":{"type":"Polygon","coordinates":[[[-156.25468,20.71064],[-156.25531,20.70877],[-156.2539,20.70735],[-156.25186,20.70779],[-156.25123,20.70965],[-156.25264,20.71108],[-156.25468,20.71064]]]},"properties":{"cell":"895d146b687ffff","res":9,"coarsened":false,"count":174,"hv":174,"mp":0,"y0":1994,"y1":2026,"sp":[[2,154,154,0,1994,2026],[0,4,4,0,2006,2026],[6,4,4,0,2026,2026],[7,4,4,0,2026,2026],[8,3,3,0,2026,2026],[12,1,1,0,2005,2005],[3,1,1,0,2026,2026],[1,1,1,0,2026,2026],[5,1,1,0,2026,2026],[46,1,1,0,1998,1998]]}},{"type":"Feature","geometry":{"type":"Polygon","coordinates":[[[-156.25278,20.71623],[-156.25341,20.71436],[-156.252,20.71294],[-156.24996,20.71338],[-156.24933,20.71524],[-156.25074,20.71667],[-156.25278,20.71623]]]},"properties":{"cell":"895d146b45bffff","res":9,"coarsened":false,"count":351,"hv":351,"mp":0,"y0":2001,"y1":2026,"sp":[[2,342,342,0,2001,2026],[17,3,3,0,2018,2018],[0,3,3,0,2015,2022],[11,1,1,0,2018,2018],[19,1,1,0,2023,2023],[38,1,1,0,2013,2013]]}},{"type":"Feature","geometry":{"type":"Polygon","coordinates":[[[-156.22066,20.74387],[-156.2213,20.742],[-156.21989,20.74058],[-156.21784,20.74102],[-156.21721,20.74288],[-156.21862,20.74431],[-156.22066,20.74387]]]},"properties":{"cell":"895d1479b83ffff","res":9,"coarsened":false,"count":33,"hv":33,"mp":0,"y0":2014,"y1":2026,"sp":[[0,32,32,0,2014,2026],[7,1,1,0,2025,2025]]}},{"type":"Feature","geometry":{"type":"Polygon","coordinates":[[[-156.23828,20.73662],[-156.23891,20.73476],[-156.2375,20.73333],[-156.23546,20.73377],[-156.23482,20.73564],[-156.23623,20.73706],[-156.23828,20.73662]]]},"properties":{"cell":"895d1479a23ffff","res":9,"coarsened":false,"count":4,"hv":4,"mp":0,"y0":2006,"y1":2026,"sp":[[2,4,4,0,2006,2026]]}},{"type":"Feature","geometry":{"type":"Polygon","coordinates":[[[-156.2299,20.75569],[-156.23054,20.75383],[-156.22912,20.75241],[-156.22708,20.75285],[-156.22645,20.75471],[-156.22786,20.75613],[-156.2299,20.75569]]]},"properties":{"cell":"895d147980bffff","res":9,"coarsened":false,"count":61,"hv":61,"mp":0,"y0":2006,"y1":2026,"sp":[[0,42,42,0,2006,2026],[6,4,4,0,2016,2024],[8,4,4,0,2019,2025],[3,3,3,0,2017,2025],[11,3,3,0,2023,2025],[12,2,2,0,2016,2017],[1,1,1,0,2017,2017],[2,1,1,0,2023,2023],[42,1,1,0,2025,2025]]}},{"type":"Feature","geometry":{"type":"Polygon","coordinates":[[[-156.04712,20.66366],[-156.04776,20.66179],[-156.04635,20.66037],[-156.0443,20.66081],[-156.04367,20.66267],[-156.04508,20.66409],[-156.04712,20.66366]]]},"properties":{"cell":"895d146f503ffff","res":9,"coarsened":false,"count":87,"hv":87,"mp":0,"y0":2014,"y1":2026,"sp":[[16,19,19,0,2014,2026],[15,14,14,0,2014,2025],[9,11,11,0,2015,2026],[29,11,11,0,2023,2026],[10,7,7,0,2014,2026],[13,7,7,0,2023,2026],[31,5,5,0,2023,2025],[19,2,2,0,2018,2022],[22,2,2,0,2019,2025],[21,2,2,0,2024,2024],[37,2,2,0,2025,2026],[12,1,1,0,2019,2019],[4,1,1,0,2022,2022],[8,1,1,0,2023,2023],[28,1,1,0,2025,2025],[36,1,1,0,2026,2026]]}},{"type":"Feature","geometry":{"type":"Polygon","coordinates":[[[-156.18604,20.70641],[-156.18668,20.70454],[-156.18527,20.70312],[-156.18322,20.70356],[-156.18259,20.70542],[-156.184,20.70685],[-156.18604,20.70641]]]},"properties":{"cell":"895d146a2abffff","res":9,"coarsened":false,"count":11,"hv":11,"mp":0,"y0":2004,"y1":2022,"sp":[[0,9,9,0,2004,2022],[2,2,2,0,2022,2022]]}},{"type":"Feature","geometry":{"type":"Polygon","coordinates":[[[-156.22645,20.75471],[-156.22708,20.75285],[-156.22567,20.75142],[-156.22363,20.75186],[-156.22299,20.75373],[-156.2244,20.75515],[-156.22645,20.75471]]]},"properties":{"cell":"895d147980fffff","res":9,"coarsened":false,"count":8,"hv":8,"mp":0,"y0":2016,"y1":2025,"sp":[[3,2,2,0,2021,2022],[11,2,2,0,2023,2025],[14,1,1,0,2016,2016],[1,1,1,0,2019,2019],[6,1,1,0,2021,2021],[0,1,1,0,2017,2017]]}},{"type":"Feature","geometry":{"type":"Polygon","coordinates":[[[-156.2375,20.73333],[-156.23813,20.73147],[-156.23672,20.73005],[-156.23468,20.73049],[-156.23405,20.73235],[-156.23546,20.73377],[-156.2375,20.73333]]]},"properties":{"cell":"895d1479a2fffff","res":9,"coarsened":false,"count":2,"hv":2,"mp":0,"y0":2016,"y1":2017,"sp":[[13,1,1,0,2016,2016],[2,1,1,0,2017,2017]]}},{"type":"Feature","geometry":{"type":"Polygon","coordinates":[[[-156.2356,20.73892],[-156.23623,20.73706],[-156.23482,20.73564],[-156.23278,20.73608],[-156.23215,20.73794],[-156.23356,20.73936],[-156.2356,20.73892]]]},"properties":{"cell":"895d1479a37ffff","res":9,"coarsened":false,"count":33,"hv":33,"mp":0,"y0":2005,"y1":2026,"sp":[[2,28,28,0,2015,2026],[0,3,3,0,2005,2025],[6,1,1,0,2016,2016],[3,1,1,0,2016,2016]]}},{"type":"Feature","geometry":{"type":"Polygon","coordinates":[[[-156.21755,20.73072],[-156.21819,20.72886],[-156.21678,20.72743],[-156.21473,20.72787],[-156.2141,20.72974],[-156.21551,20.73116],[-156.21755,20.73072]]]},"properties":{"cell":"895d1479b3bffff","res":9,"coarsened":false,"count":1,"hv":1,"mp":0,"y0":2016,"y1":2016,"sp":[[0,1,1,0,2016,2016]]}},{"type":"Feature","geometry":{"type":"Polygon","coordinates":[[[-156.24596,20.74187],[-156.24659,20.74001],[-156.24518,20.73859],[-156.24314,20.73903],[-156.24251,20.74089],[-156.24392,20.74231],[-156.24596,20.74187]]]},"properties":{"cell":"895d1479a03ffff","res":9,"coarsened":false,"count":3,"hv":3,"mp":0,"y0":2012,"y1":2026,"sp":[[2,2,2,0,2026,2026],[0,1,1,0,2012,2012]]}},{"type":"Feature","geometry":{"type":"Polygon","coordinates":[[[-156.24821,20.72412],[-156.24884,20.72226],[-156.24743,20.72083],[-156.24538,20.72127],[-156.24475,20.72314],[-156.24616,20.72456],[-156.24821,20.72412]]]},"properties":{"cell":"895d146b4c3ffff","res":9,"coarsened":false,"count":10,"hv":10,"mp":0,"y0":2003,"y1":2025,"sp":[[2,3,3,0,2007,2025],[3,2,2,0,2023,2023],[5,2,2,0,2023,2023],[23,1,1,0,2022,2022],[22,1,1,0,2023,2023],[6,1,1,0,2003,2003]]}},{"type":"Feature","geometry":{"type":"Polygon","coordinates":[[[-156.14848,20.71102],[-156.14911,20.70916],[-156.1477,20.70774],[-156.14566,20.70817],[-156.14503,20.71004],[-156.14643,20.71146],[-156.14848,20.71102]]]},"properties":{"cell":"895d146a10fffff","res":9,"coarsened":false,"count":1,"hv":1,"mp":0,"y0":2017,"y1":2017,"sp":[[2,1,1,0,2017,2017]]}},{"type":"Feature","geometry":{"type":"Polygon","coordinates":[[[-156.24216,20.75305],[-156.2428,20.75119],[-156.24139,20.74977],[-156.23934,20.75021],[-156.23871,20.75207],[-156.24012,20.75349],[-156.24216,20.75305]]]},"properties":{"cell":"895d1479a97ffff","res":9,"coarsened":false,"count":2,"hv":2,"mp":0,"y0":2017,"y1":2025,"sp":[[11,1,1,0,2017,2017],[6,1,1,0,2025,2025]]}},{"type":"Feature","geometry":{"type":"Polygon","coordinates":[[[-156.23715,20.7455],[-156.23779,20.74363],[-156.23638,20.74221],[-156.23433,20.74265],[-156.2337,20.74451],[-156.23511,20.74594],[-156.23715,20.7455]]]},"properties":{"cell":"895d1479aa3ffff","res":9,"coarsened":false,"count":6,"hv":6,"mp":0,"y0":2017,"y1":2026,"sp":[[0,3,3,0,2017,2026],[2,1,1,0,2018,2018],[1,1,1,0,2018,2018],[30,1,1,0,2021,2021]]}},{"type":"Feature","geometry":{"type":"Polygon","coordinates":[[[-156.1926,20.72054],[-156.19324,20.71868],[-156.19183,20.71725],[-156.18978,20.71769],[-156.18915,20.71956],[-156.19056,20.72098],[-156.1926,20.72054]]]},"properties":{"cell":"895d146a62bffff","res":9,"coarsened":false,"count":1,"hv":1,"mp":0,"y0":2018,"y1":2018,"sp":[[2,1,1,0,2018,2018]]}},{"type":"Feature","geometry":{"type":"Polygon","coordinates":[[[-156.23914,20.76752],[-156.23977,20.76566],[-156.23836,20.76423],[-156.23632,20.76467],[-156.23569,20.76654],[-156.2371,20.76796],[-156.23914,20.76752]]]},"properties":{"cell":"895d1479ea7ffff","res":9,"coarsened":false,"count":94,"hv":94,"mp":0,"y0":2015,"y1":2026,"sp":[[3,37,37,0,2015,2026],[6,24,24,0,2017,2026],[20,7,7,0,2021,2025],[8,6,6,0,2019,2026],[0,4,4,0,2018,2026],[1,3,3,0,2022,2025],[33,3,3,0,2022,2025],[21,2,2,0,2025,2026],[13,1,1,0,2018,2018],[11,1,1,0,2019,2019],[16,1,1,0,2023,2023],[26,1,1,0,2023,2023],[22,1,1,0,2023,2023],[5,1,1,0,2026,2026],[2,1,1,0,2024,2024],[42,1,1,0,2017,2017]]}},{"type":"Feature","geometry":{"type":"Polygon","coordinates":[[[-156.05135,20.66794],[-156.05198,20.66607],[-156.05057,20.66465],[-156.04853,20.66508],[-156.0479,20.66695],[-156.04931,20.66837],[-156.05135,20.66794]]]},"properties":{"cell":"895d146f5c7ffff","res":9,"coarsened":false,"count":21,"hv":21,"mp":0,"y0":2014,"y1":2026,"sp":[[18,9,9,0,2018,2026],[21,3,3,0,2019,2025],[8,2,2,0,2014,2024],[22,2,2,0,2024,2024],[9,2,2,0,2025,2026],[4,1,1,0,2018,2018],[13,1,1,0,2019,2019],[10,1,1,0,2021,2021]]}},{"type":"Feature","geometry":{"type":"Polygon","coordinates":[[[-156.2426,20.7685],[-156.24323,20.76664],[-156.24182,20.76522],[-156.23977,20.76566],[-156.23914,20.76752],[-156.24055,20.76894],[-156.2426,20.7685]]]},"properties":{"cell":"895d1479ea3ffff","res":9,"coarsened":false,"count":23,"hv":23,"mp":0,"y0":2015,"y1":2026,"sp":[[0,8,8,0,2015,2026],[1,4,4,0,2015,2025],[6,4,4,0,2021,2025],[11,2,2,0,2025,2026],[12,1,1,0,2015,2015],[8,1,1,0,2024,2024],[3,1,1,0,2026,2026],[5,1,1,0,2026,2026],[42,1,1,0,2025,2025]]}},{"type":"Feature","geometry":{"type":"Polygon","coordinates":[[[-156.21341,20.75406],[-156.21404,20.7522],[-156.21263,20.75078],[-156.21059,20.75122],[-156.20995,20.75308],[-156.21136,20.7545],[-156.21341,20.75406]]]},"properties":{"cell":"895d14799cbffff","res":9,"coarsened":false,"count":12,"hv":12,"mp":0,"y0":1995,"y1":2026,"sp":[[0,4,4,0,2019,2023],[1,2,2,0,2018,2026],[6,2,2,0,2023,2024],[20,1,1,0,2023,2023],[12,1,1,0,2023,2023],[8,1,1,0,2024,2024],[2,1,1,0,1995,1995]]}},{"type":"Feature","geometry":{"type":"Polygon","coordinates":[[[-156.21609,20.75176],[-156.21672,20.7499],[-156.21531,20.74847],[-156.21326,20.74891],[-156.21263,20.75078],[-156.21404,20.7522],[-156.21609,20.75176]]]},"properties":{"cell":"895d1479827ffff","res":9,"coarsened":false,"count":4,"hv":4,"mp":0,"y0":1964,"y1":2023,"sp":[[1,2,2,0,2018,2023],[43,1,1,0,2023,2023],[2,1,1,0,1964,1964]]}},{"type":"Feature","geometry":{"type":"Polygon","coordinates":[[[-156.21557,20.70869],[-156.2162,20.70683],[-156.21479,20.70541],[-156.21275,20.70584],[-156.21212,20.70771],[-156.21353,20.70913],[-156.21557,20.70869]]]},"properties":{"cell":"895d146b50fffff","res":9,"coarsened":false,"count":18,"hv":18,"mp":0,"y0":2018,"y1":2026,"sp":[[2,18,18,0,2018,2026]]}},{"type":"Feature","geometry":{"type":"Polygon","coordinates":[[[-156.16342,20.70609],[-156.16405,20.70422],[-156.16264,20.7028],[-156.1606,20.70324],[-156.15997,20.7051],[-156.16138,20.70653],[-156.16342,20.70609]]]},"properties":{"cell":"895d146a387ffff","res":9,"coarsened":false,"count":1,"hv":1,"mp":0,"y0":2018,"y1":2018,"sp":[[2,1,1,0,2018,2018]]}},{"type":"Feature","geometry":{"type":"Polygon","coordinates":[[[-156.16687,20.70707],[-156.16751,20.70521],[-156.1661,20.70378],[-156.16405,20.70422],[-156.16342,20.70609],[-156.16483,20.70751],[-156.16687,20.70707]]]},"properties":{"cell":"895d146a383ffff","res":9,"coarsened":false,"count":1,"hv":1,"mp":0,"y0":2018,"y1":2018,"sp":[[6,1,1,0,2018,2018]]}},{"type":"Feature","geometry":{"type":"Polygon","coordinates":[[[-156.16264,20.7028],[-156.16328,20.70094],[-156.16187,20.69951],[-156.15982,20.69995],[-156.15919,20.70181],[-156.1606,20.70324],[-156.16264,20.7028]]]},"properties":{"cell":"895d146a3bbffff","res":9,"coarsened":false,"count":1,"hv":1,"mp":0,"y0":2018,"y1":2018,"sp":[[2,1,1,0,2018,2018]]}},{"type":"Feature","geometry":{"type":"Polygon","coordinates":[[[-156.24933,20.71524],[-156.24996,20.71338],[-156.24855,20.71196],[-156.24651,20.7124],[-156.24587,20.71426],[-156.24728,20.71568],[-156.24933,20.71524]]]},"properties":{"cell":"895d146b443ffff","res":9,"coarsened":false,"count":13,"hv":13,"mp":0,"y0":1982,"y1":2026,"sp":[[2,12,12,0,2014,2026],[0,1,1,0,1982,1982]]}},{"type":"Feature","geometry":{"type":"Polygon","coordinates":[[[-156.24018,20.73103],[-156.24081,20.72917],[-156.2394,20.72774],[-156.23736,20.72818],[-156.23672,20.73005],[-156.23813,20.73147],[-156.24018,20.73103]]]},"properties":{"cell":"895d146b493ffff","res":9,"coarsened":false,"count":1,"hv":1,"mp":0,"y0":2018,"y1":2018,"sp":[[2,1,1,0,2018,2018]]}},{"type":"Feature","geometry":{"type":"Polygon","coordinates":[[[-156.24665,20.71755],[-156.24728,20.71568],[-156.24587,20.71426],[-156.24383,20.7147],[-156.2432,20.71656],[-156.24461,20.71799],[-156.24665,20.71755]]]},"properties":{"cell":"895d146b457ffff","res":9,"coarsened":false,"count":1,"hv":1,"mp":0,"y0":2004,"y1":2004,"sp":[[2,1,1,0,2004,2004]]}},{"type":"Feature","geometry":{"type":"Polygon","coordinates":[[[-156.23646,20.76982],[-156.2371,20.76796],[-156.23569,20.76654],[-156.23364,20.76698],[-156.23301,20.76884],[-156.23442,20.77026],[-156.23646,20.76982]]]},"properties":{"cell":"895d1479c6bffff","res":9,"coarsened":false,"count":120,"hv":120,"mp":0,"y0":2005,"y1":2026,"sp":[[6,41,41,0,2016,2026],[3,41,41,0,2005,2026],[42,8,8,0,2017,2025],[33,7,7,0,2017,2025],[8,5,5,0,2005,2025],[13,4,4,0,2005,2024],[20,3,3,0,2005,2026],[1,2,2,0,2019,2023],[22,2,2,0,2024,2025],[5,2,2,0,2025,2026],[21,2,2,0,2026,2026],[0,1,1,0,2025,2025],[29,1,1,0,2005,2005],[2,1,1,0,2005,2005]]}},{"type":"Feature","geometry":{"type":"Polygon","coordinates":[[[-156.24527,20.7662],[-156.24591,20.76434],[-156.2445,20.76291],[-156.24245,20.76335],[-156.24182,20.76522],[-156.24323,20.76664],[-156.24527,20.7662]]]},"properties":{"cell":"895d1479eabffff","res":9,"coarsened":false,"count":5,"hv":5,"mp":0,"y0":2019,"y1":2025,"sp":[[1,2,2,0,2019,2025],[0,2,2,0,2022,2022],[2,1,1,0,2019,2019]]}},{"type":"Feature","geometry":{"type":"Polygon","coordinates":[[[-156.14883,20.69886],[-156.14946,20.69699],[-156.14805,20.69557],[-156.14601,20.69601],[-156.14537,20.69787],[-156.14678,20.6993],[-156.14883,20.69886]]]},"properties":{"cell":"895d146aed7ffff","res":9,"coarsened":false,"count":1,"hv":1,"mp":0,"y0":2016,"y1":2016,"sp":[[0,1,1,0,2016,2016]]}},{"type":"Feature","geometry":{"type":"Polygon","coordinates":[[[-156.252,20.71294],[-156.25264,20.71108],[-156.25123,20.70965],[-156.24918,20.71009],[-156.24855,20.71196],[-156.24996,20.71338],[-156.252,20.71294]]]},"properties":{"cell":"895d146b44bffff","res":9,"coarsened":false,"count":11,"hv":11,"mp":0,"y0":2011,"y1":2026,"sp":[[2,11,11,0,2011,2026]]}},{"type":"Feature","geometry":{"type":"Polygon","coordinates":[[[-156.23759,20.76095],[-156.23822,20.75908],[-156.23681,20.75766],[-156.23477,20.7581],[-156.23413,20.75996],[-156.23554,20.76139],[-156.23759,20.76095]]]},"properties":{"cell":"895d14798cbffff","res":9,"coarsened":false,"count":3,"hv":3,"mp":0,"y0":2017,"y1":2024,"sp":[[2,2,2,0,2017,2024],[6,1,1,0,2024,2024]]}},{"type":"Feature","geometry":{"type":"Polygon","coordinates":[[[-156.05713,20.67879],[-156.05776,20.67693],[-156.05635,20.6755],[-156.05431,20.67594],[-156.05367,20.6778],[-156.05508,20.67923],[-156.05713,20.67879]]]},"properties":{"cell":"895d1461b7bffff","res":9,"coarsened":false,"count":6,"hv":6,"mp":0,"y0":2019,"y1":2025,"sp":[[9,5,5,0,2019,2025],[29,1,1,0,2022,2022]]}},{"type":"Feature","geometry":{"type":"Polygon","coordinates":[[[-156.24605,20.76949],[-156.24668,20.76762],[-156.24527,20.7662],[-156.24323,20.76664],[-156.2426,20.7685],[-156.24401,20.76993],[-156.24605,20.76949]]]},"properties":{"cell":"895d1479ebbffff","res":9,"coarsened":false,"count":28,"hv":28,"mp":0,"y0":2013,"y1":2026,"sp":[[0,19,19,0,2013,2026],[1,4,4,0,2022,2026],[5,1,1,0,2022,2022],[22,1,1,0,2024,2024],[6,1,1,0,2025,2025],[3,1,1,0,2025,2025],[33,1,1,0,2024,2024]]}},{"type":"Feature","geometry":{"type":"Polygon","coordinates":[[[-156.15418,20.69425],[-156.15482,20.69239],[-156.15341,20.69096],[-156.15136,20.6914],[-156.15073,20.69327],[-156.15214,20.69469],[-156.15418,20.69425]]]},"properties":{"cell":"895d146aecbffff","res":9,"coarsened":false,"count":1,"hv":1,"mp":0,"y0":2018,"y1":2018,"sp":[[2,1,1,0,2018,2018]]}},{"type":"Feature","geometry":{"type":"Polygon","coordinates":[[[-156.23681,20.75766],[-156.23744,20.7558],[-156.23603,20.75437],[-156.23399,20.75481],[-156.23336,20.75668],[-156.23477,20.7581],[-156.23681,20.75766]]]},"properties":{"cell":"895d1479853ffff","res":9,"coarsened":false,"count":2,"hv":2,"mp":0,"y0":2019,"y1":2023,"sp":[[2,1,1,0,2019,2019],[0,1,1,0,2023,2023]]}},{"type":"Feature","geometry":{"type":"Polygon","coordinates":[[[-156.14615,20.70116],[-156.14678,20.6993],[-156.14537,20.69787],[-156.14333,20.69831],[-156.1427,20.70017],[-156.14411,20.7016],[-156.14615,20.70116]]]},"properties":{"cell":"895d146ae9bffff","res":9,"coarsened":false,"count":1,"hv":1,"mp":0,"y0":2019,"y1":2019,"sp":[[2,1,1,0,2019,2019]]}},{"type":"Feature","geometry":{"type":"Polygon","coordinates":[[[-156.23102,20.74682],[-156.23166,20.74495],[-156.23025,20.74353],[-156.2282,20.74397],[-156.22757,20.74583],[-156.22898,20.74726],[-156.23102,20.74682]]]},"properties":{"cell":"895d147986bffff","res":9,"coarsened":false,"count":18,"hv":18,"mp":0,"y0":1986,"y1":2026,"sp":[[2,9,9,0,2019,2026],[0,4,4,0,1986,2026],[47,2,2,0,2016,2016],[14,1,1,0,2021,2021],[8,1,1,0,2022,2022],[6,1,1,0,2026,2026]]}},{"type":"Feature","geometry":{"type":"Polygon","coordinates":[[[-156.23897,20.71229],[-156.2396,20.71043],[-156.23819,20.70901],[-156.23615,20.70945],[-156.23551,20.71131],[-156.23692,20.71273],[-156.23897,20.71229]]]},"properties":{"cell":"895d146b477ffff","res":9,"coarsened":false,"count":3,"hv":3,"mp":0,"y0":2019,"y1":2025,"sp":[[2,3,3,0,2019,2025]]}},{"type":"Feature","geometry":{"type":"Polygon","coordinates":[[[-156.24052,20.71887],[-156.24115,20.717],[-156.23974,20.71558],[-156.2377,20.71602],[-156.23707,20.71788],[-156.23848,20.71931],[-156.24052,20.71887]]]},"properties":{"cell":"895d146b403ffff","res":9,"coarsened":false,"count":4,"hv":4,"mp":0,"y0":2019,"y1":2019,"sp":[[5,1,1,0,2019,2019],[3,1,1,0,2019,2019],[6,1,1,0,2019,2019],[2,1,1,0,2019,2019]]}},{"type":"Feature","geometry":{"type":"Polygon","coordinates":[[[-156.13847,20.6959],[-156.1391,20.69404],[-156.13769,20.69261],[-156.13565,20.69305],[-156.13501,20.69491],[-156.13642,20.69634],[-156.13847,20.6959]]]},"properties":{"cell":"895d146aebbffff","res":9,"coarsened":false,"count":1,"hv":1,"mp":0,"y0":2019,"y1":2019,"sp":[[2,1,1,0,2019,2019]]}},{"type":"Feature","geometry":{"type":"Polygon","coordinates":[[[-156.22377,20.75701],[-156.2244,20.75515],[-156.22299,20.75373],[-156.22095,20.75417],[-156.22032,20.75603],[-156.22173,20.75745],[-156.22377,20.75701]]]},"properties":{"cell":"895d1479807ffff","res":9,"coarsened":false,"count":9,"hv":9,"mp":0,"y0":2012,"y1":2025,"sp":[[11,2,2,0,2015,2023],[1,2,2,0,2023,2025],[6,2,2,0,2023,2025],[20,1,1,0,2025,2025],[0,1,1,0,2025,2025],[33,1,1,0,2012,2012]]}},{"type":"Feature","geometry":{"type":"Polygon","coordinates":[[[-156.24337,20.77179],[-156.24401,20.76993],[-156.2426,20.7685],[-156.24055,20.76894],[-156.23992,20.77081],[-156.24133,20.77223],[-156.24337,20.77179]]]},"properties":{"cell":"895d1479eb3ffff","res":9,"coarsened":false,"count":23,"hv":23,"mp":0,"y0":2014,"y1":2026,"sp":[[0,7,7,0,2014,2026],[3,3,3,0,2023,2023],[6,3,3,0,2024,2026],[8,2,2,0,2022,2022],[22,2,2,0,2022,2022],[12,1,1,0,2017,2017],[21,1,1,0,2022,2022],[11,1,1,0,2023,2023],[19,1,1,0,2023,2023],[1,1,1,0,2024,2024],[42,1,1,0,2022,2022]]}},{"type":"Feature","geometry":{"type":"Polygon","coordinates":[[[-156.17922,20.73206],[-156.17985,20.73019],[-156.17844,20.72877],[-156.17639,20.72921],[-156.17576,20.73107],[-156.17717,20.7325],[-156.17922,20.73206]]]},"properties":{"cell":"895d146a46fffff","res":9,"coarsened":false,"count":1,"hv":1,"mp":0,"y0":2019,"y1":2019,"sp":[[2,1,1,0,2019,2019]]}},{"type":"Feature","geometry":{"type":"Polygon","coordinates":[[[-156.15116,20.70872],[-156.15179,20.70686],[-156.15038,20.70543],[-156.14834,20.70587],[-156.1477,20.70774],[-156.14911,20.70916],[-156.15116,20.70872]]]},"properties":{"cell":"895d146a173ffff","res":9,"coarsened":false,"count":3,"hv":3,"mp":0,"y0":1996,"y1":2019,"sp":[[2,1,1,0,2019,2019],[3,1,1,0,2011,2011],[45,1,1,0,1996,1996]]}},{"type":"Feature","geometry":{"type":"Polygon","coordinates":[[[-156.2451,20.71097],[-156.24573,20.70911],[-156.24432,20.70769],[-156.24228,20.70813],[-156.24164,20.70999],[-156.24305,20.71141],[-156.2451,20.71097]]]},"properties":{"cell":"895d146b47bffff","res":9,"coarsened":false,"count":4,"hv":4,"mp":0,"y0":2019,"y1":2023,"sp":[[2,3,3,0,2019,2023],[0,1,1,0,2022,2022]]}},{"type":"Feature","geometry":{"type":"Polygon","coordinates":[[[-156.21721,20.74288],[-156.21784,20.74102],[-156.21643,20.7396],[-156.21439,20.74004],[-156.21375,20.7419],[-156.21517,20.74332],[-156.21721,20.74288]]]},"properties":{"cell":"895d1479b87ffff","res":9,"coarsened":false,"count":4,"hv":4,"mp":0,"y0":1986,"y1":2025,"sp":[[0,3,3,0,1986,2024],[2,1,1,0,2025,2025]]}},{"type":"Feature","geometry":{"type":"Polygon","coordinates":[[[-156.0479,20.66695],[-156.04853,20.66508],[-156.04712,20.66366],[-156.04508,20.66409],[-156.04444,20.66596],[-156.04585,20.66738],[-156.0479,20.66695]]]},"properties":{"cell":"895d146f513ffff","res":9,"coarsened":false,"count":11,"hv":11,"mp":0,"y0":2018,"y1":2025,"sp":[[22,3,3,0,2018,2025],[13,3,3,0,2023,2025],[21,2,2,0,2022,2025],[18,1,1,0,2019,2019],[8,1,1,0,2019,2019],[19,1,1,0,2024,2024]]}},{"type":"Feature","geometry":{"type":"Polygon","coordinates":[[[-156.23526,20.75109],[-156.23589,20.74922],[-156.23448,20.7478],[-156.23243,20.74824],[-156.2318,20.7501],[-156.23321,20.75153],[-156.23526,20.75109]]]},"properties":{"cell":"895d147984fffff","res":9,"coarsened":false,"count":2,"hv":2,"mp":0,"y0":2018,"y1":2025,"sp":[[2,1,1,0,2018,2018],[0,1,1,0,2025,2025]]}},{"type":"Feature","geometry":{"type":"Polygon","coordinates":[[[-156.23413,20.75996],[-156.23477,20.7581],[-156.23336,20.75668],[-156.23131,20.75712],[-156.23068,20.75898],[-156.23209,20.7604],[-156.23413,20.75996]]]},"properties":{"cell":"895d14798cfffff","res":9,"coarsened":false,"count":3,"hv":3,"mp":0,"y0":2014,"y1":2025,"sp":[[0,1,1,0,2014,2014],[11,1,1,0,2024,2024],[33,1,1,0,2025,2025]]}},{"type":"Feature","geometry":{"type":"Polygon","coordinates":[[[-156.19183,20.71725],[-156.19246,20.71539],[-156.19105,20.71397],[-156.18901,20.71441],[-156.18837,20.71627],[-156.18978,20.71769],[-156.19183,20.71725]]]},"properties":{"cell":"895d146a293ffff","res":9,"coarsened":false,"count":1,"hv":1,"mp":0,"y0":2014,"y1":2014,"sp":[[3,1,1,0,2014,2014]]}},{"type":"Feature","geometry":{"type":"Polygon","coordinates":[[[-156.21686,20.75505],[-156.2175,20.75318],[-156.21609,20.75176],[-156.21404,20.7522],[-156.21341,20.75406],[-156.21482,20.75549],[-156.21686,20.75505]]]},"properties":{"cell":"895d1479837ffff","res":9,"coarsened":false,"count":4,"hv":4,"mp":0,"y0":2015,"y1":2025,"sp":[[2,1,1,0,2015,2015],[34,1,1,0,2023,2023],[6,1,1,0,2023,2023],[1,1,1,0,2025,2025]]}},{"type":"Feature","geometry":{"type":"Polygon","coordinates":[[[-156.05635,20.6755],[-156.05699,20.67364],[-156.05558,20.67221],[-156.05353,20.67265],[-156.0529,20.67451],[-156.05431,20.67594],[-156.05635,20.6755]]]},"properties":{"cell":"895d1461b6bffff","res":9,"coarsened":false,"count":4,"hv":4,"mp":0,"y0":2015,"y1":2024,"sp":[[9,2,2,0,2015,2019],[25,1,1,0,2023,2023],[8,1,1,0,2024,2024]]}},{"type":"Feature","geometry":{"type":"Polygon","coordinates":[[[-156.16074,20.70839],[-156.16138,20.70653],[-156.15997,20.7051],[-156.15792,20.70554],[-156.15729,20.7074],[-156.1587,20.70883],[-156.16074,20.70839]]]},"properties":{"cell":"895d146a14bffff","res":9,"coarsened":false,"count":6,"hv":6,"mp":0,"y0":2004,"y1":2026,"sp":[[3,4,4,0,2020,2026],[0,1,1,0,2004,2004],[2,1,1,0,2025,2025]]}},{"type":"Feature","geometry":{"type":"Polygon","coordinates":[[[-156.22861,20.70934],[-156.22924,20.70748],[-156.22783,20.70605],[-156.22579,20.70649],[-156.22515,20.70836],[-156.22656,20.70978],[-156.22861,20.70934]]]},"properties":{"cell":"895d146b55bffff","res":9,"coarsened":false,"count":1,"hv":1,"mp":0,"y0":2010,"y1":2010,"sp":[[2,1,1,0,2010,2010]]}},{"type":"Feature","geometry":{"type":"Polygon","coordinates":[[[-156.16843,20.71365],[-156.16906,20.71178],[-156.16765,20.71036],[-156.16561,20.7108],[-156.16497,20.71266],[-156.16638,20.71409],[-156.16843,20.71365]]]},"properties":{"cell":"895d146a02bffff","res":9,"coarsened":false,"count":2,"hv":2,"mp":0,"y0":2006,"y1":2022,"sp":[[0,1,1,0,2006,2006],[28,1,1,0,2022,2022]]}},{"type":"Feature","geometry":{"type":"Polygon","coordinates":[[[-156.24182,20.76522],[-156.24245,20.76335],[-156.24104,20.76193],[-156.239,20.76237],[-156.23836,20.76423],[-156.23977,20.76566],[-156.24182,20.76522]]]},"properties":{"cell":"895d1479eafffff","res":9,"coarsened":false,"count":3,"hv":3,"mp":0,"y0":2019,"y1":2024,"sp":[[6,1,1,0,2019,2019],[0,1,1,0,2021,2021],[1,1,1,0,2024,2024]]}},{"type":"Feature","geometry":{"type":"Polygon","coordinates":[[[-156.22248,20.71066],[-156.22311,20.7088],[-156.2217,20.70737],[-156.21966,20.70781],[-156.21902,20.70968],[-156.22043,20.7111],[-156.22248,20.71066]]]},"properties":{"cell":"895d146b557ffff","res":9,"coarsened":false,"count":2,"hv":2,"mp":0,"y0":2014,"y1":2022,"sp":[[2,2,2,0,2014,2022]]}},{"type":"Feature","geometry":{"type":"Polygon","coordinates":[[[-156.08582,20.65018],[-156.08645,20.64832],[-156.08504,20.64689],[-156.083,20.64733],[-156.08236,20.64919],[-156.08377,20.65062],[-156.08582,20.65018]]]},"properties":{"cell":"895d146f63bffff","res":9,"coarsened":false,"count":2,"hv":2,"mp":0,"y0":2021,"y1":2021,"sp":[[23,2,2,0,2021,2021]]}},{"type":"Feature","geometry":{"type":"Polygon","coordinates":[[[-156.20219,20.72021],[-156.20282,20.71834],[-156.20141,20.71692],[-156.19937,20.71736],[-156.19873,20.71922],[-156.20014,20.72065],[-156.20219,20.72021]]]},"properties":{"cell":"895d146a67bffff","res":9,"coarsened":false,"count":1,"hv":1,"mp":0,"y0":2003,"y1":2003,"sp":[[0,1,1,0,2003,2003]]}},{"type":"Feature","geometry":{"type":"Polygon","coordinates":[[[-156.24061,20.74648],[-156.24124,20.74462],[-156.23983,20.74319],[-156.23779,20.74363],[-156.23715,20.7455],[-156.23857,20.74692],[-156.24061,20.74648]]]},"properties":{"cell":"895d1479abbffff","res":9,"coarsened":false,"count":2,"hv":2,"mp":0,"y0":2021,"y1":2022,"sp":[[2,1,1,0,2021,2021],[23,1,1,0,2022,2022]]}},{"type":"Feature","geometry":{"type":"Polygon","coordinates":[[[-156.23974,20.71558],[-156.24038,20.71372],[-156.23897,20.71229],[-156.23692,20.71273],[-156.23629,20.7146],[-156.2377,20.71602],[-156.23974,20.71558]]]},"properties":{"cell":"895d146b40fffff","res":9,"coarsened":false,"count":4,"hv":4,"mp":0,"y0":2015,"y1":2023,"sp":[[2,4,4,0,2015,2023]]}},{"type":"Feature","geometry":{"type":"Polygon","coordinates":[[[-156.22515,20.70836],[-156.22579,20.70649],[-156.22438,20.70507],[-156.22233,20.70551],[-156.2217,20.70737],[-156.22311,20.7088],[-156.22515,20.70836]]]},"properties":{"cell":"895d146b543ffff","res":9,"coarsened":false,"count":3,"hv":3,"mp":0,"y0":2009,"y1":2023,"sp":[[2,3,3,0,2009,2023]]}},{"type":"Feature","geometry":{"type":"Polygon","coordinates":[[[-156.23551,20.71131],[-156.23615,20.70945],[-156.23474,20.70802],[-156.23269,20.70846],[-156.23206,20.71033],[-156.23347,20.71175],[-156.23551,20.71131]]]},"properties":{"cell":"895d146b42bffff","res":9,"coarsened":false,"count":4,"hv":4,"mp":0,"y0":2015,"y1":2023,"sp":[[2,4,4,0,2015,2023]]}},{"type":"Feature","geometry":{"type":"Polygon","coordinates":[[[-156.05057,20.66465],[-156.05121,20.66278],[-156.0498,20.66136],[-156.04776,20.66179],[-156.04712,20.66366],[-156.04853,20.66508],[-156.05057,20.66465]]]},"properties":{"cell":"895d146f51bffff","res":9,"coarsened":false,"count":3,"hv":3,"mp":0,"y0":2021,"y1":2024,"sp":[[21,2,2,0,2021,2024],[4,1,1,0,2024,2024]]}},{"type":"Feature","geometry":{"type":"Polygon","coordinates":[[[-156.25123,20.70965],[-156.25186,20.70779],[-156.25045,20.70637],[-156.24841,20.70681],[-156.24777,20.70867],[-156.24918,20.71009],[-156.25123,20.70965]]]},"properties":{"cell":"895d146b6b3ffff","res":9,"coarsened":false,"count":4,"hv":4,"mp":0,"y0":2021,"y1":2024,"sp":[[2,4,4,0,2021,2024]]}},{"type":"Feature","geometry":{"type":"Polygon","coordinates":[[[-156.0548,20.66892],[-156.05544,20.66706],[-156.05403,20.66563],[-156.05198,20.66607],[-156.05135,20.66794],[-156.05276,20.66936],[-156.0548,20.66892]]]},"properties":{"cell":"895d146f5c3ffff","res":9,"coarsened":false,"count":11,"hv":11,"mp":0,"y0":2005,"y1":2025,"sp":[[22,4,4,0,2022,2025],[13,2,2,0,2022,2024],[16,1,1,0,2021,2021],[32,1,1,0,2005,2005],[15,1,1,0,2023,2023],[29,1,1,0,2024,2024],[9,1,1,0,2025,2025]]}},{"type":"Feature","geometry":{"type":"Polygon","coordinates":[[[-156.24095,20.73432],[-156.24159,20.73245],[-156.24018,20.73103],[-156.23813,20.73147],[-156.2375,20.73333],[-156.23891,20.73476],[-156.24095,20.73432]]]},"properties":{"cell":"895d1479a2bffff","res":9,"coarsened":false,"count":4,"hv":4,"mp":0,"y0":2018,"y1":2026,"sp":[[2,3,3,0,2018,2026],[1,1,1,0,2022,2022]]}},{"type":"Feature","geometry":{"type":"Polygon","coordinates":[[[-156.1839,20.62912],[-156.18453,20.62726],[-156.18312,20.62584],[-156.18108,20.62627],[-156.18045,20.62814],[-156.18186,20.62956],[-156.1839,20.62912]]]},"properties":{"cell":"895d146834fffff","res":9,"coarsened":false,"count":3,"hv":3,"mp":0,"y0":2021,"y1":2021,"sp":[[19,1,1,0,2021,2021],[24,1,1,0,2021,2021],[20,1,1,0,2021,2021]]}},{"type":"Feature","geometry":{"type":"Polygon","coordinates":[[[-156.14658,20.71661],[-156.14721,20.71475],[-156.1458,20.71333],[-156.14376,20.71377],[-156.14312,20.71563],[-156.14453,20.71705],[-156.14658,20.71661]]]},"properties":{"cell":"895d146a117ffff","res":9,"coarsened":false,"count":3,"hv":3,"mp":0,"y0":2014,"y1":2022,"sp":[[0,1,1,0,2014,2014],[3,1,1,0,2014,2014],[2,1,1,0,2022,2022]]}},{"type":"Feature","geometry":{"type":"Polygon","coordinates":[[[-156.22032,20.75603],[-156.22095,20.75417],[-156.21954,20.75274],[-156.2175,20.75318],[-156.21686,20.75505],[-156.21827,20.75647],[-156.22032,20.75603]]]},"properties":{"cell":"895d1479833ffff","res":9,"coarsened":false,"count":8,"hv":8,"mp":0,"y0":2021,"y1":2026,"sp":[[0,7,7,0,2021,2024],[1,1,1,0,2026,2026]]}},{"type":"Feature","geometry":{"type":"Polygon","coordinates":[[[-156.17421,20.7245],[-156.17484,20.72263],[-156.17343,20.72121],[-156.17139,20.72165],[-156.17075,20.72351],[-156.17216,20.72494],[-156.17421,20.7245]]]},"properties":{"cell":"895d146a013ffff","res":9,"coarsened":false,"count":1,"hv":1,"mp":0,"y0":2021,"y1":2021,"sp":[[0,1,1,0,2021,2021]]}},{"type":"Feature","geometry":{"type":"Polygon","coordinates":[[[-156.24855,20.71196],[-156.24918,20.71009],[-156.24777,20.70867],[-156.24573,20.70911],[-156.2451,20.71097],[-156.24651,20.7124],[-156.24855,20.71196]]]},"properties":{"cell":"895d146b44fffff","res":9,"coarsened":false,"count":2,"hv":2,"mp":0,"y0":2021,"y1":2023,"sp":[[14,1,1,0,2021,2021],[2,1,1,0,2023,2023]]}},{"type":"Feature","geometry":{"type":"Polygon","coordinates":[[[-156.08659,20.65347],[-156.08723,20.65161],[-156.08582,20.65018],[-156.08377,20.65062],[-156.08314,20.65248],[-156.08455,20.65391],[-156.08659,20.65347]]]},"properties":{"cell":"895d146f607ffff","res":9,"coarsened":false,"count":1,"hv":1,"mp":0,"y0":2022,"y1":2022,"sp":[[25,1,1,0,2022,2022]]}},{"type":"Feature","geometry":{"type":"Polygon","coordinates":[[[-156.24173,20.7376],[-156.24236,20.73574],[-156.24095,20.73432],[-156.23891,20.73476],[-156.23828,20.73662],[-156.23969,20.73804],[-156.24173,20.7376]]]},"properties":{"cell":"895d1479a3bffff","res":9,"coarsened":false,"count":2,"hv":2,"mp":0,"y0":2021,"y1":2021,"sp":[[0,1,1,0,2021,2021],[1,1,1,0,2021,2021]]}},{"type":"Feature","geometry":{"type":"Polygon","coordinates":[[[-156.1496,20.70215],[-156.15024,20.70028],[-156.14883,20.69886],[-156.14678,20.6993],[-156.14615,20.70116],[-156.14756,20.70258],[-156.1496,20.70215]]]},"properties":{"cell":"895d146a16fffff","res":9,"coarsened":false,"count":1,"hv":1,"mp":0,"y0":2022,"y1":2022,"sp":[[3,1,1,0,2022,2022]]}},{"type":"Feature","geometry":{"type":"Polygon","coordinates":[[[-156.16152,20.71168],[-156.16215,20.70981],[-156.16074,20.70839],[-156.1587,20.70883],[-156.15806,20.71069],[-156.15947,20.71212],[-156.16152,20.71168]]]},"properties":{"cell":"895d146a15bffff","res":9,"coarsened":false,"count":1,"hv":1,"mp":0,"y0":2022,"y1":2022,"sp":[[3,1,1,0,2022,2022]]}},{"type":"Feature","geometry":{"type":"Polygon","coordinates":[[[-156.05981,20.67649],[-156.06044,20.67463],[-156.05903,20.6732],[-156.05699,20.67364],[-156.05635,20.6755],[-156.05776,20.67693],[-156.05981,20.67649]]]},"properties":{"cell":"895d146f4b7ffff","res":9,"coarsened":false,"count":4,"hv":4,"mp":0,"y0":2015,"y1":2026,"sp":[[9,2,2,0,2022,2026],[13,1,1,0,2015,2015],[25,1,1,0,2023,2023]]}},{"type":"Feature","geometry":{"type":"Polygon","coordinates":[[[-156.1439,20.71892],[-156.14453,20.71705],[-156.14312,20.71563],[-156.14108,20.71607],[-156.14045,20.71793],[-156.14186,20.71936],[-156.1439,20.71892]]]},"properties":{"cell":"895d146a1bbffff","res":9,"coarsened":false,"count":24,"hv":24,"mp":0,"y0":2005,"y1":2026,"sp":[[0,10,10,0,2005,2024],[3,6,6,0,2005,2026],[6,4,4,0,2012,2024],[26,1,1,0,2022,2022],[33,1,1,0,2005,2005],[2,1,1,0,2005,2005],[8,1,1,0,2023,2023]]}},{"type":"Feature","geometry":{"type":"Polygon","coordinates":[[[-156.147,20.73207],[-156.14764,20.7302],[-156.14623,20.72878],[-156.14418,20.72922],[-156.14355,20.73108],[-156.14496,20.73251],[-156.147,20.73207]]]},"properties":{"cell":"895d146a523ffff","res":9,"coarsened":false,"count":1,"hv":1,"mp":0,"y0":2021,"y1":2021,"sp":[[0,1,1,0,2021,2021]]}},{"type":"Feature","geometry":{"type":"Polygon","coordinates":[[[-156.22524,20.73597],[-156.22587,20.73411],[-156.22446,20.73269],[-156.22242,20.73313],[-156.22179,20.73499],[-156.2232,20.73641],[-156.22524,20.73597]]]},"properties":{"cell":"895d1479b1bffff","res":9,"coarsened":false,"count":2,"hv":2,"mp":0,"y0":2022,"y1":2024,"sp":[[3,1,1,0,2022,2022],[12,1,1,0,2024,2024]]}},{"type":"Feature","geometry":{"type":"Polygon","coordinates":[[[-156.04444,20.66596],[-156.04508,20.66409],[-156.04367,20.66267],[-156.04162,20.66311],[-156.04099,20.66497],[-156.0424,20.6664],[-156.04444,20.66596]]]},"properties":{"cell":"895d146f517ffff","res":9,"coarsened":false,"count":7,"hv":7,"mp":0,"y0":2021,"y1":2025,"sp":[[18,4,4,0,2022,2025],[21,2,2,0,2021,2025],[22,1,1,0,2022,2022]]}},{"type":"Feature","geometry":{"type":"Polygon","coordinates":[[[-156.23603,20.75437],[-156.23667,20.75251],[-156.23526,20.75109],[-156.23321,20.75153],[-156.23258,20.75339],[-156.23399,20.75481],[-156.23603,20.75437]]]},"properties":{"cell":"895d1479843ffff","res":9,"coarsened":false,"count":1,"hv":1,"mp":0,"y0":2022,"y1":2022,"sp":[[0,1,1,0,2022,2022]]}},{"type":"Feature","geometry":{"type":"Polygon","coordinates":[[[-156.05558,20.67221],[-156.05621,20.67035],[-156.0548,20.66892],[-156.05276,20.66936],[-156.05212,20.67122],[-156.05353,20.67265],[-156.05558,20.67221]]]},"properties":{"cell":"895d146f5d3ffff","res":9,"coarsened":false,"count":3,"hv":3,"mp":0,"y0":2022,"y1":2024,"sp":[[9,1,1,0,2022,2022],[20,1,1,0,2024,2024],[25,1,1,0,2022,2022]]}},{"type":"Feature","geometry":{"type":"Polygon","coordinates":[[[-156.21488,20.73302],[-156.21551,20.73116],[-156.2141,20.72974],[-156.21206,20.73018],[-156.21142,20.73204],[-156.21283,20.73346],[-156.21488,20.73302]]]},"properties":{"cell":"895d1479b33ffff","res":9,"coarsened":false,"count":1,"hv":1,"mp":0,"y0":2022,"y1":2022,"sp":[[2,1,1,0,2022,2022]]}},{"type":"Feature","geometry":{"type":"Polygon","coordinates":[[[-156.23146,20.76227],[-156.23209,20.7604],[-156.23068,20.75898],[-156.22864,20.75942],[-156.228,20.76128],[-156.22941,20.76271],[-156.23146,20.76227]]]},"properties":{"cell":"895d14798c7ffff","res":9,"coarsened":false,"count":2,"hv":2,"mp":0,"y0":2022,"y1":2025,"sp":[[3,1,1,0,2022,2022],[6,1,1,0,2025,2025]]}},{"type":"Feature","geometry":{"type":"Polygon","coordinates":[[[-156.20875,20.73434],[-156.20938,20.73248],[-156.20797,20.73105],[-156.20593,20.73149],[-156.20529,20.73336],[-156.2067,20.73478],[-156.20875,20.73434]]]},"properties":{"cell":"895d146a6dbffff","res":9,"coarsened":false,"count":2,"hv":2,"mp":0,"y0":2016,"y1":2023,"sp":[[2,1,1,0,2016,2016],[0,1,1,0,2023,2023]]}},{"type":"Feature","geometry":{"type":"Polygon","coordinates":[[[-156.19295,20.70838],[-156.19358,20.70651],[-156.19217,20.70509],[-156.19013,20.70553],[-156.1895,20.70739],[-156.19091,20.70882],[-156.19295,20.70838]]]},"properties":{"cell":"895d146a213ffff","res":9,"coarsened":false,"count":1,"hv":1,"mp":0,"y0":2022,"y1":2022,"sp":[[0,1,1,0,2022,2022]]}},{"type":"Feature","geometry":{"type":"Polygon","coordinates":[[[-156.2445,20.76291],[-156.24513,20.76105],[-156.24372,20.75963],[-156.24167,20.76007],[-156.24104,20.76193],[-156.24245,20.76335],[-156.2445,20.76291]]]},"properties":{"cell":"895d1479e33ffff","res":9,"coarsened":false,"count":4,"hv":4,"mp":0,"y0":2022,"y1":2025,"sp":[[0,2,2,0,2022,2023],[6,1,1,0,2023,2023],[35,1,1,0,2025,2025]]}},{"type":"Feature","geometry":{"type":"Polygon","coordinates":[[[-156.18717,20.69753],[-156.1878,20.69567],[-156.18639,20.69424],[-156.18435,20.69468],[-156.18371,20.69654],[-156.18512,20.69797],[-156.18717,20.69753]]]},"properties":{"cell":"895d146a22bffff","res":9,"coarsened":false,"count":1,"hv":1,"mp":0,"y0":2022,"y1":2022,"sp":[[2,1,1,0,2022,2022]]}},{"type":"Feature","geometry":{"type":"Polygon","coordinates":[[[-156.23638,20.74221],[-156.23701,20.74035],[-156.2356,20.73892],[-156.23356,20.73936],[-156.23292,20.74123],[-156.23433,20.74265],[-156.23638,20.74221]]]},"properties":{"cell":"895d1479aafffff","res":9,"coarsened":false,"count":1,"hv":1,"mp":0,"y0":2010,"y1":2010,"sp":[[2,1,1,0,2010,2010]]}},{"type":"Feature","geometry":{"type":"Polygon","coordinates":[[[-156.24484,20.75075],[-156.24547,20.74889],[-156.24406,20.74746],[-156.24202,20.7479],[-156.24139,20.74977],[-156.2428,20.75119],[-156.24484,20.75075]]]},"properties":{"cell":"895d1479a83ffff","res":9,"coarsened":false,"count":1,"hv":1,"mp":0,"y0":2023,"y1":2023,"sp":[[0,1,1,0,2023,2023]]}},{"type":"Feature","geometry":{"type":"Polygon","coordinates":[[[-156.25063,20.76159],[-156.25126,20.75973],[-156.24985,20.75831],[-156.24781,20.75875],[-156.24717,20.76061],[-156.24858,20.76203],[-156.25063,20.76159]]]},"properties":{"cell":"895d1479e0fffff","res":9,"coarsened":false,"count":1,"hv":1,"mp":0,"y0":2023,"y1":2023,"sp":[[0,1,1,0,2023,2023]]}},{"type":"Feature","geometry":{"type":"Polygon","coordinates":[[[-156.2337,20.74451],[-156.23433,20.74265],[-156.23292,20.74123],[-156.23088,20.74167],[-156.23025,20.74353],[-156.23166,20.74495],[-156.2337,20.74451]]]},"properties":{"cell":"895d1479aa7ffff","res":9,"coarsened":false,"count":1,"hv":1,"mp":0,"y0":2023,"y1":2023,"sp":[[2,1,1,0,2023,2023]]}},{"type":"Feature","geometry":{"type":"Polygon","coordinates":[[[-156.23569,20.76654],[-156.23632,20.76467],[-156.23491,20.76325],[-156.23287,20.76369],[-156.23223,20.76555],[-156.23364,20.76698],[-156.23569,20.76654]]]},"properties":{"cell":"895d14798d3ffff","res":9,"coarsened":false,"count":1,"hv":1,"mp":0,"y0":2023,"y1":2023,"sp":[[6,1,1,0,2023,2023]]}},{"type":"Feature","geometry":{"type":"Polygon","coordinates":[[[-156.06671,20.67847],[-156.06735,20.6766],[-156.06594,20.67518],[-156.06389,20.67561],[-156.06326,20.67748],[-156.06467,20.6789],[-156.06671,20.67847]]]},"properties":{"cell":"895d146f487ffff","res":9,"coarsened":false,"count":1,"hv":1,"mp":0,"y0":2023,"y1":2023,"sp":[[25,1,1,0,2023,2023]]}},{"type":"Feature","geometry":{"type":"Polygon","coordinates":[[[-156.23983,20.74319],[-156.24046,20.74133],[-156.23905,20.73991],[-156.23701,20.74035],[-156.23638,20.74221],[-156.23779,20.74363],[-156.23983,20.74319]]]},"properties":{"cell":"895d1479aabffff","res":9,"coarsened":false,"count":3,"hv":3,"mp":0,"y0":2023,"y1":2026,"sp":[[2,3,3,0,2023,2026]]}},{"type":"Feature","geometry":{"type":"Polygon","coordinates":[[[-156.25088,20.72182],[-156.25151,20.71995],[-156.2501,20.71853],[-156.24806,20.71897],[-156.24743,20.72083],[-156.24884,20.72226],[-156.25088,20.72182]]]},"properties":{"cell":"895d146b4cbffff","res":9,"coarsened":false,"count":2,"hv":2,"mp":0,"y0":2023,"y1":2026,"sp":[[2,2,2,0,2023,2026]]}},{"type":"Feature","geometry":{"type":"Polygon","coordinates":[[[-156.2122,20.73533],[-156.21283,20.73346],[-156.21142,20.73204],[-156.20938,20.73248],[-156.20875,20.73434],[-156.21016,20.73577],[-156.2122,20.73533]]]},"properties":{"cell":"895d1479bafffff","res":9,"coarsened":false,"count":4,"hv":4,"mp":0,"y0":2021,"y1":2023,"sp":[[2,2,2,0,2021,2023],[3,1,1,0,2023,2023],[0,1,1,0,2023,2023]]}},{"type":"Feature","geometry":{"type":"Polygon","coordinates":[[[-156.16998,20.72022],[-156.17061,20.71836],[-156.1692,20.71694],[-156.16716,20.71738],[-156.16652,20.71924],[-156.16793,20.72066],[-156.16998,20.72022]]]},"properties":{"cell":"895d146a007ffff","res":9,"coarsened":false,"count":1,"hv":1,"mp":0,"y0":2012,"y1":2012,"sp":[[0,1,1,0,2012,2012]]}},{"type":"Feature","geometry":{"type":"Polygon","coordinates":[[[-156.24104,20.76193],[-156.24167,20.76007],[-156.24026,20.75864],[-156.23822,20.75908],[-156.23759,20.76095],[-156.239,20.76237],[-156.24104,20.76193]]]},"properties":{"cell":"895d1479e37ffff","res":9,"coarsened":false,"count":4,"hv":4,"mp":0,"y0":2016,"y1":2025,"sp":[[19,1,1,0,2023,2023],[2,1,1,0,2016,2016],[6,1,1,0,2025,2025],[1,1,1,0,2025,2025]]}},{"type":"Feature","geometry":{"type":"Polygon","coordinates":[[[-156.24553,20.72642],[-156.24616,20.72456],[-156.24475,20.72314],[-156.24271,20.72358],[-156.24208,20.72544],[-156.24349,20.72686],[-156.24553,20.72642]]]},"properties":{"cell":"895d146b4d7ffff","res":9,"coarsened":false,"count":4,"hv":4,"mp":0,"y0":2023,"y1":2025,"sp":[[2,2,2,0,2023,2025],[33,1,1,0,2024,2024],[42,1,1,0,2024,2024]]}},{"type":"Feature","geometry":{"type":"Polygon","coordinates":[[[-156.23206,20.71033],[-156.23269,20.70846],[-156.23128,20.70704],[-156.22924,20.70748],[-156.22861,20.70934],[-156.23002,20.71077],[-156.23206,20.71033]]]},"properties":{"cell":"895d146b42fffff","res":9,"coarsened":false,"count":1,"hv":1,"mp":0,"y0":2014,"y1":2014,"sp":[[2,1,1,0,2014,2014]]}},{"type":"Feature","geometry":{"type":"Polygon","coordinates":[[[-156.05367,20.6778],[-156.05431,20.67594],[-156.0529,20.67451],[-156.05085,20.67495],[-156.05022,20.67682],[-156.05163,20.67824],[-156.05367,20.6778]]]},"properties":{"cell":"895d1461b63ffff","res":9,"coarsened":false,"count":1,"hv":1,"mp":0,"y0":2023,"y1":2023,"sp":[[32,1,1,0,2023,2023]]}},{"type":"Feature","geometry":{"type":"Polygon","coordinates":[[[-156.21643,20.7396],[-156.21707,20.73773],[-156.21565,20.73631],[-156.21361,20.73675],[-156.21298,20.73861],[-156.21439,20.74004],[-156.21643,20.7396]]]},"properties":{"cell":"895d1479bbbffff","res":9,"coarsened":false,"count":1,"hv":1,"mp":0,"y0":2023,"y1":2023,"sp":[[2,1,1,0,2023,2023]]}},{"type":"Feature","geometry":{"type":"Polygon","coordinates":[[[-156.21453,20.74519],[-156.21517,20.74332],[-156.21375,20.7419],[-156.21171,20.74234],[-156.21108,20.7442],[-156.21249,20.74563],[-156.21453,20.74519]]]},"properties":{"cell":"895d147994bffff","res":9,"coarsened":false,"count":3,"hv":3,"mp":0,"y0":2023,"y1":2025,"sp":[[0,2,2,0,2023,2025],[7,1,1,0,2023,2023]]}},{"type":"Feature","geometry":{"type":"Polygon","coordinates":[[[-156.20486,20.71791],[-156.2055,20.71604],[-156.20409,20.71462],[-156.20204,20.71506],[-156.20141,20.71692],[-156.20282,20.71834],[-156.20486,20.71791]]]},"properties":{"cell":"895d146b5b7ffff","res":9,"coarsened":false,"count":1,"hv":1,"mp":0,"y0":2023,"y1":2023,"sp":[[2,1,1,0,2023,2023]]}},{"type":"Feature","geometry":{"type":"Polygon","coordinates":[[[-156.14891,20.72648],[-156.14954,20.72461],[-156.14813,20.72319],[-156.14609,20.72363],[-156.14545,20.72549],[-156.14686,20.72692],[-156.14891,20.72648]]]},"properties":{"cell":"895d146a193ffff","res":9,"coarsened":false,"count":1,"hv":1,"mp":0,"y0":2023,"y1":2023,"sp":[[2,1,1,0,2023,2023]]}},{"type":"Feature","geometry":{"type":"Polygon","coordinates":[[[-156.22438,20.70507],[-156.22501,20.70321],[-156.2236,20.70178],[-156.22156,20.70222],[-156.22092,20.70409],[-156.22233,20.70551],[-156.22438,20.70507]]]},"properties":{"cell":"895d146b54fffff","res":9,"coarsened":false,"count":1,"hv":1,"mp":0,"y0":2023,"y1":2023,"sp":[[2,1,1,0,2023,2023]]}},{"type":"Feature","geometry":{"type":"Polygon","coordinates":[[[-156.2501,20.71853],[-156.25074,20.71667],[-156.24933,20.71524],[-156.24728,20.71568],[-156.24665,20.71755],[-156.24806,20.71897],[-156.2501,20.71853]]]},"properties":{"cell":"895d146b453ffff","res":9,"coarsened":false,"count":2,"hv":2,"mp":0,"y0":2023,"y1":2025,"sp":[[0,1,1,0,2023,2023],[2,1,1,0,2025,2025]]}},{"type":"Feature","geometry":{"type":"Polygon","coordinates":[[[-156.2394,20.72774],[-156.24003,20.72588],[-156.23862,20.72446],[-156.23658,20.7249],[-156.23595,20.72676],[-156.23736,20.72818],[-156.2394,20.72774]]]},"properties":{"cell":"895d146b483ffff","res":9,"coarsened":false,"count":1,"hv":1,"mp":0,"y0":2023,"y1":2023,"sp":[[2,1,1,0,2023,2023]]}},{"type":"Feature","geometry":{"type":"Polygon","coordinates":[[[-156.24587,20.71426],[-156.24651,20.7124],[-156.2451,20.71097],[-156.24305,20.71141],[-156.24242,20.71328],[-156.24383,20.7147],[-156.24587,20.71426]]]},"properties":{"cell":"895d146b447ffff","res":9,"coarsened":false,"count":1,"hv":1,"mp":0,"y0":2023,"y1":2023,"sp":[[2,1,1,0,2023,2023]]}},{"type":"Feature","geometry":{"type":"Polygon","coordinates":[[[-156.16307,20.71825],[-156.1637,20.71639],[-156.16229,20.71497],[-156.16025,20.7154],[-156.15962,20.71727],[-156.16103,20.71869],[-156.16307,20.71825]]]},"properties":{"cell":"895d146a037ffff","res":9,"coarsened":false,"count":1,"hv":1,"mp":0,"y0":2023,"y1":2023,"sp":[[6,1,1,0,2023,2023]]}},{"type":"Feature","geometry":{"type":"Polygon","coordinates":[[[-156.15461,20.70971],[-156.15524,20.70784],[-156.15383,20.70642],[-156.15179,20.70686],[-156.15116,20.70872],[-156.15257,20.71015],[-156.15461,20.70971]]]},"properties":{"cell":"895d146a147ffff","res":9,"coarsened":false,"count":4,"hv":4,"mp":0,"y0":2022,"y1":2025,"sp":[[0,2,2,0,2024,2025],[2,2,2,0,2022,2025]]}},{"type":"Feature","geometry":{"type":"Polygon","coordinates":[[[-156.15193,20.71201],[-156.15257,20.71015],[-156.15116,20.70872],[-156.14911,20.70916],[-156.14848,20.71102],[-156.14989,20.71245],[-156.15193,20.71201]]]},"properties":{"cell":"895d146a10bffff","res":9,"coarsened":false,"count":1,"hv":1,"mp":0,"y0":2021,"y1":2021,"sp":[[3,1,1,0,2021,2021]]}},{"type":"Feature","geometry":{"type":"Polygon","coordinates":[[[-156.16039,20.72056],[-156.16103,20.71869],[-156.15962,20.71727],[-156.15757,20.71771],[-156.15694,20.71957],[-156.15835,20.721],[-156.16039,20.72056]]]},"properties":{"cell":"895d146a1dbffff","res":9,"coarsened":false,"count":1,"hv":1,"mp":0,"y0":2024,"y1":2024,"sp":[[0,1,1,0,2024,2024]]}},{"type":"Feature","geometry":{"type":"Polygon","coordinates":[[[-156.20952,20.73763],[-156.21016,20.73577],[-156.20875,20.73434],[-156.2067,20.73478],[-156.20607,20.73664],[-156.20748,20.73807],[-156.20952,20.73763]]]},"properties":{"cell":"895d1479ba7ffff","res":9,"coarsened":false,"count":1,"hv":1,"mp":0,"y0":2024,"y1":2024,"sp":[[0,1,1,0,2024,2024]]}},{"type":"Feature","geometry":{"type":"Polygon","coordinates":[[[-156.15426,20.72187],[-156.15489,20.72001],[-156.15348,20.71859],[-156.15144,20.71902],[-156.15081,20.72089],[-156.15222,20.72231],[-156.15426,20.72187]]]},"properties":{"cell":"895d146a1d7ffff","res":9,"coarsened":false,"count":1,"hv":1,"mp":0,"y0":2023,"y1":2023,"sp":[[2,1,1,0,2023,2023]]}},{"type":"Feature","geometry":{"type":"Polygon","coordinates":[[[-156.21185,20.74749],[-156.21249,20.74563],[-156.21108,20.7442],[-156.20903,20.74464],[-156.2084,20.74651],[-156.20981,20.74793],[-156.21185,20.74749]]]},"properties":{"cell":"895d1479943ffff","res":9,"coarsened":false,"count":1,"hv":1,"mp":0,"y0":2023,"y1":2023,"sp":[[0,1,1,0,2023,2023]]}},{"type":"Feature","geometry":{"type":"Polygon","coordinates":[[[-156.21531,20.74847],[-156.21594,20.74661],[-156.21453,20.74519],[-156.21249,20.74563],[-156.21185,20.74749],[-156.21326,20.74891],[-156.21531,20.74847]]]},"properties":{"cell":"895d147995bffff","res":9,"coarsened":false,"count":3,"hv":3,"mp":0,"y0":2023,"y1":2025,"sp":[[2,1,1,0,2023,2023],[7,1,1,0,2023,2023],[20,1,1,0,2025,2025]]}},{"type":"Feature","geometry":{"type":"Polygon","coordinates":[[[-156.21419,20.75735],[-156.21482,20.75549],[-156.21341,20.75406],[-156.21136,20.7545],[-156.21073,20.75637],[-156.21214,20.75779],[-156.21419,20.75735]]]},"properties":{"cell":"895d14799dbffff","res":9,"coarsened":false,"count":1,"hv":1,"mp":0,"y0":2023,"y1":2023,"sp":[[6,1,1,0,2023,2023]]}},{"type":"Feature","geometry":{"type":"Polygon","coordinates":[[[-156.15003,20.7176],[-156.15066,20.71574],[-156.14925,20.71431],[-156.14721,20.71475],[-156.14658,20.71661],[-156.14799,20.71804],[-156.15003,20.7176]]]},"properties":{"cell":"895d146a113ffff","res":9,"coarsened":false,"count":1,"hv":1,"mp":0,"y0":2024,"y1":2024,"sp":[[0,1,1,0,2024,2024]]}},{"type":"Feature","geometry":{"type":"Polygon","coordinates":[[[-156.23025,20.74353],[-156.23088,20.74167],[-156.22947,20.74024],[-156.22743,20.74068],[-156.22679,20.74255],[-156.2282,20.74397],[-156.23025,20.74353]]]},"properties":{"cell":"895d1479bd3ffff","res":9,"coarsened":false,"count":1,"hv":1,"mp":0,"y0":2024,"y1":2024,"sp":[[2,1,1,0,2024,2024]]}},{"type":"Feature","geometry":{"type":"Polygon","coordinates":[[[-156.04099,20.66497],[-156.04162,20.66311],[-156.04021,20.66168],[-156.03817,20.66212],[-156.03753,20.66398],[-156.03894,20.66541],[-156.04099,20.66497]]]},"properties":{"cell":"895d146f5abffff","res":9,"coarsened":false,"count":1,"hv":1,"mp":0,"y0":2024,"y1":2024,"sp":[[27,1,1,0,2024,2024]]}},{"type":"Feature","geometry":{"type":"Polygon","coordinates":[[[-156.17456,20.71233],[-156.17519,20.71047],[-156.17378,20.70904],[-156.17174,20.70948],[-156.1711,20.71135],[-156.17251,20.71277],[-156.17456,20.71233]]]},"properties":{"cell":"895d146a063ffff","res":9,"coarsened":false,"count":1,"hv":1,"mp":0,"y0":2012,"y1":2012,"sp":[[0,1,1,0,2012,2012]]}},{"type":"Feature","geometry":{"type":"Polygon","coordinates":[[[-156.16117,20.72384],[-156.1618,20.72198],[-156.16039,20.72056],[-156.15835,20.721],[-156.15772,20.72286],[-156.15913,20.72428],[-156.16117,20.72384]]]},"properties":{"cell":"895d146a0a7ffff","res":9,"coarsened":false,"count":4,"hv":4,"mp":0,"y0":2023,"y1":2025,"sp":[[6,1,1,0,2023,2023],[3,1,1,0,2023,2023],[21,1,1,0,2023,2023],[2,1,1,0,2025,2025]]}},{"type":"Feature","geometry":{"type":"Polygon","coordinates":[[[-156.20227,20.74782],[-156.2029,20.74596],[-156.20149,20.74454],[-156.19945,20.74498],[-156.19882,20.74684],[-156.20023,20.74826],[-156.20227,20.74782]]]},"properties":{"cell":"895d147990fffff","res":9,"coarsened":false,"count":1,"hv":1,"mp":0,"y0":2023,"y1":2023,"sp":[[22,1,1,0,2023,2023]]}},{"type":"Feature","geometry":{"type":"Polygon","coordinates":[[[-156.20711,20.70015],[-156.20774,20.69829],[-156.20633,20.69686],[-156.20429,20.6973],[-156.20366,20.69916],[-156.20507,20.70059],[-156.20711,20.70015]]]},"properties":{"cell":"895d146b197ffff","res":9,"coarsened":false,"count":1,"hv":1,"mp":0,"y0":2023,"y1":2023,"sp":[[0,1,1,0,2023,2023]]}},{"type":"Feature","geometry":{"type":"Polygon","coordinates":[[[-156.24363,20.73201],[-156.24426,20.73015],[-156.24285,20.72873],[-156.24081,20.72917],[-156.24018,20.73103],[-156.24159,20.73245],[-156.24363,20.73201]]]},"properties":{"cell":"895d1479a67ffff","res":9,"coarsened":false,"count":3,"hv":3,"mp":0,"y0":2024,"y1":2025,"sp":[[2,3,3,0,2024,2025]]}},{"type":"Feature","geometry":{"type":"Polygon","coordinates":[[[-156.11739,20.70215],[-156.11803,20.70029],[-156.11662,20.69886],[-156.11457,20.6993],[-156.11394,20.70116],[-156.11535,20.70259],[-156.11739,20.70215]]]},"properties":{"cell":"895d146ac23ffff","res":9,"coarsened":false,"count":1,"hv":1,"mp":0,"y0":2024,"y1":2024,"sp":[[3,1,1,0,2024,2024]]}},{"type":"Feature","geometry":{"type":"Polygon","coordinates":[[[-156.11161,20.6913],[-156.11225,20.68943],[-156.11084,20.68801],[-156.10879,20.68845],[-156.10816,20.69031],[-156.10957,20.69174],[-156.11161,20.6913]]]},"properties":{"cell":"895d146a8b3ffff","res":9,"coarsened":false,"count":1,"hv":1,"mp":0,"y0":2024,"y1":2024,"sp":[[20,1,1,0,2024,2024]]}},{"type":"Feature","geometry":{"type":"Polygon","coordinates":[[[-156.1408,20.70576],[-156.14143,20.7039],[-156.14002,20.70248],[-156.13798,20.70292],[-156.13734,20.70478],[-156.13875,20.7062],[-156.1408,20.70576]]]},"properties":{"cell":"895d146a12fffff","res":9,"coarsened":false,"count":1,"hv":1,"mp":0,"y0":2024,"y1":2024,"sp":[[20,1,1,0,2024,2024]]}},{"type":"Feature","geometry":{"type":"Polygon","coordinates":[[[-156.20719,20.72777],[-156.20783,20.7259],[-156.20642,20.72448],[-156.20437,20.72492],[-156.20374,20.72678],[-156.20515,20.72821],[-156.20719,20.72777]]]},"properties":{"cell":"895d146a653ffff","res":9,"coarsened":false,"count":1,"hv":1,"mp":0,"y0":2024,"y1":2024,"sp":[[2,1,1,0,2024,2024]]}},{"type":"Feature","geometry":{"type":"Polygon","coordinates":[[[-156.13276,20.71267],[-156.1334,20.71081],[-156.13199,20.70938],[-156.12994,20.70982],[-156.12931,20.71169],[-156.13072,20.71311],[-156.13276,20.71267]]]},"properties":{"cell":"895d146acc3ffff","res":9,"coarsened":false,"count":1,"hv":1,"mp":0,"y0":2024,"y1":2024,"sp":[[0,1,1,0,2024,2024]]}},{"type":"Feature","geometry":{"type":"Polygon","coordinates":[[[-156.23215,20.73794],[-156.23278,20.73608],[-156.23137,20.73465],[-156.22933,20.73509],[-156.22869,20.73696],[-156.2301,20.73838],[-156.23215,20.73794]]]},"properties":{"cell":"895d1479bcbffff","res":9,"coarsened":false,"count":1,"hv":1,"mp":0,"y0":2015,"y1":2015,"sp":[[6,1,1,0,2015,2015]]}},{"type":"Feature","geometry":{"type":"Polygon","coordinates":[[[-156.16462,20.72483],[-156.16526,20.72297],[-156.16385,20.72154],[-156.1618,20.72198],[-156.16117,20.72384],[-156.16258,20.72527],[-156.16462,20.72483]]]},"properties":{"cell":"895d146a0a3ffff","res":9,"coarsened":false,"count":3,"hv":3,"mp":0,"y0":2025,"y1":2025,"sp":[[3,1,1,0,2025,2025],[11,1,1,0,null,null],[2,1,1,0,null,null]]}},{"type":"Feature","geometry":{"type":"Polygon","coordinates":[[[-156.24026,20.75864],[-156.2409,20.75678],[-156.23949,20.75536],[-156.23744,20.7558],[-156.23681,20.75766],[-156.23822,20.75908],[-156.24026,20.75864]]]},"properties":{"cell":"895d1479e27ffff","res":9,"coarsened":false,"count":2,"hv":2,"mp":0,"y0":2025,"y1":2025,"sp":[[16,1,1,0,2025,2025],[0,1,1,0,2025,2025]]}},{"type":"Feature","geometry":{"type":"Polygon","coordinates":[[[-156.23949,20.75536],[-156.24012,20.75349],[-156.23871,20.75207],[-156.23667,20.75251],[-156.23603,20.75437],[-156.23744,20.7558],[-156.23949,20.75536]]]},"properties":{"cell":"895d147985bffff","res":9,"coarsened":false,"count":2,"hv":2,"mp":0,"y0":2014,"y1":2026,"sp":[[11,1,1,0,2014,2014],[0,1,1,0,2026,2026]]}},{"type":"Feature","geometry":{"type":"Polygon","coordinates":[[[-156.21212,20.70771],[-156.21275,20.70584],[-156.21134,20.70442],[-156.2093,20.70486],[-156.20866,20.70672],[-156.21007,20.70815],[-156.21212,20.70771]]]},"properties":{"cell":"895d146b53bffff","res":9,"coarsened":false,"count":2,"hv":2,"mp":0,"y0":2025,"y1":2026,"sp":[[2,2,2,0,2025,2026]]}},{"type":"Feature","geometry":{"type":"Polygon","coordinates":[[[-156.0498,20.66136],[-156.05043,20.65949],[-156.04903,20.65807],[-156.04698,20.6585],[-156.04635,20.66037],[-156.04776,20.66179],[-156.0498,20.66136]]]},"properties":{"cell":"895d146f50bffff","res":9,"coarsened":false,"count":1,"hv":1,"mp":0,"y0":2025,"y1":2025,"sp":[[13,1,1,0,2025,2025]]}},{"type":"Feature","geometry":{"type":"Polygon","coordinates":[[[-156.21289,20.711],[-156.21353,20.70913],[-156.21212,20.70771],[-156.21007,20.70815],[-156.20944,20.71001],[-156.21085,20.71144],[-156.21289,20.711]]]},"properties":{"cell":"895d146b507ffff","res":9,"coarsened":false,"count":1,"hv":1,"mp":0,"y0":2019,"y1":2019,"sp":[[0,1,1,0,2019,2019]]}},{"type":"Feature","geometry":{"type":"Polygon","coordinates":[[[-156.1673,20.72253],[-156.16793,20.72066],[-156.16652,20.71924],[-156.16448,20.71968],[-156.16385,20.72154],[-156.16526,20.72297],[-156.1673,20.72253]]]},"properties":{"cell":"895d146a0abffff","res":9,"coarsened":false,"count":1,"hv":1,"mp":0,"y0":2019,"y1":2019,"sp":[[1,1,1,0,2019,2019]]}},{"type":"Feature","geometry":{"type":"Polygon","coordinates":[[[-156.04522,20.66925],[-156.04585,20.66738],[-156.04444,20.66596],[-156.0424,20.6664],[-156.04176,20.66826],[-156.04317,20.66969],[-156.04522,20.66925]]]},"properties":{"cell":"895d146f58fffff","res":9,"coarsened":false,"count":1,"hv":1,"mp":0,"y0":2024,"y1":2024,"sp":[[16,1,1,0,2024,2024]]}},{"type":"Feature","geometry":{"type":"Polygon","coordinates":[[[-156.21764,20.75833],[-156.21827,20.75647],[-156.21686,20.75505],[-156.21482,20.75549],[-156.21419,20.75735],[-156.2156,20.75877],[-156.21764,20.75833]]]},"properties":{"cell":"895d14798afffff","res":9,"coarsened":false,"count":1,"hv":1,"mp":0,"y0":2025,"y1":2025,"sp":[[0,1,1,0,2025,2025]]}},{"type":"Feature","geometry":{"type":"Polygon","coordinates":[[[-156.04176,20.66826],[-156.0424,20.6664],[-156.04099,20.66497],[-156.03894,20.66541],[-156.03831,20.66727],[-156.03972,20.6687],[-156.04176,20.66826]]]},"properties":{"cell":"895d146f5bbffff","res":9,"coarsened":false,"count":1,"hv":1,"mp":0,"y0":2025,"y1":2025,"sp":[[4,1,1,0,2025,2025]]}},{"type":"Feature","geometry":{"type":"Polygon","coordinates":[[[-156.18569,20.71857],[-156.18633,20.71671],[-156.18492,20.71529],[-156.18287,20.71572],[-156.18224,20.71759],[-156.18365,20.71901],[-156.18569,20.71857]]]},"properties":{"cell":"895d146a05bffff","res":9,"coarsened":false,"count":2,"hv":2,"mp":0,"y0":1962,"y1":2022,"sp":[[2,1,1,0,2022,2022],[47,1,1,0,1962,1962]]}},{"type":"Feature","geometry":{"type":"Polygon","coordinates":[[[-156.23258,20.75339],[-156.23321,20.75153],[-156.2318,20.7501],[-156.22976,20.75054],[-156.22912,20.75241],[-156.23054,20.75383],[-156.23258,20.75339]]]},"properties":{"cell":"895d1479847ffff","res":9,"coarsened":false,"count":1,"hv":1,"mp":0,"y0":2025,"y1":2025,"sp":[[0,1,1,0,2025,2025]]}},{"type":"Feature","geometry":{"type":"Polygon","coordinates":[[[-156.24562,20.75404],[-156.24625,20.75217],[-156.24484,20.75075],[-156.2428,20.75119],[-156.24216,20.75305],[-156.24357,20.75448],[-156.24562,20.75404]]]},"properties":{"cell":"895d1479a93ffff","res":9,"coarsened":false,"count":1,"hv":1,"mp":0,"y0":2023,"y1":2023,"sp":[[2,1,1,0,2023,2023]]}},{"type":"Feature","geometry":{"type":"Polygon","coordinates":[[[-156.23862,20.72446],[-156.23926,20.72259],[-156.23784,20.72117],[-156.2358,20.72161],[-156.23517,20.72347],[-156.23658,20.7249],[-156.23862,20.72446]]]},"properties":{"cell":"895d146b48fffff","res":9,"coarsened":false,"count":1,"hv":1,"mp":0,"y0":2004,"y1":2004,"sp":[[2,1,1,0,2004,2004]]}},{"type":"Feature","geometry":{"type":"Polygon","coordinates":[[[-156.15383,20.70642],[-156.15447,20.70456],[-156.15306,20.70313],[-156.15101,20.70357],[-156.15038,20.70543],[-156.15179,20.70686],[-156.15383,20.70642]]]},"properties":{"cell":"895d146a17bffff","res":9,"coarsened":false,"count":1,"hv":1,"mp":0,"y0":2025,"y1":2025,"sp":[[2,1,1,0,2025,2025]]}},{"type":"Feature","geometry":{"type":"Polygon","coordinates":[[[-156.19986,20.71035],[-156.20049,20.70848],[-156.19908,20.70706],[-156.19704,20.7075],[-156.1964,20.70936],[-156.19781,20.71079],[-156.19986,20.71035]]]},"properties":{"cell":"895d146a2c3ffff","res":9,"coarsened":false,"count":1,"hv":1,"mp":0,"y0":2026,"y1":2026,"sp":[[2,1,1,0,2026,2026]]}},{"type":"Feature","geometry":{"type":"Polygon","coordinates":[[[-156.15236,20.72746],[-156.15299,20.7256],[-156.15158,20.72418],[-156.14954,20.72461],[-156.14891,20.72648],[-156.15032,20.7279],[-156.15236,20.72746]]]},"properties":{"cell":"895d146a567ffff","res":9,"coarsened":false,"count":1,"hv":1,"mp":0,"y0":2026,"y1":2026,"sp":[[2,1,1,0,2026,2026]]}},{"type":"Feature","geometry":{"type":"Polygon","coordinates":[[[-156.1654,20.72812],[-156.16603,20.72625],[-156.16462,20.72483],[-156.16258,20.72527],[-156.16195,20.72713],[-156.16336,20.72856],[-156.1654,20.72812]]]},"properties":{"cell":"895d146a0b3ffff","res":9,"coarsened":false,"count":1,"hv":1,"mp":0,"y0":2018,"y1":2018,"sp":[[2,1,1,0,2018,2018]]}},{"type":"Feature","geometry":{"type":"Polygon","coordinates":[[[-156.09174,20.71629],[-156.09237,20.71443],[-156.09096,20.713],[-156.08892,20.71344],[-156.08828,20.7153],[-156.08969,20.71673],[-156.09174,20.71629]]]},"properties":{"cell":"895d1461e53ffff","res":9,"coarsened":false,"count":1,"hv":1,"mp":0,"y0":2026,"y1":2026,"sp":[[16,1,1,0,2026,2026]]}},{"type":"Feature","geometry":{"type":"Polygon","coordinates":[[[-156.19951,20.72251],[-156.20014,20.72065],[-156.19873,20.71922],[-156.19669,20.71966],[-156.19606,20.72153],[-156.19747,20.72295],[-156.19951,20.72251]]]},"properties":{"cell":"895d146a673ffff","res":9,"coarsened":false,"count":1,"hv":1,"mp":0,"y0":2026,"y1":2026,"sp":[[2,1,1,0,2026,2026]]}},{"type":"Feature","geometry":{"type":"Polygon","coordinates":[[[-156.24795,20.7639],[-156.24858,20.76203],[-156.24717,20.76061],[-156.24513,20.76105],[-156.2445,20.76291],[-156.24591,20.76434],[-156.24795,20.7639]]]},"properties":{"cell":"895d1479e07ffff","res":9,"coarsened":false,"count":2,"hv":2,"mp":0,"y0":2025,"y1":2026,"sp":[[3,1,1,0,2026,2026],[0,1,1,0,2025,2025]]}},{"type":"Feature","geometry":{"type":"Polygon","coordinates":[[[-156.24242,20.71328],[-156.24305,20.71141],[-156.24164,20.70999],[-156.2396,20.71043],[-156.23897,20.71229],[-156.24038,20.71372],[-156.24242,20.71328]]]},"properties":{"cell":"895d146b473ffff","res":9,"coarsened":false,"count":2,"hv":2,"mp":0,"y0":2026,"y1":2026,"sp":[[0,1,1,0,2026,2026],[2,1,1,0,2026,2026]]}},{"type":"Feature","geometry":{"type":"Polygon","coordinates":[[[-156.23871,20.75207],[-156.23934,20.75021],[-156.23793,20.74878],[-156.23589,20.74922],[-156.23526,20.75109],[-156.23667,20.75251],[-156.23871,20.75207]]]},"properties":{"cell":"895d147984bffff","res":9,"coarsened":false,"count":1,"hv":1,"mp":0,"y0":2026,"y1":2026,"sp":[[23,1,1,0,2026,2026]]}},{"type":"Feature","geometry":{"type":"Polygon","coordinates":[[[-156.06778,20.64195],[-156.06841,20.64009],[-156.067,20.63866],[-156.06496,20.6391],[-156.06432,20.64097],[-156.06573,20.64239],[-156.06778,20.64195]]]},"properties":{"cell":"895d146f073ffff","res":9,"coarsened":false,"count":1,"hv":1,"mp":0,"y0":2011,"y1":2011,"sp":[[39,1,1,0,2011,2011]]}},{"type":"Feature","geometry":{"type":"Polygon","coordinates":[[[-156.07814,20.64492],[-156.07877,20.64305],[-156.07736,20.64163],[-156.07532,20.64207],[-156.07468,20.64393],[-156.07609,20.64536],[-156.07814,20.64492]]]},"properties":{"cell":"895d146f05bffff","res":9,"coarsened":false,"count":1,"hv":1,"mp":0,"y0":2010,"y1":2010,"sp":[[40,1,1,0,2010,2010]]}},{"type":"Feature","geometry":{"type":"Polygon","coordinates":[[[-156.05015,20.64918],[-156.05079,20.64732],[-156.04938,20.64589],[-156.04734,20.64633],[-156.0467,20.6482],[-156.04811,20.64962],[-156.05015,20.64918]]]},"properties":{"cell":"895d146f1d3ffff","res":9,"coarsened":false,"count":1,"hv":1,"mp":0,"y0":2007,"y1":2007,"sp":[[41,1,1,0,2007,2007]]}},{"type":"Feature","geometry":{"type":"Polygon","coordinates":[[[-156.14122,20.72122],[-156.14186,20.71936],[-156.14045,20.71793],[-156.1384,20.71837],[-156.13777,20.72023],[-156.13918,20.72166],[-156.14122,20.72122]]]},"properties":{"cell":"895d146a1b3ffff","res":9,"coarsened":false,"count":1,"hv":1,"mp":0,"y0":2025,"y1":2025,"sp":[[43,1,1,0,2025,2025]]}},{"type":"Feature","geometry":{"type":"Polygon","coordinates":[[[-156.1971,20.68503],[-156.19773,20.68316],[-156.19632,20.68174],[-156.19428,20.68218],[-156.19364,20.68404],[-156.19505,20.68547],[-156.1971,20.68503]]]},"properties":{"cell":"895d14684cbffff","res":9,"coarsened":false,"count":1,"hv":1,"mp":0,"y0":2024,"y1":2024,"sp":[[0,1,1,0,2024,2024]]}},{"type":"Feature","geometry":{"type":"Polygon","coordinates":[[[-156.23068,20.75898],[-156.23131,20.75712],[-156.2299,20.75569],[-156.22786,20.75613],[-156.22722,20.758],[-156.22864,20.75942],[-156.23068,20.75898]]]},"properties":{"cell":"895d147981bffff","res":9,"coarsened":false,"count":1,"hv":1,"mp":0,"y0":2024,"y1":2024,"sp":[[42,1,1,0,2024,2024]]}},{"type":"Feature","geometry":{"type":"Polygon","coordinates":[[[-156.24985,20.75831],[-156.25048,20.75644],[-156.24907,20.75502],[-156.24703,20.75546],[-156.24639,20.75732],[-156.24781,20.75875],[-156.24985,20.75831]]]},"properties":{"cell":"895d1479e77ffff","res":9,"coarsened":false,"count":1,"hv":1,"mp":0,"y0":2024,"y1":2024,"sp":[[44,1,1,0,2024,2024]]}},{"type":"Feature","geometry":{"type":"Polygon","coordinates":[[[-156.23292,20.74123],[-156.23356,20.73936],[-156.23215,20.73794],[-156.2301,20.73838],[-156.22947,20.74024],[-156.23088,20.74167],[-156.23292,20.74123]]]},"properties":{"cell":"895d1479bdbffff","res":9,"coarsened":false,"count":1,"hv":1,"mp":0,"y0":2024,"y1":2024,"sp":[[5,1,1,0,2024,2024]]}},{"type":"Feature","geometry":{"type":"Polygon","coordinates":[[[-156.14355,20.73108],[-156.14418,20.72922],[-156.14277,20.72779],[-156.14073,20.72823],[-156.14009,20.7301],[-156.1415,20.73152],[-156.14355,20.73108]]]},"properties":{"cell":"895d146a527ffff","res":9,"coarsened":false,"count":1,"hv":1,"mp":0,"y0":2024,"y1":2024,"sp":[[2,1,1,0,2024,2024]]}},{"type":"Feature","geometry":{"type":"Polygon","coordinates":[[[-156.11627,20.71103],[-156.1169,20.70917],[-156.11549,20.70774],[-156.11345,20.70818],[-156.11281,20.71004],[-156.11422,20.71147],[-156.11627,20.71103]]]},"properties":{"cell":"895d146aca3ffff","res":9,"coarsened":false,"count":1,"hv":1,"mp":0,"y0":2024,"y1":2024,"sp":[[6,1,1,0,2024,2024]]}},{"type":"Feature","geometry":{"type":"Polygon","coordinates":[[[-156.23724,20.77311],[-156.23788,20.77125],[-156.23646,20.76982],[-156.23442,20.77026],[-156.23379,20.77213],[-156.2352,20.77355],[-156.23724,20.77311]]]},"properties":{"cell":"895d1479c7bffff","res":9,"coarsened":false,"count":2,"hv":2,"mp":0,"y0":2022,"y1":2023,"sp":[[42,2,2,0,2022,2023]]}},{"type":"Feature","geometry":{"type":"Polygon","coordinates":[[[-156.18647,20.72186],[-156.1871,20.72],[-156.18569,20.71857],[-156.18365,20.71901],[-156.18302,20.72088],[-156.18443,20.7223],[-156.18647,20.72186]]]},"properties":{"cell":"895d146a627ffff","res":9,"coarsened":false,"count":1,"hv":1,"mp":0,"y0":2019,"y1":2019,"sp":[[0,1,1,0,2019,2019]]}},{"type":"Feature","geometry":{"type":"Polygon","coordinates":[[[-156.22075,20.77148],[-156.22138,20.76962],[-156.21997,20.76819],[-156.21793,20.76863],[-156.21729,20.7705],[-156.2187,20.77192],[-156.22075,20.77148]]]},"properties":{"cell":"895d1479d5bffff","res":9,"coarsened":false,"count":1,"hv":1,"mp":0,"y0":2017,"y1":2017,"sp":[[46,1,1,0,2017,2017]]}},{"type":"Feature","geometry":{"type":"Polygon","coordinates":[[[-156.18232,20.74521],[-156.18295,20.74334],[-156.18154,20.74192],[-156.1795,20.74236],[-156.17887,20.74422],[-156.18028,20.74564],[-156.18232,20.74521]]]},"properties":{"cell":"895d146a41bffff","res":9,"coarsened":false,"count":2,"hv":2,"mp":0,"y0":2016,"y1":2016,"sp":[[42,1,1,0,2016,2016],[6,1,1,0,2016,2016]]}},{"type":"Feature","geometry":{"type":"Polygon","coordinates":[[[-156.21229,20.76294],[-156.21292,20.76108],[-156.21151,20.75965],[-156.20946,20.76009],[-156.20883,20.76196],[-156.21024,20.76338],[-156.21229,20.76294]]]},"properties":{"cell":"895d1479d6bffff","res":9,"coarsened":false,"count":1,"hv":1,"mp":0,"y0":2016,"y1":2016,"sp":[[6,1,1,0,2016,2016]]}},{"type":"Feature","geometry":{"type":"Polygon","coordinates":[[[-156.2507,20.66658],[-156.25134,20.66472],[-156.24993,20.66329],[-156.24788,20.66373],[-156.24725,20.6656],[-156.24866,20.66702],[-156.2507,20.66658]]]},"properties":{"cell":"895d146949bffff","res":9,"coarsened":false,"count":4,"hv":4,"mp":0,"y0":1970,"y1":1970,"sp":[[47,4,4,0,1970,1970]]}},{"type":"Feature","geometry":{"type":"Polygon","coordinates":[[[-156.15081,20.72089],[-156.15144,20.71902],[-156.15003,20.7176],[-156.14799,20.71804],[-156.14735,20.7199],[-156.14876,20.72133],[-156.15081,20.72089]]]},"properties":{"cell":"895d146a18bffff","res":9,"coarsened":false,"count":1,"hv":1,"mp":0,"y0":null,"y1":null,"sp":[[47,1,1,0,null,null]]}}],"park":"haleakala","h3_res":9,"species_index":[{"n":"Branta sandvicensis","c":"Hawaiian Goose","k":"Aves"},{"n":"Phasianus colchicus","c":"Ring-necked Pheasant","k":"Aves"},{"n":"Alectoris chukar","c":"Chukar","k":"Aves"},{"n":"Drepanis coccinea","c":"\u02bbI\u02bbiwi","k":"Aves"},{"n":"Fregata minor","c":"Great Frigatebird","k":"Aves"},{"n":"Passer domesticus","c":"House Sparrow","k":"Aves"},{"n":"Himatione sanguinea","c":"\u02bbApapane","k":"Aves"},{"n":"Mimus polyglottos","c":"Northern Mockingbird","k":"Aves"},{"n":"Zosterops japonicus","c":"Warbling White-eye","k":"Aves"},{"n":"Urva auropunctata","c":"Small Indian Mongoose","k":"Mammalia"},{"n":"Spilopelia chinensis","c":"Spotted Dove","k":"Aves"},{"n":"Alauda arvensis","c":"Eurasian Skylark","k":"Aves"},{"n":"Pluvialis fulva","c":"Pacific Golden-Plover","k":"Aves"},{"n":"Cardinalis cardinalis","c":"Northern Cardinal","k":"Aves"},{"n":"Mus musculus","c":"House Mouse","k":"Mammalia"},{"n":"Acridotheres tristis","c":"Common Myna","k":"Aves"},{"n":"Paroaria coronata","c":"Red-crested Cardinal","k":"Aves"},{"n":"Columba livia","c":"Feral Pigeon","k":"Aves"},{"n":"Phaethon lepturus","c":"White-tailed Tropicbird","k":"Aves"},{"n":"Lonchura punctulata","c":"Scaly-breasted Munia","k":"Aves"},{"n":"Haemorhous mexicanus","c":"House Finch","k":"Aves"},{"n":"Leiothrix lutea","c":"Red-billed Leiothrix","k":"Aves"},{"n":"Garrulax canorus","c":"Chinese Hwamei","k":"Aves"},{"n":"Capra hircus","c":"Domestic Goat","k":"Mammalia"},{"n":"Francolinus francolinus","c":"Black Francolin","k":"Aves"},{"n":"Sus scrofa","c":"Wild Boar","k":"Mammalia"},{"n":"Horornis diphone","c":"Japanese Bush Warbler","k":"Aves"},{"n":"Anous minutus","c":"Hawaiian Black Noddy","k":"Aves"},{"n":"Felis catus","c":"Domestic Cat","k":"Mammalia"},{"n":"Geopelia striata","c":"Zebra Dove","k":"Aves"},{"n":"Gallus gallus","c":"Domestic Chicken","k":"Aves"},{"n":"Lonchura atricapilla","c":"Chestnut Munia","k":"Aves"},{"n":"Bos taurus","c":"Domestic Cattle","k":"Mammalia"},{"n":"Chlorodrepanis virens","c":"Hawai\u02bbi \u02bbAmakihi","k":"Aves"},{"n":"Tyto furcata","c":"American Barn Owl","k":"Aves"},{"n":"Rattus rattus","c":"Black Rat","k":"Mammalia"},{"n":"Copsychus malabaricus","c":"White-rumped Shama","k":"Aves"},{"n":"Ardea ibis","c":"Western Cattle-Egret","k":"Aves"},{"n":"Megaptera novaeangliae","c":"Humpback Whale","k":"Mammalia"},{"n":"Delphinidae","c":"Dolphins","k":"Mammalia"},{"n":"Stenella longirostris","c":"Spinner dolphin","k":"Mammalia"},{"n":"Pseudorca crassidens","c":"false killer whale","k":"Mammalia"},{"n":"Vestiaria coccinea","c":"Iiwi","k":"Aves"},{"n":"Pseudonestor xanthophrys","c":"Maui Parrotbill","k":"Aves"},{"n":"Asio flammeus","c":"Short-eared Owl ssp sandwichensis","k":"Aves"},{"n":"Paroreomyza montana","c":"Maui Alauahio","k":"Aves"},{"n":"Palmeria dolei","c":"Akohekohe","k":"Aves"},{"n":"Pterodroma sandwichensis","c":"Hawaiian Petrel","k":"Aves"}],"entry":["species_index","count","human_verified","model_predicted","first_year","last_year"],"suppressed":{"excluded":{},"coarsened":{}},"merged_names":{"Columba livia domestica":"Columba livia","Sus scrofa domesticus":"Sus scrofa","Anous minutus melanogenys":"Anous minutus","Gallus gallus domesticus":"Gallus gallus","Alectoris chukar cypriotes":"Alectoris chukar"}}