{"type":"Feature","geometry":{"type":"MultiPolygon","coordinates":[[[[-83.1815,35.8326],[-83.1787,35.8372],[-83.1808,35.841],[-83.1774,35.8371],[-83.1815,35.8326]]],[[[-83.9856,35.5067],[-83.9832,35.5038],[-83.9771,35.5039],[-83.9797,35.5012],[-83.9817,35.4932],[-83.9881,35.4949],[-83.9856,35.5067]]],[[[-83.994,35.5242],[-83.9885,35.5198],[-83.989,35.5169],[-83.9885,35.5141],[-83.9916,35.5141],[-83.9908,35.5114],[-83.9933,35.5138],[-83.9969,35.5122],[-83.997,35.5171],[-84.0017,35.5121],[-84.0063,35.5113],[-84.0083,35.5159],[-84.0048,35.5214],[-83.994,35.5242]]],[[[-83.294,35.5154],[-83.2939,35.5133],[-83.2884,35.5132],[-83.2887,35.507],[-83.2987,35.509],[-83.2993,35.5062],[-83.3001,35.5066],[-83.3009,35.5075],[-83.3009,35.5084],[-83.2951,35.5123],[-83.294,35.5154]]],[[[-83.2937,35.516],[-83.2927,35.5166],[-83.2914,35.5172],[-83.2914,35.516],[-83.2937,35.516]]],[[[-83.2846,35.521],[-83.2845,35.5179],[-83.2904,35.5179],[-83.2876,35.5228],[-83.2846,35.521]]],[[[-83.1838,35.8381],[-83.1864,35.837],[-83.1822,35.8371],[-83.1827,35.8337],[-83.1853,35.8358],[-83.1909,35.8356],[-83.1917,35.8325],[-83.2028,35.8244],[-83.2115,35.8231],[-83.212,35.8174],[-83.2164,35.8182],[-83.2198,35.8131],[-83.2383,35.8041],[-83.2435,35.8046],[-83.2452,35.8119],[-83.251,35.8118],[-83.2547,35.8053],[-83.2608,35.8017],[-83.2615,35.7986],[-83.2685,35.7931],[-83.2666,35.788],[-83.2642,35.7874],[-83.265,35.7803],[-83.2824,35.7751],[-83.2861,35.7756],[-83.289,35.7783],[-83.2915,35.7772],[-83.294,35.7736],[-83.293,35.7703],[-83.2947,35.7657],[-83.2985,35.7643],[-83.3036,35.7674],[-83.3061,35.7661],[-83.3144,35.7671],[-83.3144,35.7698],[-83.3219,35.7732],[-83.3262,35.7729],[-83.3326,35.7766],[-83.3402,35.7758],[-83.3428,35.7768],[-83.3417,35.779],[-83.3444,35.7812],[-83.3479,35.7786],[-83.3571,35.7776],[-83.358,35.7765],[-83.357,35.7743],[-83.3618,35.7704],[-83.3644,35.7641],[-83.3677,35.7615],[-83.3712,35.763],[-83.3987,35.754],[-83.4057,35.7593],[-83.4147,35.7574],[-83.4261,35.7582],[-83.4308,35.7521],[-83.4437,35.7543],[-83.4472,35.7509],[-83.4527,35.7511],[-83.4553,35.7482],[-83.4618,35.7462],[-83.4691,35.7482],[-83.4717,35.747],[-83.4772,35.7487],[-83.4796,35.7519],[-83.4848,35.7522],[-83.4885,35.7565],[-83.4939,35.7582],[-83.4967,35.7653],[-83.5076,35.7659],[-83.5109,35.7635],[-83.5135,35.7661],[-83.5212,35.7615],[-83.5231,35.7634],[-83.5208,35.7603],[-83.52,35.7605],[-83.5214,35.7594],[-83.5197,35.7566],[-83.5224,35.7539],[-83.517,35.7434],[-83.5179,35.7398],[-83.5208,35.7397],[-83.5213,35.7377],[-83.5173,35.7281],[-83.5145,35.7263],[-83.5117,35.7274],[-83.5103,35.7271],[-83.5101,35.7262],[-83.5138,35.7255],[-83.5136,35.7234],[-83.5168,35.7209],[-83.5292,35.7158],[-83.5268,35.7146],[-83.5271,35.7123],[-83.5308,35.7104],[-83.5295,35.7091],[-83.5309,35.7066],[-83.5209,35.706],[-83.52,35.7052],[-83.5218,35.7038],[-83.5189,35.7025],[-83.5196,35.7015],[-83.5161,35.6977],[-83.5042,35.7053],[-83.5009,35.7046],[-83.4915,35.7081],[-83.4927,35.7112],[-83.4901,35.7112],[-83.4903,35.7125],[-83.4862,35.7149],[-83.4878,35.7176],[-83.4818,35.7203],[-83.4834,35.7228],[-83.4812,35.7251],[-83.4653,35.7256],[-83.4562,35.7275],[-83.4432,35.7331],[-83.4382,35.7324],[-83.4343,35.7352],[-83.4199,35.7364],[-83.4143,35.7404],[-83.4073,35.7413],[-83.407,35.7428],[-83.4023,35.7444],[-83.4016,35.7466],[-83.3954,35.7474],[-83.396,35.7492],[-83.3932,35.7508],[-83.3849,35.7521],[-83.3801,35.7568],[-83.3771,35.7555],[-83.3732,35.7571],[-83.3774,35.7534],[-83.3734,35.7541],[-83.3715,35.7564],[-83.3691,35.7533],[-83.3653,35.7543],[-83.3652,35.7528],[-83.3629,35.7526],[-83.3539,35.7565],[-83.3527,35.7586],[-83.3036,35.7624],[-83.2961,35.7646],[-83.2883,35.7638],[-83.276,35.7668],[-83.2745,35.7684],[-83.2729,35.7676],[-83.2682,35.7712],[-83.2666,35.7671],[-83.2637,35.7672],[-83.2643,35.7686],[-83.2583,35.7719],[-83.2506,35.7722],[-83.2478,35.7707],[-83.245,35.7779],[-83.2341,35.7793],[-83.2309,35.7824],[-83.2235,35.7813],[-83.213,35.7875],[-83.2094,35.7847],[-83.1918,35.7856],[-83.1904,35.7822],[-83.1881,35.7833],[-83.1849,35.7823],[-83.1846,35.7842],[-83.1746,35.7836],[-83.1731,35.7815],[-83.1715,35.7831],[-83.1679,35.7818],[-83.1638,35.7832],[-83.1633,35.785],[-83.1502,35.7857],[-83.1447,35.7891],[-83.1435,35.7838],[-83.1298,35.7826],[-83.1298,35.7762],[-83.127,35.7768],[-83.125,35.7755],[-83.121,35.7782],[-83.1163,35.7778],[-83.1112,35.7736],[-83.1113,35.7707],[-83.1084,35.7671],[-83.1098,35.768],[-83.1112,35.7663],[-83.1078,35.7643],[-83.1077,35.7627],[-83.1047,35.7625],[-83.1041,35.7585],[-83.1036,35.7602],[-83.1005,35.758],[-83.103,35.7557],[-83.0997,35.7535],[-83.0979,35.754],[-83.0955,35.7487],[-83.0977,35.747],[-83.0912,35.7398],[-83.0914,35.7348],[-83.0878,35.7313],[-83.0866,35.7275],[-83.0962,35.7235],[-83.0952,35.7216],[-83.0909,35.7207],[-83.0863,35.7236],[-83.0835,35.7234],[-83.0821,35.721],[-83.0877,35.7166],[-83.0897,35.7116],[-83.0944,35.7069],[-83.0935,35.6985],[-83.0911,35.6988],[-83.0858,35.6933],[-83.0828,35.6935],[-83.0573,35.6827],[-83.0516,35.6778],[-83.0598,35.6629],[-83.0585,35.6601],[-83.0596,35.6504],[-83.0564,35.6481],[-83.0457,35.6487],[-83.0391,35.6412],[-83.0372,35.6416],[-83.0354,35.6483],[-83.0326,35.651],[-83.0302,35.6508],[-83.0286,35.6547],[-83.0242,35.6529],[-83.0227,35.6561],[-83.019,35.6555],[-83.0167,35.6571],[-83.0126,35.6532],[-83.0097,35.6532],[-83.007,35.6566],[-83.0044,35.6556],[-82.9995,35.6575],[-82.9981,35.6542],[-83.0014,35.6546],[-83.0085,35.6508],[-83.0146,35.6501],[-83.0163,35.6533],[-83.0188,35.6512],[-83.0246,35.6504],[-83.0269,35.6517],[-83.0274,35.6498],[-83.0325,35.647],[-83.0356,35.6405],[-83.0404,35.6376],[-83.0454,35.641],[-83.045,35.6434],[-83.0478,35.6453],[-83.0424,35.6354],[-83.0486,35.6289],[-83.0581,35.6238],[-83.0577,35.617],[-83.063,35.6134],[-83.0636,35.6097],[-83.0739,35.5985],[-83.0766,35.5919],[-83.0767,35.5888],[-83.0634,35.5887],[-83.0638,35.5911],[-83.0599,35.594],[-83.0614,35.5957],[-83.0578,35.5965],[-83.0566,35.5931],[-83.0604,35.5887],[-83.0568,35.5886],[-83.0592,35.5832],[-83.067,35.579],[-83.0647,35.5771],[-83.0673,35.5742],[-83.0727,35.5764],[-83.0776,35.5715],[-83.0769,35.577],[-83.0797,35.5803],[-83.0895,35.5751],[-83.0975,35.5743],[-83.1025,35.5707],[-83.1034,35.5648],[-83.1069,35.5606],[-83.1142,35.5543],[-83.1175,35.5543],[-83.1195,35.5514],[-83.1255,35.5531],[-83.1286,35.5512],[-83.1333,35.5524],[-83.149,35.549],[-83.1565,35.5521],[-83.1596,35.5484],[-83.163,35.548],[-83.1655,35.5384],[-83.1718,35.5374],[-83.1718,35.5337],[-83.17,35.531],[-83.1732,35.5287],[-83.1739,35.5218],[-83.1782,35.5196],[-83.1803,35.519],[-83.2572,35.5936],[-83.3052,35.5587],[-83.2886,35.5425],[-83.2867,35.5436],[-83.2825,35.5414],[-83.2952,35.5323],[-83.2915,35.5318],[-83.2927,35.5273],[-83.2847,35.5271],[-83.2846,35.5227],[-83.2906,35.5242],[-83.2922,35.5188],[-83.2982,35.5163],[-83.2991,35.5135],[-83.3021,35.5118],[-83.3009,35.5072],[-83.297,35.5021],[-83.3016,35.4981],[-83.3036,35.4991],[-83.3029,35.5033],[-83.3146,35.5121],[-83.3194,35.5119],[-83.3266,35.5078],[-83.3372,35.5048],[-83.3387,35.5064],[-83.3479,35.5088],[-83.3578,35.4968],[-83.3623,35.4962],[-83.3675,35.5007],[-83.3697,35.4953],[-83.3755,35.4926],[-83.3738,35.4907],[-83.3963,35.4828],[-83.3956,35.4847],[-83.399,35.4787],[-83.4065,35.4726],[-83.4115,35.4723],[-83.4156,35.4692],[-83.4168,35.468],[-83.417,35.4608],[-83.4197,35.4595],[-83.4233,35.461],[-83.4265,35.4597],[-83.43,35.4608],[-83.431,35.4569],[-83.4335,35.4558],[-83.4411,35.46],[-83.441,35.4642],[-83.4436,35.4646],[-83.4445,35.4667],[-83.4564,35.4668],[-83.4574,35.4679],[-83.4552,35.4758],[-83.4635,35.4697],[-83.4683,35.4783],[-83.4664,35.4867],[-83.4736,35.4869],[-83.484,35.4824],[-83.4821,35.4822],[-83.477,35.4752],[-83.4777,35.4706],[-83.4749,35.4657],[-83.4774,35.4592],[-83.475,35.4582],[-83.4781,35.4489],[-83.4825,35.4457],[-83.4869,35.4451],[-83.4871,35.4392],[-83.4839,35.4398],[-83.4855,35.4372],[-83.485,35.4343],[-83.4885,35.433],[-83.4886,35.4394],[-83.4924,35.4457],[-83.4993,35.4527],[-83.503,35.4526],[-83.5109,35.4485],[-83.5123,35.4466],[-83.5121,35.4409],[-83.5174,35.4429],[-83.5312,35.4378],[-83.5339,35.4397],[-83.5354,35.4439],[-83.5382,35.4444],[-83.5442,35.4444],[-83.5512,35.441],[-83.5559,35.4426],[-83.5607,35.4385],[-83.5635,35.4386],[-83.5666,35.4418],[-83.5745,35.4446],[-83.5806,35.4519],[-83.5849,35.4542],[-83.5872,35.4522],[-83.587,35.45],[-83.5806,35.4403],[-83.5859,35.4359],[-83.5909,35.4352],[-83.5949,35.4322],[-83.6001,35.432],[-83.611,35.4278],[-83.6169,35.4358],[-83.624,35.4373],[-83.631,35.4424],[-83.642,35.444],[-83.6445,35.4429],[-83.6459,35.4391],[-83.6462,35.4297],[-83.6521,35.4269],[-83.6577,35.4328],[-83.6642,35.4313],[-83.6688,35.4357],[-83.6749,35.4359],[-83.6834,35.4392],[-83.7029,35.4435],[-83.7183,35.443],[-83.7342,35.4476],[-83.7572,35.4419],[-83.7683,35.4442],[-83.7753,35.4439],[-83.8006,35.4563],[-83.8038,35.4558],[-83.8057,35.4526],[-83.8089,35.4521],[-83.8123,35.4545],[-83.8108,35.4572],[-83.8187,35.4543],[-83.8187,35.4515],[-83.8322,35.4523],[-83.8382,35.4498],[-83.8404,35.4535],[-83.8439,35.4546],[-83.8656,35.45],[-83.8664,35.4549],[-83.8689,35.4582],[-83.88,35.4643],[-83.8791,35.4672],[-83.8832,35.4647],[-83.8877,35.4653],[-83.8946,35.4636],[-83.8984,35.4663],[-83.8976,35.4681],[-83.8992,35.4716],[-83.9035,35.4691],[-83.9108,35.4732],[-83.9148,35.4698],[-83.9197,35.4699],[-83.9185,35.4727],[-83.921,35.4737],[-83.9186,35.4763],[-83.9327,35.4793],[-83.9342,35.4828],[-83.9301,35.4843],[-83.9323,35.4871],[-83.9266,35.4962],[-83.9282,35.4972],[-83.9351,35.4953],[-83.9341,35.4996],[-83.9377,35.4972],[-83.9427,35.499],[-83.9428,35.501],[-83.9437,35.4998],[-83.9457,35.5016],[-83.9495,35.4999],[-83.9479,35.5042],[-83.9491,35.5078],[-83.9538,35.5078],[-83.9568,35.5042],[-83.9596,35.5045],[-83.9575,35.5072],[-83.9599,35.5085],[-83.9647,35.5073],[-83.9681,35.503],[-83.9716,35.5045],[-83.9825,35.5047],[-83.9832,35.5039],[-83.9838,35.5056],[-83.9854,35.5066],[-83.9851,35.5098],[-83.9866,35.5105],[-83.9851,35.5135],[-83.9885,35.5125],[-83.9881,35.5156],[-83.9888,35.5167],[-83.9882,35.5191],[-83.9883,35.5199],[-83.9932,35.5246],[-83.991,35.5298],[-83.9915,35.5323],[-83.9905,35.5312],[-83.9898,35.531],[-83.996,35.5408],[-83.9945,35.5431],[-83.9924,35.5423],[-83.9937,35.5436],[-83.9914,35.5473],[-83.9922,35.5503],[-83.9997,35.556],[-84.0094,35.5577],[-84.0139,35.5562],[-84.0078,35.5653],[-84.004,35.5678],[-84.005,35.5771],[-83.9978,35.586],[-83.9981,35.5893],[-83.9898,35.5959],[-83.9767,35.6125],[-83.9733,35.6139],[-83.9755,35.6175],[-83.9678,35.6212],[-83.9585,35.6285],[-83.9514,35.6282],[-83.9381,35.6399],[-83.9255,35.6539],[-83.9089,35.6658],[-83.9016,35.6734],[-83.8942,35.6773],[-83.8829,35.6919],[-83.8697,35.7032],[-83.8368,35.7183],[-83.8187,35.7207],[-83.814,35.7151],[-83.8132,35.7072],[-83.8115,35.7072],[-83.8034,35.7101],[-83.7953,35.7099],[-83.7842,35.715],[-83.7586,35.7217],[-83.7497,35.7265],[-83.7362,35.7288],[-83.7335,35.7284],[-83.733,35.7268],[-83.7411,35.7217],[-83.7414,35.7153],[-83.7361,35.717],[-83.7344,35.7144],[-83.7249,35.7125],[-83.7222,35.7142],[-83.7224,35.7175],[-83.718,35.7184],[-83.7123,35.7144],[-83.7043,35.7123],[-83.6989,35.7082],[-83.6953,35.7075],[-83.6835,35.7111],[-83.6794,35.7155],[-83.6577,35.7254],[-83.6525,35.7218],[-83.6479,35.7239],[-83.642,35.7226],[-83.6394,35.7171],[-83.6362,35.7148],[-83.6279,35.714],[-83.6223,35.7175],[-83.6156,35.7178],[-83.6133,35.7218],[-83.6087,35.7185],[-83.6087,35.7199],[-83.6121,35.7215],[-83.6092,35.7229],[-83.6047,35.7231],[-83.602,35.7217],[-83.6016,35.7194],[-83.5994,35.7196],[-83.5965,35.727],[-83.583,35.7242],[-83.5679,35.732],[-83.5608,35.7327],[-83.5578,35.7356],[-83.547,35.7403],[-83.5432,35.7443],[-83.5414,35.7491],[-83.536,35.7539],[-83.5353,35.7586],[-83.5303,35.7621],[-83.5313,35.7693],[-83.5339,35.7699],[-83.5324,35.771],[-83.5265,35.771],[-83.5211,35.7688],[-83.5199,35.7652],[-83.5128,35.7687],[-83.5104,35.7672],[-83.506,35.7685],[-83.493,35.767],[-83.4913,35.7605],[-83.4858,35.7593],[-83.4839,35.7544],[-83.479,35.7541],[-83.4749,35.7504],[-83.4693,35.7507],[-83.4614,35.7482],[-83.4547,35.7523],[-83.4484,35.7531],[-83.4445,35.757],[-83.4329,35.7543],[-83.4269,35.7612],[-83.416,35.7593],[-83.4115,35.763],[-83.4082,35.763],[-83.4044,35.7622],[-83.4033,35.7601],[-83.3993,35.76],[-83.3979,35.7577],[-83.394,35.7578],[-83.3732,35.7647],[-83.369,35.7643],[-83.3599,35.775],[-83.3556,35.7864],[-83.3472,35.7879],[-83.3275,35.7886],[-83.3272,35.785],[-83.3328,35.7839],[-83.3377,35.7803],[-83.3285,35.7779],[-83.3247,35.7746],[-83.317,35.7738],[-83.3125,35.7715],[-83.3108,35.7685],[-83.3064,35.7678],[-83.3032,35.7702],[-83.3002,35.7668],[-83.2984,35.7668],[-83.2958,35.7676],[-83.2963,35.7745],[-83.2929,35.7788],[-83.2888,35.7803],[-83.2837,35.7776],[-83.2787,35.7801],[-83.2736,35.7798],[-83.2677,35.7819],[-83.2673,35.7856],[-83.2712,35.7933],[-83.2679,35.7979],[-83.2637,35.8001],[-83.2624,35.805],[-83.2569,35.8067],[-83.2535,35.8137],[-83.2475,35.8154],[-83.2441,35.8147],[-83.2427,35.8135],[-83.2423,35.8068],[-83.2395,35.806],[-83.2383,35.8087],[-83.2345,35.809],[-83.2344,35.8147],[-83.2316,35.8214],[-83.224,35.8175],[-83.22,35.8186],[-83.215,35.8208],[-83.2144,35.8233],[-83.2112,35.8259],[-83.2052,35.8257],[-83.1939,35.8334],[-83.1939,35.8363],[-83.192,35.8375],[-83.1859,35.8381],[-83.1819,35.8414],[-83.1838,35.8381]],[[-83.5396,35.7481],[-83.5348,35.7469],[-83.5355,35.7425],[-83.5424,35.7387],[-83.5422,35.7411],[-83.5551,35.7343],[-83.5582,35.7301],[-83.5642,35.731],[-83.5853,35.7199],[-83.5939,35.7222],[-83.5973,35.7181],[-83.6022,35.7166],[-83.6207,35.7153],[-83.6265,35.7118],[-83.6292,35.7119],[-83.6269,35.7091],[-83.6264,35.7049],[-83.6218,35.7012],[-83.6238,35.6994],[-83.617,35.6962],[-83.6098,35.6967],[-83.6008,35.7007],[-83.5967,35.6994],[-83.5935,35.7005],[-83.5864,35.6956],[-83.579,35.6965],[-83.5781,35.6951],[-83.5718,35.6968],[-83.5678,35.7002],[-83.5593,35.6974],[-83.5539,35.7003],[-83.5519,35.6986],[-83.5427,35.7027],[-83.5379,35.7023],[-83.5351,35.7041],[-83.5331,35.7028],[-83.5322,35.705],[-83.5345,35.7064],[-83.535,35.7101],[-83.5287,35.7131],[-83.5335,35.714],[-83.5346,35.7158],[-83.5157,35.7244],[-83.52,35.7287],[-83.5218,35.7349],[-83.5251,35.7389],[-83.5249,35.7406],[-83.519,35.7427],[-83.5234,35.7448],[-83.5213,35.7479],[-83.5249,35.7507],[-83.5235,35.7513],[-83.5249,35.7541],[-83.5232,35.758],[-83.5253,35.7623],[-83.534,35.7569],[-83.5323,35.7545],[-83.5396,35.7481]],[[-83.6545,35.6935],[-83.6499,35.6921],[-83.6477,35.6947],[-83.6355,35.6955],[-83.6288,35.7004],[-83.6306,35.705],[-83.6427,35.7116],[-83.6415,35.7127],[-83.6425,35.7152],[-83.6479,35.7209],[-83.6533,35.7192],[-83.6577,35.7212],[-83.6625,35.7213],[-83.6666,35.7179],[-83.6784,35.7131],[-83.6857,35.7068],[-83.6916,35.7057],[-83.6921,35.7042],[-83.6988,35.7048],[-83.7064,35.7097],[-83.7162,35.7125],[-83.7291,35.7095],[-83.7324,35.711],[-83.7363,35.7104],[-83.7384,35.7133],[-83.7426,35.7131],[-83.7448,35.7154],[-83.7441,35.7188],[-83.7453,35.72],[-83.741,35.7258],[-83.7683,35.7155],[-83.7726,35.7157],[-83.7827,35.7126],[-83.7866,35.7099],[-83.7958,35.7073],[-83.7965,35.705],[-83.7989,35.7067],[-83.8155,35.7032],[-83.8176,35.7054],[-83.8156,35.7119],[-83.8163,35.7138],[-83.8231,35.717],[-83.8397,35.7144],[-83.8705,35.6993],[-83.8802,35.6907],[-83.8922,35.6755],[-83.9238,35.6516],[-83.923,35.651],[-83.927,35.6444],[-83.9365,35.6356],[-83.9372,35.6317],[-83.9408,35.6298],[-83.9457,35.6303],[-83.9497,35.626],[-83.9577,35.625],[-83.9631,35.6162],[-83.9738,35.6112],[-83.9876,35.5944],[-83.9944,35.589],[-83.9962,35.5836],[-84.0009,35.578],[-84.0018,35.5628],[-83.9997,35.5586],[-83.9931,35.5635],[-83.9873,35.5735],[-83.984,35.5754],[-83.9803,35.5816],[-83.9801,35.5886],[-83.9763,35.595],[-83.9659,35.5992],[-83.9588,35.5961],[-83.9526,35.5994],[-83.9519,35.5971],[-83.9508,35.5975],[-83.9425,35.607],[-83.9377,35.6092],[-83.9382,35.612],[-83.9359,35.6165],[-83.9383,35.6252],[-83.928,35.6254],[-83.9241,35.6271],[-83.9283,35.6336],[-83.922,35.64],[-83.9143,35.6428],[-83.9122,35.6394],[-83.8948,35.6594],[-83.8842,35.6644],[-83.8814,35.6648],[-83.8779,35.6617],[-83.8744,35.6634],[-83.8722,35.6619],[-83.8686,35.6721],[-83.8645,35.673],[-83.8615,35.6708],[-83.8582,35.6708],[-83.8512,35.6728],[-83.8469,35.6715],[-83.8424,35.6747],[-83.8408,35.6738],[-83.841,35.6715],[-83.8368,35.6689],[-83.8345,35.6722],[-83.8324,35.6726],[-83.8274,35.6688],[-83.8237,35.6583],[-83.8185,35.6566],[-83.8185,35.6536],[-83.8148,35.65],[-83.8076,35.6482],[-83.8028,35.6454],[-83.8,35.6414],[-83.7921,35.6378],[-83.7837,35.6276],[-83.7789,35.6277],[-83.7759,35.6246],[-83.7719,35.6249],[-83.7618,35.6327],[-83.7574,35.6423],[-83.75,35.6432],[-83.7525,35.6444],[-83.75,35.6512],[-83.7368,35.6503],[-83.7358,35.6601],[-83.7246,35.6576],[-83.7238,35.6649],[-83.7214,35.6646],[-83.7189,35.6695],[-83.7131,35.6666],[-83.7095,35.6697],[-83.7065,35.6784],[-83.7049,35.6802],[-83.7019,35.6799],[-83.7006,35.6839],[-83.6858,35.6838],[-83.6796,35.6885],[-83.6724,35.6858],[-83.6718,35.6926],[-83.6684,35.6951],[-83.6568,35.6949],[-83.6545,35.6935]]]]},"properties":{"park":"great_smoky","name":"Great Smoky Mountains National Park","source":"iNaturalist place","place_id":72645,"source_url":"https://www.inaturalist.org/places/72645"}}