{"type":"Feature","geometry":{"type":"MultiPolygon","coordinates":[[[[-106.1711,32.7708],[-106.1789,32.7706],[-106.1754,32.7754],[-106.1739,32.777],[-106.1725,32.778],[-106.1701,32.7795],[-106.1578,32.7857],[-106.1369,32.7858],[-106.1369,32.7709],[-106.1711,32.7708]]],[[[-106.197,32.7448],[-106.197,32.7331],[-106.2063,32.7329],[-106.197,32.7448]]],[[[-106.4283,32.6562],[-106.4282,32.6635],[-106.4453,32.6632],[-106.4453,32.6778],[-106.4623,32.6775],[-106.4623,32.6921],[-106.4793,32.6918],[-106.4792,32.779],[-106.4797,32.8679],[-106.3763,32.8701],[-106.2811,32.8711],[-106.1698,32.8731],[-106.1527,32.8732],[-106.1535,32.8659],[-106.1531,32.8585],[-106.1534,32.8295],[-106.1706,32.8294],[-106.1711,32.7857],[-106.1591,32.7857],[-106.1716,32.7793],[-106.1737,32.7779],[-106.1759,32.7758],[-106.1796,32.7706],[-106.1804,32.7706],[-106.1884,32.7593],[-106.1884,32.7581],[-106.1902,32.7555],[-106.191,32.7555],[-106.1936,32.7517],[-106.1929,32.7517],[-106.1955,32.7479],[-106.1963,32.7479],[-106.197,32.7469],[-106.197,32.7458],[-106.1977,32.7448],[-106.2071,32.7329],[-106.2142,32.7326],[-106.2142,32.7289],[-106.2185,32.7288],[-106.2185,32.7251],[-106.2228,32.725],[-106.2228,32.7213],[-106.2271,32.7212],[-106.2271,32.7175],[-106.2399,32.7173],[-106.24,32.7099],[-106.2742,32.7092],[-106.2742,32.6871],[-106.2913,32.687],[-106.2913,32.6796],[-106.3426,32.6793],[-106.3427,32.6646],[-106.3768,32.6644],[-106.3769,32.657],[-106.4283,32.6562]]]]},"properties":{"park":"white_sands","name":"White Sands National Park","source":"iNaturalist place","place_id":62621,"source_url":"https://www.inaturalist.org/places/62621"}}