{"type":"FeatureCollection","features":[{"type":"Feature","geometry":{"type":"Polygon","coordinates":[[[-106.21065,32.78949],[-106.20933,32.79109],[-106.21035,32.79285],[-106.21269,32.793],[-106.214,32.79139],[-106.21298,32.78964],[-106.21065,32.78949]]]},"properties":{"cell":"8948c2d515bffff","res":9,"coarsened":false,"count":48,"hv":48,"mp":0,"y0":2013,"y1":2026,"sp":[[13,6,6,0,2018,2026],[28,5,5,0,2024,2025],[16,4,4,0,2018,2026],[40,4,4,0,2024,2026],[0,3,3,0,2013,2021],[3,3,3,0,2023,2025],[27,3,3,0,2023,2026],[8,2,2,0,2018,2021],[39,2,2,0,2021,2024],[18,2,2,0,2022,2024],[57,2,2,0,2023,2023],[14,1,1,0,2018,2018],[15,1,1,0,2018,2018],[22,1,1,0,2018,2018],[35,1,1,0,2020,2020],[46,1,1,0,2022,2022],[56,1,1,0,2023,2023],[62,1,1,0,2024,2024],[63,1,1,0,2024,2024],[64,1,1,0,2024,2024],[67,1,1,0,2019,2019],[68,1,1,0,2025,2025],[30,1,1,0,2026,2026]]}},{"type":"Feature","geometry":{"type":"Polygon","coordinates":[[[-106.17289,32.7786],[-106.17158,32.78021],[-106.1726,32.78197],[-106.17493,32.78212],[-106.17624,32.78051],[-106.17523,32.77875],[-106.17289,32.7786]]]},"properties":{"cell":"8948c2d52d7ffff","res":9,"coarsened":false,"count":216,"hv":216,"mp":0,"y0":1988,"y1":2026,"sp":[[1,77,77,0,2014,2026],[18,27,27,0,2019,2026],[20,26,26,0,2017,2026],[38,16,16,0,2022,2026],[3,11,11,0,2014,2026],[32,10,10,0,2020,2026],[26,9,9,0,2019,2023],[27,6,6,0,2019,2023],[41,5,5,0,2021,2026],[33,4,4,0,2020,2024],[31,3,3,0,2020,2023],[50,3,3,0,2023,2025],[10,2,2,0,2022,2025],[51,2,2,0,2023,2023],[52,2,2,0,2026,2026],[2,1,1,0,2014,2014],[4,1,1,0,2014,2014],[12,1,1,0,2018,2018],[17,1,1,0,2018,2018],[25,1,1,0,2007,2007],[21,1,1,0,2021,2021],[44,1,1,0,1988,1988],[47,1,1,0,2022,2022],[55,1,1,0,2023,2023],[30,1,1,0,2023,2023],[57,1,1,0,2024,2024],[66,1,1,0,2025,2025],[70,1,1,0,2026,2026]]}},{"type":"Feature","geometry":{"type":"Polygon","coordinates":[[[-106.193,32.79004],[-106.19169,32.79165],[-106.19271,32.7934],[-106.19504,32.79355],[-106.19636,32.79195],[-106.19534,32.79019],[-106.193,32.79004]]]},"properties":{"cell":"8948c2d53d3ffff","res":9,"coarsened":false,"count":2,"hv":2,"mp":0,"y0":2015,"y1":2021,"sp":[[5,1,1,0,2015,2015],[45,1,1,0,2021,2021]]}},{"type":"Feature","geometry":{"type":"Polygon","coordinates":[[[-106.2,32.79049],[-106.19869,32.7921],[-106.19971,32.79386],[-106.20204,32.79401],[-106.20336,32.7924],[-106.20234,32.79064],[-106.2,32.79049]]]},"properties":{"cell":"8948c2d539bffff","res":9,"coarsened":false,"count":1,"hv":1,"mp":0,"y0":2015,"y1":2015,"sp":[[6,1,1,0,2015,2015]]}},{"type":"Feature","geometry":{"type":"Polygon","coordinates":[[[-106.27524,32.81559],[-106.27393,32.8172],[-106.27495,32.81896],[-106.27729,32.8191],[-106.2786,32.8175],[-106.27758,32.81574],[-106.27524,32.81559]]]},"properties":{"cell":"8948c2d5d17ffff","res":9,"coarsened":false,"count":2,"hv":2,"mp":0,"y0":2015,"y1":2025,"sp":[[7,2,2,0,2015,2025]]}},{"type":"Feature","geometry":{"type":"Polygon","coordinates":[[[-106.32102,32.77456],[-106.31971,32.77616],[-106.32073,32.77792],[-106.32306,32.77807],[-106.32437,32.77646],[-106.32335,32.7747],[-106.32102,32.77456]]]},"properties":{"cell":"8948c2d6a0bffff","res":9,"coarsened":false,"count":1,"hv":1,"mp":0,"y0":2014,"y1":2014,"sp":[[8,1,1,0,2014,2014]]}},{"type":"Feature","geometry":{"type":"Polygon","coordinates":[[[-106.3235,32.78655],[-106.32219,32.78815],[-106.32321,32.78991],[-106.32555,32.79006],[-106.32686,32.78845],[-106.32584,32.78669],[-106.3235,32.78655]]]},"properties":{"cell":"8948c2d4c9bffff","res":9,"coarsened":false,"count":4,"hv":4,"mp":0,"y0":2017,"y1":2026,"sp":[[9,1,1,0,2017,2017],[1,1,1,0,2017,2017],[3,1,1,0,2017,2017],[18,1,1,0,2026,2026]]}},{"type":"Feature","geometry":{"type":"Polygon","coordinates":[[[-106.17624,32.78051],[-106.17493,32.78212],[-106.17595,32.78387],[-106.17828,32.78402],[-106.1796,32.78242],[-106.17858,32.78066],[-106.17624,32.78051]]]},"properties":{"cell":"8948c2d528bffff","res":9,"coarsened":false,"count":1,"hv":1,"mp":0,"y0":2017,"y1":2017,"sp":[[1,1,1,0,2017,2017]]}},{"type":"Feature","geometry":{"type":"Polygon","coordinates":[[[-106.18442,32.76751],[-106.1831,32.76912],[-106.18412,32.77088],[-106.18646,32.77103],[-106.18777,32.76942],[-106.18675,32.76766],[-106.18442,32.76751]]]},"properties":{"cell":"8948c2d5633ffff","res":9,"coarsened":false,"count":1,"hv":1,"mp":0,"y0":2018,"y1":2018,"sp":[[10,1,1,0,2018,2018]]}},{"type":"Feature","geometry":{"type":"Polygon","coordinates":[[[-106.17595,32.78387],[-106.17464,32.78548],[-106.17566,32.78723],[-106.17799,32.78738],[-106.1793,32.78578],[-106.17828,32.78402],[-106.17595,32.78387]]]},"properties":{"cell":"8948c2d5213ffff","res":9,"coarsened":false,"count":1,"hv":1,"mp":0,"y0":2018,"y1":2018,"sp":[[10,1,1,0,2018,2018]]}},{"type":"Feature","geometry":{"type":"Polygon","coordinates":[[[-106.18048,32.77233],[-106.17917,32.77394],[-106.18018,32.77569],[-106.18252,32.77584],[-106.18383,32.77424],[-106.18281,32.77248],[-106.18048,32.77233]]]},"properties":{"cell":"8948c2d562bffff","res":9,"coarsened":false,"count":1,"hv":1,"mp":0,"y0":2018,"y1":2018,"sp":[[10,1,1,0,2018,2018]]}},{"type":"Feature","geometry":{"type":"Polygon","coordinates":[[[-106.17713,32.77042],[-106.17581,32.77203],[-106.17683,32.77379],[-106.17917,32.77394],[-106.18048,32.77233],[-106.17946,32.77058],[-106.17713,32.77042]]]},"properties":{"cell":"8948c2d5677ffff","res":9,"coarsened":false,"count":1,"hv":1,"mp":0,"y0":2018,"y1":2018,"sp":[[11,1,1,0,2018,2018]]}},{"type":"Feature","geometry":{"type":"Polygon","coordinates":[[[-106.18965,32.78814],[-106.18834,32.78974],[-106.18936,32.7915],[-106.19169,32.79165],[-106.193,32.79004],[-106.19199,32.78829],[-106.18965,32.78814]]]},"properties":{"cell":"8948c2d52a7ffff","res":9,"coarsened":false,"count":3,"hv":3,"mp":0,"y0":2018,"y1":2021,"sp":[[14,2,2,0,2018,2018],[37,1,1,0,2021,2021]]}},{"type":"Feature","geometry":{"type":"Polygon","coordinates":[[[-106.16954,32.7767],[-106.16823,32.7783],[-106.16925,32.78006],[-106.17158,32.78021],[-106.17289,32.7786],[-106.17187,32.77685],[-106.16954,32.7767]]]},"properties":{"cell":"8948c2d52d3ffff","res":9,"coarsened":false,"count":17,"hv":17,"mp":0,"y0":2011,"y1":2026,"sp":[[38,5,5,0,2021,2026],[1,4,4,0,2020,2026],[18,1,1,0,2018,2018],[30,1,1,0,2013,2013],[55,1,1,0,2024,2024],[20,1,1,0,2023,2023],[27,1,1,0,2024,2024],[44,1,1,0,2011,2011],[26,1,1,0,2023,2023],[7,1,1,0,2023,2023]]}},{"type":"Feature","geometry":{"type":"Polygon","coordinates":[[[-106.23164,32.79083],[-106.23033,32.79244],[-106.23135,32.7942],[-106.23368,32.79435],[-106.235,32.79274],[-106.23398,32.79098],[-106.23164,32.79083]]]},"properties":{"cell":"8948c2d51abffff","res":9,"coarsened":false,"count":1,"hv":1,"mp":0,"y0":2017,"y1":2017,"sp":[[19,1,1,0,2017,2017]]}},{"type":"Feature","geometry":{"type":"Polygon","coordinates":[[[-106.1726,32.78197],[-106.17129,32.78357],[-106.1723,32.78533],[-106.17464,32.78548],[-106.17595,32.78387],[-106.17493,32.78212],[-106.1726,32.78197]]]},"properties":{"cell":"8948c2d52c7ffff","res":9,"coarsened":false,"count":3,"hv":3,"mp":0,"y0":2014,"y1":2022,"sp":[[1,2,2,0,2014,2018],[38,1,1,0,2022,2022]]}},{"type":"Feature","geometry":{"type":"Polygon","coordinates":[[[-106.18894,32.75597],[-106.18763,32.75758],[-106.18865,32.75933],[-106.19098,32.75948],[-106.1923,32.75788],[-106.19128,32.75612],[-106.18894,32.75597]]]},"properties":{"cell":"8948c2d544bffff","res":9,"coarsened":false,"count":1,"hv":1,"mp":0,"y0":2018,"y1":2018,"sp":[[11,1,1,0,2018,2018]]}},{"type":"Feature","geometry":{"type":"Polygon","coordinates":[[[-106.23864,32.79128],[-106.23733,32.79289],[-106.23835,32.79465],[-106.24068,32.79479],[-106.242,32.79319],[-106.24097,32.79143],[-106.23864,32.79128]]]},"properties":{"cell":"8948c2d51a7ffff","res":9,"coarsened":false,"count":9,"hv":9,"mp":0,"y0":2017,"y1":2023,"sp":[[21,1,1,0,2018,2018],[24,1,1,0,2018,2018],[18,1,1,0,2020,2020],[29,1,1,0,2017,2017],[28,1,1,0,2020,2020],[16,1,1,0,2021,2021],[40,1,1,0,2021,2021],[8,1,1,0,2018,2018],[13,1,1,0,2023,2023]]}},{"type":"Feature","geometry":{"type":"Polygon","coordinates":[[[-106.21006,32.79621],[-106.20875,32.79782],[-106.20977,32.79957],[-106.2121,32.79972],[-106.21341,32.79812],[-106.21239,32.79636],[-106.21006,32.79621]]]},"properties":{"cell":"8948c2d53b3ffff","res":9,"coarsened":false,"count":4,"hv":4,"mp":0,"y0":2018,"y1":2023,"sp":[[2,2,2,0,2019,2019],[23,1,1,0,2018,2018],[3,1,1,0,2023,2023]]}},{"type":"Feature","geometry":{"type":"Polygon","coordinates":[[[-106.26489,32.81324],[-106.26358,32.81485],[-106.2646,32.81661],[-106.26693,32.81675],[-106.26824,32.81515],[-106.26722,32.81339],[-106.26489,32.81324]]]},"properties":{"cell":"8948c2d5dcfffff","res":9,"coarsened":false,"count":2,"hv":2,"mp":0,"y0":2019,"y1":2019,"sp":[[21,2,2,0,2019,2019]]}},{"type":"Feature","geometry":{"type":"Polygon","coordinates":[[[-106.22406,32.79711],[-106.22275,32.79872],[-106.22377,32.80047],[-106.2261,32.80062],[-106.22741,32.79902],[-106.22639,32.79726],[-106.22406,32.79711]]]},"properties":{"cell":"8948c2d5177ffff","res":9,"coarsened":false,"count":1,"hv":1,"mp":0,"y0":2009,"y1":2009,"sp":[[23,1,1,0,2009,2009]]}},{"type":"Feature","geometry":{"type":"Polygon","coordinates":[[[-106.18836,32.7627],[-106.18704,32.7643],[-106.18806,32.76606],[-106.1904,32.76621],[-106.19171,32.7646],[-106.19069,32.76285],[-106.18836,32.7627]]]},"properties":{"cell":"8948c2d56a3ffff","res":9,"coarsened":false,"count":1,"hv":1,"mp":0,"y0":2018,"y1":2018,"sp":[[26,1,1,0,2018,2018]]}},{"type":"Feature","geometry":{"type":"Polygon","coordinates":[[[-106.23835,32.79465],[-106.23704,32.79625],[-106.23806,32.79801],[-106.24039,32.79816],[-106.2417,32.79655],[-106.24068,32.79479],[-106.23835,32.79465]]]},"properties":{"cell":"8948c2d5cdbffff","res":9,"coarsened":false,"count":11,"hv":11,"mp":0,"y0":2019,"y1":2023,"sp":[[30,3,3,0,2023,2023],[13,2,2,0,2019,2021],[19,2,2,0,2023,2023],[36,1,1,0,2021,2021],[18,1,1,0,2021,2021],[28,1,1,0,2022,2022],[37,1,1,0,2022,2022]]}},{"type":"Feature","geometry":{"type":"Polygon","coordinates":[[[-106.19024,32.78141],[-106.18893,32.78302],[-106.18995,32.78477],[-106.19228,32.78493],[-106.19359,32.78332],[-106.19257,32.78156],[-106.19024,32.78141]]]},"properties":{"cell":"8948c2d504fffff","res":9,"coarsened":false,"count":1,"hv":1,"mp":0,"y0":2019,"y1":2019,"sp":[[1,1,1,0,2019,2019]]}},{"type":"Feature","geometry":{"type":"Polygon","coordinates":[[[-106.26547,32.80652],[-106.26416,32.80813],[-106.26518,32.80988],[-106.26751,32.81003],[-106.26883,32.80842],[-106.2678,32.80667],[-106.26547,32.80652]]]},"properties":{"cell":"8948c2d5dd3ffff","res":9,"coarsened":false,"count":2,"hv":2,"mp":0,"y0":2019,"y1":2025,"sp":[[21,1,1,0,2019,2019],[7,1,1,0,2025,2025]]}},{"type":"Feature","geometry":{"type":"Polygon","coordinates":[[[-106.22845,32.74668],[-106.22714,32.74828],[-106.22816,32.75004],[-106.23049,32.75019],[-106.2318,32.74858],[-106.23078,32.74683],[-106.22845,32.74668]]]},"properties":{"cell":"8948c2d730fffff","res":9,"coarsened":false,"count":1,"hv":1,"mp":0,"y0":2017,"y1":2017,"sp":[[1,1,1,0,2017,2017]]}},{"type":"Feature","geometry":{"type":"Polygon","coordinates":[[[-106.24141,32.79991],[-106.2401,32.80152],[-106.24112,32.80327],[-106.24345,32.80342],[-106.24476,32.80182],[-106.24374,32.80006],[-106.24141,32.79991]]]},"properties":{"cell":"8948c2d5ccfffff","res":9,"coarsened":false,"count":1,"hv":1,"mp":0,"y0":2020,"y1":2020,"sp":[[28,1,1,0,2020,2020]]}},{"type":"Feature","geometry":{"type":"Polygon","coordinates":[[[-106.1933,32.78668],[-106.19199,32.78829],[-106.193,32.79004],[-106.19534,32.79019],[-106.19665,32.78859],[-106.19563,32.78683],[-106.1933,32.78668]]]},"properties":{"cell":"8948c2d506bffff","res":9,"coarsened":false,"count":7,"hv":7,"mp":0,"y0":2020,"y1":2025,"sp":[[37,2,2,0,2021,2025],[28,1,1,0,2020,2020],[19,1,1,0,2023,2023],[1,1,1,0,2024,2024],[18,1,1,0,2024,2024],[38,1,1,0,2024,2024]]}},{"type":"Feature","geometry":{"type":"Polygon","coordinates":[[[-106.23252,32.78075],[-106.23121,32.78236],[-106.23223,32.78411],[-106.23456,32.78426],[-106.23587,32.78265],[-106.23485,32.7809],[-106.23252,32.78075]]]},"properties":{"cell":"8948c2d5197ffff","res":9,"coarsened":false,"count":1,"hv":1,"mp":0,"y0":2007,"y1":2007,"sp":[[3,1,1,0,2007,2007]]}},{"type":"Feature","geometry":{"type":"Polygon","coordinates":[[[-106.26183,32.80798],[-106.26051,32.80958],[-106.26153,32.81134],[-106.26387,32.81149],[-106.26518,32.80988],[-106.26416,32.80813],[-106.26183,32.80798]]]},"properties":{"cell":"8948c2d5ddbffff","res":9,"coarsened":false,"count":6,"hv":6,"mp":0,"y0":2020,"y1":2026,"sp":[[5,2,2,0,2026,2026],[21,1,1,0,2020,2020],[3,1,1,0,2026,2026],[40,1,1,0,2026,2026],[39,1,1,0,2026,2026]]}},{"type":"Feature","geometry":{"type":"Polygon","coordinates":[[[-106.30747,32.80919],[-106.30616,32.8108],[-106.30718,32.81256],[-106.30952,32.8127],[-106.31083,32.8111],[-106.30981,32.80934],[-106.30747,32.80919]]]},"properties":{"cell":"8948c2d4eafffff","res":9,"coarsened":false,"count":1,"hv":1,"mp":0,"y0":2020,"y1":2020,"sp":[[33,1,1,0,2020,2020]]}},{"type":"Feature","geometry":{"type":"Polygon","coordinates":[[[-106.27131,32.82041],[-106.26999,32.82202],[-106.27101,32.82377],[-106.27335,32.82392],[-106.27466,32.82232],[-106.27364,32.82056],[-106.27131,32.82041]]]},"properties":{"cell":"8948c2d5d0fffff","res":9,"coarsened":false,"count":6,"hv":6,"mp":0,"y0":2020,"y1":2025,"sp":[[34,2,2,0,2020,2020],[45,1,1,0,2023,2023],[7,1,1,0,2023,2023],[3,1,1,0,2025,2025],[21,1,1,0,2025,2025]]}},{"type":"Feature","geometry":{"type":"Polygon","coordinates":[[[-106.214,32.79139],[-106.21269,32.793],[-106.21371,32.79476],[-106.21604,32.7949],[-106.21735,32.7933],[-106.21633,32.79154],[-106.214,32.79139]]]},"properties":{"cell":"8948c2d5143ffff","res":9,"coarsened":false,"count":7,"hv":7,"mp":0,"y0":2020,"y1":2024,"sp":[[9,1,1,0,2020,2020],[3,1,1,0,2023,2023],[21,1,1,0,2024,2024],[2,1,1,0,2024,2024],[27,1,1,0,2024,2024],[61,1,1,0,2024,2024],[65,1,1,0,2024,2024]]}},{"type":"Feature","geometry":{"type":"Polygon","coordinates":[[[-106.24535,32.79509],[-106.24404,32.7967],[-106.24506,32.79846],[-106.24739,32.7986],[-106.2487,32.797],[-106.24768,32.79524],[-106.24535,32.79509]]]},"properties":{"cell":"8948c2d5cd7ffff","res":9,"coarsened":false,"count":1,"hv":1,"mp":0,"y0":2020,"y1":2020,"sp":[[30,1,1,0,2020,2020]]}},{"type":"Feature","geometry":{"type":"Polygon","coordinates":[[[-106.3286,32.76827],[-106.32729,32.76988],[-106.32831,32.77164],[-106.33064,32.77179],[-106.33195,32.77018],[-106.33093,32.76842],[-106.3286,32.76827]]]},"properties":{"cell":"8948c2d6a8fffff","res":9,"coarsened":false,"count":2,"hv":2,"mp":0,"y0":2020,"y1":2026,"sp":[[36,1,1,0,2020,2020],[18,1,1,0,2026,2026]]}},{"type":"Feature","geometry":{"type":"Polygon","coordinates":[[[-106.31286,32.78756],[-106.31155,32.78917],[-106.31257,32.79092],[-106.3149,32.79107],[-106.31621,32.78947],[-106.31519,32.78771],[-106.31286,32.78756]]]},"properties":{"cell":"8948c2d4cdbffff","res":9,"coarsened":false,"count":1,"hv":1,"mp":0,"y0":2020,"y1":2020,"sp":[[18,1,1,0,2020,2020]]}},{"type":"Feature","geometry":{"type":"Polygon","coordinates":[[[-106.21823,32.78321],[-106.21692,32.78482],[-106.21794,32.78658],[-106.22027,32.78672],[-106.22158,32.78512],[-106.22056,32.78336],[-106.21823,32.78321]]]},"properties":{"cell":"8948c2d51c3ffff","res":9,"coarsened":false,"count":2,"hv":2,"mp":0,"y0":2021,"y1":2026,"sp":[[37,1,1,0,2021,2021],[71,1,1,0,2026,2026]]}},{"type":"Feature","geometry":{"type":"Polygon","coordinates":[[[-106.3305,32.78699],[-106.32919,32.7886],[-106.33021,32.79035],[-106.33255,32.7905],[-106.33386,32.78889],[-106.33284,32.78714],[-106.3305,32.78699]]]},"properties":{"cell":"8948c2d4c97ffff","res":9,"coarsened":false,"count":1,"hv":1,"mp":0,"y0":2021,"y1":2021,"sp":[[37,1,1,0,2021,2021]]}},{"type":"Feature","geometry":{"type":"Polygon","coordinates":[[[-106.21429,32.78803],[-106.21298,32.78964],[-106.214,32.79139],[-106.21633,32.79154],[-106.21765,32.78994],[-106.21663,32.78818],[-106.21429,32.78803]]]},"properties":{"cell":"8948c2d5153ffff","res":9,"coarsened":false,"count":12,"hv":12,"mp":0,"y0":2021,"y1":2026,"sp":[[40,7,7,0,2021,2026],[37,1,1,0,2023,2023],[55,1,1,0,2024,2024],[10,1,1,0,2025,2025],[36,1,1,0,2026,2026],[18,1,1,0,2026,2026]]}},{"type":"Feature","geometry":{"type":"Polygon","coordinates":[[[-106.30789,32.76358],[-106.30658,32.76519],[-106.3076,32.76694],[-106.30994,32.76709],[-106.31125,32.76548],[-106.31023,32.76373],[-106.30789,32.76358]]]},"properties":{"cell":"8948c2d4533ffff","res":9,"coarsened":false,"count":2,"hv":2,"mp":0,"y0":2021,"y1":2022,"sp":[[1,1,1,0,2021,2021],[13,1,1,0,2022,2022]]}},{"type":"Feature","geometry":{"type":"Polygon","coordinates":[[[-106.25847,32.80607],[-106.25716,32.80768],[-106.25818,32.80944],[-106.26051,32.80958],[-106.26183,32.80798],[-106.2608,32.80622],[-106.25847,32.80607]]]},"properties":{"cell":"8948c2d5cafffff","res":9,"coarsened":false,"count":1,"hv":1,"mp":0,"y0":2021,"y1":2021,"sp":[[13,1,1,0,2021,2021]]}},{"type":"Feature","geometry":{"type":"Polygon","coordinates":[[[-106.23529,32.78938],[-106.23398,32.79098],[-106.235,32.79274],[-106.23733,32.79289],[-106.23864,32.79128],[-106.23762,32.78953],[-106.23529,32.78938]]]},"properties":{"cell":"8948c2d51a3ffff","res":9,"coarsened":false,"count":4,"hv":4,"mp":0,"y0":2021,"y1":2026,"sp":[[16,2,2,0,2021,2021],[40,1,1,0,2021,2021],[13,1,1,0,2026,2026]]}},{"type":"Feature","geometry":{"type":"Polygon","coordinates":[[[-106.235,32.79274],[-106.23368,32.79435],[-106.2347,32.7961],[-106.23704,32.79625],[-106.23835,32.79465],[-106.23733,32.79289],[-106.235,32.79274]]]},"properties":{"cell":"8948c2d51afffff","res":9,"coarsened":false,"count":1,"hv":1,"mp":0,"y0":2021,"y1":2021,"sp":[[42,1,1,0,2021,2021]]}},{"type":"Feature","geometry":{"type":"Polygon","coordinates":[[[-106.16925,32.78006],[-106.16793,32.78166],[-106.16895,32.78342],[-106.17129,32.78357],[-106.1726,32.78197],[-106.17158,32.78021],[-106.16925,32.78006]]]},"properties":{"cell":"8948c2d52c3ffff","res":9,"coarsened":false,"count":6,"hv":6,"mp":0,"y0":2021,"y1":2026,"sp":[[43,1,1,0,2021,2021],[33,1,1,0,2021,2021],[27,1,1,0,2022,2022],[38,1,1,0,2023,2023],[58,1,1,0,2024,2024],[3,1,1,0,2026,2026]]}},{"type":"Feature","geometry":{"type":"Polygon","coordinates":[[[-106.26153,32.81134],[-106.26022,32.81295],[-106.26124,32.8147],[-106.26358,32.81485],[-106.26489,32.81324],[-106.26387,32.81149],[-106.26153,32.81134]]]},"properties":{"cell":"8948c2d5dcbffff","res":9,"coarsened":false,"count":2,"hv":2,"mp":0,"y0":2021,"y1":2025,"sp":[[21,2,2,0,2021,2025]]}},{"type":"Feature","geometry":{"type":"Polygon","coordinates":[[[-106.25541,32.80081],[-106.2541,32.80241],[-106.25512,32.80417],[-106.25745,32.80432],[-106.25876,32.80271],[-106.25774,32.80096],[-106.25541,32.80081]]]},"properties":{"cell":"8948c2d5cbbffff","res":9,"coarsened":false,"count":2,"hv":2,"mp":0,"y0":2021,"y1":2023,"sp":[[13,1,1,0,2021,2021],[8,1,1,0,2023,2023]]}},{"type":"Feature","geometry":{"type":"Polygon","coordinates":[[[-106.26999,32.79498],[-106.26868,32.79658],[-106.2697,32.79834],[-106.27203,32.79849],[-106.27335,32.79688],[-106.27232,32.79513],[-106.26999,32.79498]]]},"properties":{"cell":"8948c2d430bffff","res":9,"coarsened":false,"count":1,"hv":1,"mp":0,"y0":2022,"y1":2022,"sp":[[28,1,1,0,2022,2022]]}},{"type":"Feature","geometry":{"type":"Polygon","coordinates":[[[-106.26518,32.80988],[-106.26387,32.81149],[-106.26489,32.81324],[-106.26722,32.81339],[-106.26853,32.81179],[-106.26751,32.81003],[-106.26518,32.80988]]]},"properties":{"cell":"8948c2d5dc3ffff","res":9,"coarsened":false,"count":1,"hv":1,"mp":0,"y0":2015,"y1":2015,"sp":[[13,1,1,0,2015,2015]]}},{"type":"Feature","geometry":{"type":"Polygon","coordinates":[[[-106.26212,32.72347],[-106.26081,32.72508],[-106.26183,32.72683],[-106.26416,32.72698],[-106.26547,32.72538],[-106.26445,32.72362],[-106.26212,32.72347]]]},"properties":{"cell":"8948c2d7197ffff","res":9,"coarsened":false,"count":1,"hv":1,"mp":0,"y0":2022,"y1":2022,"sp":[[26,1,1,0,2022,2022]]}},{"type":"Feature","geometry":{"type":"Polygon","coordinates":[[[-106.24622,32.78501],[-106.24491,32.78661],[-106.24593,32.78837],[-106.24827,32.78852],[-106.24958,32.78691],[-106.24856,32.78516],[-106.24622,32.78501]]]},"properties":{"cell":"8948c2d4273ffff","res":9,"coarsened":false,"count":1,"hv":1,"mp":0,"y0":2007,"y1":2007,"sp":[[18,1,1,0,2007,2007]]}},{"type":"Feature","geometry":{"type":"Polygon","coordinates":[[[-106.242,32.79319],[-106.24068,32.79479],[-106.2417,32.79655],[-106.24404,32.7967],[-106.24535,32.79509],[-106.24433,32.79334],[-106.242,32.79319]]]},"properties":{"cell":"8948c2d5cd3ffff","res":9,"coarsened":false,"count":2,"hv":2,"mp":0,"y0":2022,"y1":2026,"sp":[[37,1,1,0,2022,2022],[13,1,1,0,2026,2026]]}},{"type":"Feature","geometry":{"type":"Polygon","coordinates":[[[-106.27831,32.82086],[-106.27699,32.82247],[-106.27802,32.82422],[-106.28035,32.82437],[-106.28166,32.82276],[-106.28064,32.82101],[-106.27831,32.82086]]]},"properties":{"cell":"8948c2d5d33ffff","res":9,"coarsened":false,"count":1,"hv":1,"mp":0,"y0":2022,"y1":2022,"sp":[[37,1,1,0,2022,2022]]}},{"type":"Feature","geometry":{"type":"Polygon","coordinates":[[[-106.28895,32.81985],[-106.28764,32.82145],[-106.28866,32.82321],[-106.291,32.82336],[-106.29231,32.82175],[-106.29129,32.82],[-106.28895,32.81985]]]},"properties":{"cell":"8948c2d4ad3ffff","res":9,"coarsened":false,"count":1,"hv":1,"mp":0,"y0":2022,"y1":2022,"sp":[[24,1,1,0,2022,2022]]}},{"type":"Feature","geometry":{"type":"Polygon","coordinates":[[[-106.21094,32.78613],[-106.20963,32.78773],[-106.21065,32.78949],[-106.21298,32.78964],[-106.21429,32.78803],[-106.21327,32.78628],[-106.21094,32.78613]]]},"properties":{"cell":"8948c2d5027ffff","res":9,"coarsened":false,"count":4,"hv":4,"mp":0,"y0":2022,"y1":2025,"sp":[[16,1,1,0,2022,2022],[30,1,1,0,2022,2022],[28,1,1,0,2024,2024],[0,1,1,0,2025,2025]]}},{"type":"Feature","geometry":{"type":"Polygon","coordinates":[[[-106.24593,32.78837],[-106.24462,32.78998],[-106.24564,32.79173],[-106.24797,32.79188],[-106.24929,32.79027],[-106.24827,32.78852],[-106.24593,32.78837]]]},"properties":{"cell":"8948c2d4263ffff","res":9,"coarsened":false,"count":1,"hv":1,"mp":0,"y0":2022,"y1":2022,"sp":[[30,1,1,0,2022,2022]]}},{"type":"Feature","geometry":{"type":"Polygon","coordinates":[[[-106.21706,32.79666],[-106.21575,32.79827],[-106.21677,32.80002],[-106.2191,32.80017],[-106.22041,32.79857],[-106.21939,32.79681],[-106.21706,32.79666]]]},"properties":{"cell":"8948c2d517bffff","res":9,"coarsened":false,"count":1,"hv":1,"mp":0,"y0":2022,"y1":2022,"sp":[[32,1,1,0,2022,2022]]}},{"type":"Feature","geometry":{"type":"Polygon","coordinates":[[[-106.24229,32.78983],[-106.24097,32.79143],[-106.242,32.79319],[-106.24433,32.79334],[-106.24564,32.79173],[-106.24462,32.78998],[-106.24229,32.78983]]]},"properties":{"cell":"8948c2d426bffff","res":9,"coarsened":false,"count":1,"hv":1,"mp":0,"y0":2022,"y1":2022,"sp":[[30,1,1,0,2022,2022]]}},{"type":"Feature","geometry":{"type":"Polygon","coordinates":[[[-106.20977,32.79957],[-106.20845,32.80118],[-106.20947,32.80293],[-106.21181,32.80308],[-106.21312,32.80148],[-106.2121,32.79972],[-106.20977,32.79957]]]},"properties":{"cell":"8948c2d53a3ffff","res":9,"coarsened":false,"count":4,"hv":4,"mp":0,"y0":2022,"y1":2023,"sp":[[28,4,4,0,2022,2023]]}},{"type":"Feature","geometry":{"type":"Polygon","coordinates":[[[-106.20336,32.7924],[-106.20204,32.79401],[-106.20306,32.79576],[-106.2054,32.79591],[-106.20671,32.79431],[-106.20569,32.79255],[-106.20336,32.7924]]]},"properties":{"cell":"8948c2d5383ffff","res":9,"coarsened":false,"count":1,"hv":1,"mp":0,"y0":2022,"y1":2022,"sp":[[37,1,1,0,2022,2022]]}},{"type":"Feature","geometry":{"type":"Polygon","coordinates":[[[-106.16895,32.78342],[-106.16764,32.78503],[-106.16866,32.78678],[-106.17099,32.78693],[-106.1723,32.78533],[-106.17129,32.78357],[-106.16895,32.78342]]]},"properties":{"cell":"8948c2d52cfffff","res":9,"coarsened":false,"count":1,"hv":1,"mp":0,"y0":2023,"y1":2023,"sp":[[18,1,1,0,2023,2023]]}},{"type":"Feature","geometry":{"type":"Polygon","coordinates":[[[-106.2977,32.80012],[-106.29639,32.80173],[-106.29741,32.80348],[-106.29974,32.80363],[-106.30105,32.80203],[-106.30003,32.80027],[-106.2977,32.80012]]]},"properties":{"cell":"8948c2d4e8bffff","res":9,"coarsened":false,"count":1,"hv":1,"mp":0,"y0":2023,"y1":2023,"sp":[[3,1,1,0,2023,2023]]}},{"type":"Feature","geometry":{"type":"Polygon","coordinates":[[[-106.21735,32.7933],[-106.21604,32.7949],[-106.21706,32.79666],[-106.21939,32.79681],[-106.22071,32.7952],[-106.21969,32.79345],[-106.21735,32.7933]]]},"properties":{"cell":"8948c2d5147ffff","res":9,"coarsened":false,"count":1,"hv":1,"mp":0,"y0":2023,"y1":2023,"sp":[[30,1,1,0,2023,2023]]}},{"type":"Feature","geometry":{"type":"Polygon","coordinates":[[[-106.29783,32.75787],[-106.29652,32.75948],[-106.29754,32.76123],[-106.29987,32.76138],[-106.30119,32.75977],[-106.30016,32.75802],[-106.29783,32.75787]]]},"properties":{"cell":"8948c2d451bffff","res":9,"coarsened":false,"count":1,"hv":1,"mp":0,"y0":2023,"y1":2023,"sp":[[48,1,1,0,2023,2023]]}},{"type":"Feature","geometry":{"type":"Polygon","coordinates":[[[-106.1796,32.78242],[-106.17828,32.78402],[-106.1793,32.78578],[-106.18164,32.78593],[-106.18295,32.78432],[-106.18193,32.78257],[-106.1796,32.78242]]]},"properties":{"cell":"8948c2d528fffff","res":9,"coarsened":false,"count":2,"hv":2,"mp":0,"y0":2023,"y1":2025,"sp":[[30,1,1,0,2023,2023],[37,1,1,0,2025,2025]]}},{"type":"Feature","geometry":{"type":"Polygon","coordinates":[[[-106.228,32.79229],[-106.22668,32.7939],[-106.2277,32.79565],[-106.23004,32.7958],[-106.23135,32.7942],[-106.23033,32.79244],[-106.228,32.79229]]]},"properties":{"cell":"8948c2d5107ffff","res":9,"coarsened":false,"count":1,"hv":1,"mp":0,"y0":2023,"y1":2023,"sp":[[26,1,1,0,2023,2023]]}},{"type":"Feature","geometry":{"type":"Polygon","coordinates":[[[-106.27189,32.81369],[-106.27058,32.8153],[-106.2716,32.81705],[-106.27393,32.8172],[-106.27524,32.81559],[-106.27422,32.81384],[-106.27189,32.81369]]]},"properties":{"cell":"8948c2d5d13ffff","res":9,"coarsened":false,"count":1,"hv":1,"mp":0,"y0":2023,"y1":2023,"sp":[[49,1,1,0,2023,2023]]}},{"type":"Feature","geometry":{"type":"Polygon","coordinates":[[[-106.33444,32.78217],[-106.33313,32.78378],[-106.33415,32.78553],[-106.33648,32.78568],[-106.33779,32.78407],[-106.33677,32.78232],[-106.33444,32.78217]]]},"properties":{"cell":"8948c2d6a27ffff","res":9,"coarsened":false,"count":1,"hv":1,"mp":0,"y0":2023,"y1":2023,"sp":[[1,1,1,0,2023,2023]]}},{"type":"Feature","geometry":{"type":"Polygon","coordinates":[[[-106.21035,32.79285],[-106.20904,32.79446],[-106.21006,32.79621],[-106.21239,32.79636],[-106.21371,32.79476],[-106.21269,32.793],[-106.21035,32.79285]]]},"properties":{"cell":"8948c2d514bffff","res":9,"coarsened":false,"count":8,"hv":8,"mp":0,"y0":2023,"y1":2026,"sp":[[3,3,3,0,2025,2026],[18,2,2,0,2023,2025],[32,1,1,0,2023,2023],[10,1,1,0,2023,2023],[30,1,1,0,2025,2025]]}},{"type":"Feature","geometry":{"type":"Polygon","coordinates":[[[-106.31534,32.79955],[-106.31403,32.80116],[-106.31505,32.80291],[-106.31739,32.80306],[-106.3187,32.80145],[-106.31768,32.7997],[-106.31534,32.79955]]]},"properties":{"cell":"8948c2d4c47ffff","res":9,"coarsened":false,"count":1,"hv":1,"mp":0,"y0":2023,"y1":2023,"sp":[[13,1,1,0,2023,2023]]}},{"type":"Feature","geometry":{"type":"Polygon","coordinates":[[[-106.2786,32.8175],[-106.27729,32.8191],[-106.27831,32.82086],[-106.28064,32.82101],[-106.28195,32.8194],[-106.28093,32.81765],[-106.2786,32.8175]]]},"properties":{"cell":"8948c2d5dabffff","res":9,"coarsened":false,"count":3,"hv":3,"mp":0,"y0":2023,"y1":2024,"sp":[[45,1,1,0,2023,2023],[52,1,1,0,2023,2023],[7,1,1,0,2024,2024]]}},{"type":"Feature","geometry":{"type":"Polygon","coordinates":[[[-106.28224,32.81604],[-106.28093,32.81765],[-106.28195,32.8194],[-106.28429,32.81955],[-106.2856,32.81794],[-106.28458,32.81619],[-106.28224,32.81604]]]},"properties":{"cell":"8948c2d5da3ffff","res":9,"coarsened":false,"count":1,"hv":1,"mp":0,"y0":2023,"y1":2023,"sp":[[5,1,1,0,2023,2023]]}},{"type":"Feature","geometry":{"type":"Polygon","coordinates":[[[-106.26372,32.82669],[-106.26241,32.8283],[-106.26343,32.83005],[-106.26576,32.8302],[-106.26708,32.82859],[-106.26606,32.82684],[-106.26372,32.82669]]]},"properties":{"cell":"8948c2d5d6bffff","res":9,"coarsened":false,"count":2,"hv":2,"mp":0,"y0":2023,"y1":2023,"sp":[[53,1,1,0,2023,2023],[52,1,1,0,2023,2023]]}},{"type":"Feature","geometry":{"type":"Polygon","coordinates":[[[-106.26401,32.82333],[-106.2627,32.82493],[-106.26372,32.82669],[-106.26606,32.82684],[-106.26737,32.82523],[-106.26635,32.82348],[-106.26401,32.82333]]]},"properties":{"cell":"8948c2d5d7bffff","res":9,"coarsened":false,"count":1,"hv":1,"mp":0,"y0":2023,"y1":2023,"sp":[[53,1,1,0,2023,2023]]}},{"type":"Feature","geometry":{"type":"Polygon","coordinates":[[[-106.26431,32.81997],[-106.26299,32.82157],[-106.26401,32.82333],[-106.26635,32.82348],[-106.26766,32.82187],[-106.26664,32.82012],[-106.26431,32.81997]]]},"properties":{"cell":"8948c2d5d47ffff","res":9,"coarsened":false,"count":1,"hv":1,"mp":0,"y0":2023,"y1":2023,"sp":[[54,1,1,0,2023,2023]]}},{"type":"Feature","geometry":{"type":"Polygon","coordinates":[[[-106.18236,32.79105],[-106.18105,32.79265],[-106.18207,32.79441],[-106.1844,32.79456],[-106.18571,32.79295],[-106.18469,32.7912],[-106.18236,32.79105]]]},"properties":{"cell":"8948c2d5233ffff","res":9,"coarsened":false,"count":1,"hv":1,"mp":0,"y0":2023,"y1":2023,"sp":[[37,1,1,0,2023,2023]]}},{"type":"Feature","geometry":{"type":"Polygon","coordinates":[[[-106.207,32.79094],[-106.20569,32.79255],[-106.20671,32.79431],[-106.20904,32.79446],[-106.21035,32.79285],[-106.20933,32.79109],[-106.207,32.79094]]]},"properties":{"cell":"8948c2d5397ffff","res":9,"coarsened":false,"count":1,"hv":1,"mp":0,"y0":2023,"y1":2023,"sp":[[56,1,1,0,2023,2023]]}},{"type":"Feature","geometry":{"type":"Polygon","coordinates":[[[-106.23106,32.79756],[-106.22975,32.79916],[-106.23077,32.80092],[-106.2331,32.80107],[-106.23441,32.79946],[-106.23339,32.79771],[-106.23106,32.79756]]]},"properties":{"cell":"8948c2d5123ffff","res":9,"coarsened":false,"count":3,"hv":3,"mp":0,"y0":2023,"y1":2023,"sp":[[3,1,1,0,2023,2023],[1,1,1,0,2023,2023],[13,1,1,0,2023,2023]]}},{"type":"Feature","geometry":{"type":"Polygon","coordinates":[[[-106.18018,32.77569],[-106.17887,32.7773],[-106.17989,32.77906],[-106.18222,32.77921],[-106.18354,32.7776],[-106.18252,32.77584],[-106.18018,32.77569]]]},"properties":{"cell":"8948c2d5293ffff","res":9,"coarsened":false,"count":1,"hv":1,"mp":0,"y0":2023,"y1":2023,"sp":[[30,1,1,0,2023,2023]]}},{"type":"Feature","geometry":{"type":"Polygon","coordinates":[[[-106.25789,32.8128],[-106.25658,32.8144],[-106.2576,32.81616],[-106.25993,32.81631],[-106.26124,32.8147],[-106.26022,32.81295],[-106.25789,32.8128]]]},"properties":{"cell":"8948c2d5c27ffff","res":9,"coarsened":false,"count":2,"hv":2,"mp":0,"y0":2023,"y1":2025,"sp":[[3,2,2,0,2023,2025]]}},{"type":"Feature","geometry":{"type":"Polygon","coordinates":[[[-106.1863,32.78623],[-106.18499,32.78784],[-106.18601,32.78959],[-106.18834,32.78974],[-106.18965,32.78814],[-106.18863,32.78638],[-106.1863,32.78623]]]},"properties":{"cell":"8948c2d52a3ffff","res":9,"coarsened":false,"count":2,"hv":2,"mp":0,"y0":2024,"y1":2024,"sp":[[37,2,2,0,2024,2024]]}},{"type":"Feature","geometry":{"type":"Polygon","coordinates":[[[-106.26824,32.81515],[-106.26693,32.81675],[-106.26795,32.81851],[-106.27028,32.81866],[-106.2716,32.81705],[-106.27058,32.8153],[-106.26824,32.81515]]]},"properties":{"cell":"8948c2d5d1bffff","res":9,"coarsened":false,"count":2,"hv":2,"mp":0,"y0":2022,"y1":2022,"sp":[[7,2,2,0,2022,2022]]}},{"type":"Feature","geometry":{"type":"Polygon","coordinates":[[[-106.33461,32.82105],[-106.3333,32.82266],[-106.33432,32.82442],[-106.33665,32.82456],[-106.33796,32.82296],[-106.33694,32.8212],[-106.33461,32.82105]]]},"properties":{"cell":"8948c2d48a7ffff","res":9,"coarsened":false,"count":1,"hv":1,"mp":0,"y0":2024,"y1":2024,"sp":[[7,1,1,0,2024,2024]]}},{"type":"Feature","geometry":{"type":"Polygon","coordinates":[[[-106.22041,32.79857],[-106.2191,32.80017],[-106.22012,32.80193],[-106.22245,32.80208],[-106.22377,32.80047],[-106.22275,32.79872],[-106.22041,32.79857]]]},"properties":{"cell":"8948c2d5163ffff","res":9,"coarsened":false,"count":1,"hv":1,"mp":0,"y0":2024,"y1":2024,"sp":[[21,1,1,0,2024,2024]]}},{"type":"Feature","geometry":{"type":"Polygon","coordinates":[[[-106.19682,32.74634],[-106.19551,32.74794],[-106.19653,32.7497],[-106.19886,32.74985],[-106.20017,32.74824],[-106.19915,32.74649],[-106.19682,32.74634]]]},"properties":{"cell":"8948c2d54c3ffff","res":9,"coarsened":false,"count":1,"hv":1,"mp":0,"y0":2023,"y1":2023,"sp":[[55,1,1,0,2023,2023]]}},{"type":"Feature","geometry":{"type":"Polygon","coordinates":[[[-106.1793,32.78578],[-106.17799,32.78738],[-106.17901,32.78914],[-106.18134,32.78929],[-106.18265,32.78769],[-106.18164,32.78593],[-106.1793,32.78578]]]},"properties":{"cell":"8948c2d5217ffff","res":9,"coarsened":false,"count":1,"hv":1,"mp":0,"y0":2024,"y1":2024,"sp":[[37,1,1,0,2024,2024]]}},{"type":"Feature","geometry":{"type":"Polygon","coordinates":[[[-106.2716,32.81705],[-106.27028,32.81866],[-106.27131,32.82041],[-106.27364,32.82056],[-106.27495,32.81896],[-106.27393,32.8172],[-106.2716,32.81705]]]},"properties":{"cell":"8948c2d5d03ffff","res":9,"coarsened":false,"count":2,"hv":2,"mp":0,"y0":2007,"y1":2024,"sp":[[7,2,2,0,2007,2024]]}},{"type":"Feature","geometry":{"type":"Polygon","coordinates":[[[-106.24506,32.79846],[-106.24374,32.80006],[-106.24476,32.80182],[-106.2471,32.80197],[-106.24841,32.80036],[-106.24739,32.7986],[-106.24506,32.79846]]]},"properties":{"cell":"8948c2d5cc7ffff","res":9,"coarsened":false,"count":2,"hv":2,"mp":0,"y0":2024,"y1":2026,"sp":[[59,1,1,0,2024,2024],[9,1,1,0,2026,2026]]}},{"type":"Feature","geometry":{"type":"Polygon","coordinates":[[[-106.17654,32.77715],[-106.17523,32.77875],[-106.17624,32.78051],[-106.17858,32.78066],[-106.17989,32.77906],[-106.17887,32.7773],[-106.17654,32.77715]]]},"properties":{"cell":"8948c2d529bffff","res":9,"coarsened":false,"count":1,"hv":1,"mp":0,"y0":2024,"y1":2024,"sp":[[1,1,1,0,2024,2024]]}},{"type":"Feature","geometry":{"type":"Polygon","coordinates":[[[-106.46137,32.73773],[-106.46006,32.73934],[-106.46108,32.74109],[-106.46342,32.74124],[-106.46473,32.73963],[-106.4637,32.73787],[-106.46137,32.73773]]]},"properties":{"cell":"8948c298e4bffff","res":9,"coarsened":false,"count":1,"hv":1,"mp":0,"y0":2024,"y1":2024,"sp":[[49,1,1,0,2024,2024]]}},{"type":"Feature","geometry":{"type":"Polygon","coordinates":[[[-106.47894,32.77939],[-106.47763,32.781],[-106.47865,32.78276],[-106.48099,32.7829],[-106.4823,32.78129],[-106.48127,32.77954],[-106.47894,32.77939]]]},"properties":{"cell":"8948c28a4bbffff","res":9,"coarsened":false,"count":1,"hv":1,"mp":0,"y0":2024,"y1":2024,"sp":[[37,1,1,0,2024,2024]]}},{"type":"Feature","geometry":{"type":"Polygon","coordinates":[[[-106.24899,32.79364],[-106.24768,32.79524],[-106.2487,32.797],[-106.25104,32.79715],[-106.25235,32.79554],[-106.25133,32.79379],[-106.24899,32.79364]]]},"properties":{"cell":"8948c2d5c9bffff","res":9,"coarsened":false,"count":1,"hv":1,"mp":0,"y0":2024,"y1":2024,"sp":[[52,1,1,0,2024,2024]]}},{"type":"Feature","geometry":{"type":"Polygon","coordinates":[[[-106.18295,32.78432],[-106.18164,32.78593],[-106.18265,32.78769],[-106.18499,32.78784],[-106.1863,32.78623],[-106.18528,32.78447],[-106.18295,32.78432]]]},"properties":{"cell":"8948c2d52bbffff","res":9,"coarsened":false,"count":1,"hv":1,"mp":0,"y0":2024,"y1":2024,"sp":[[30,1,1,0,2024,2024]]}},{"type":"Feature","geometry":{"type":"Polygon","coordinates":[[[-106.21765,32.78994],[-106.21633,32.79154],[-106.21735,32.7933],[-106.21969,32.79345],[-106.221,32.79184],[-106.21998,32.79009],[-106.21765,32.78994]]]},"properties":{"cell":"8948c2d5157ffff","res":9,"coarsened":false,"count":2,"hv":2,"mp":0,"y0":2024,"y1":2024,"sp":[[60,2,2,0,2024,2024]]}},{"type":"Feature","geometry":{"type":"Polygon","coordinates":[[[-106.26241,32.80125],[-106.2611,32.80286],[-106.26212,32.80462],[-106.26445,32.80476],[-106.26576,32.80316],[-106.26474,32.8014],[-106.26241,32.80125]]]},"properties":{"cell":"8948c2d5cb7ffff","res":9,"coarsened":false,"count":1,"hv":1,"mp":0,"y0":2022,"y1":2022,"sp":[[13,1,1,0,2022,2022]]}},{"type":"Feature","geometry":{"type":"Polygon","coordinates":[[[-106.28837,32.82657],[-106.28706,32.82818],[-106.28808,32.82993],[-106.29041,32.83008],[-106.29173,32.82847],[-106.29071,32.82672],[-106.28837,32.82657]]]},"properties":{"cell":"8948c2d4acfffff","res":9,"coarsened":false,"count":1,"hv":1,"mp":0,"y0":2025,"y1":2025,"sp":[[8,1,1,0,2025,2025]]}},{"type":"Feature","geometry":{"type":"Polygon","coordinates":[[[-106.26795,32.81851],[-106.26664,32.82012],[-106.26766,32.82187],[-106.26999,32.82202],[-106.27131,32.82041],[-106.27028,32.81866],[-106.26795,32.81851]]]},"properties":{"cell":"8948c2d5d0bffff","res":9,"coarsened":false,"count":1,"hv":1,"mp":0,"y0":2024,"y1":2024,"sp":[[7,1,1,0,2024,2024]]}},{"type":"Feature","geometry":{"type":"Polygon","coordinates":[[[-106.26066,32.82142],[-106.25935,32.82303],[-106.26037,32.82479],[-106.2627,32.82493],[-106.26401,32.82333],[-106.26299,32.82157],[-106.26066,32.82142]]]},"properties":{"cell":"8948c2d5d4fffff","res":9,"coarsened":false,"count":2,"hv":2,"mp":0,"y0":2024,"y1":2024,"sp":[[28,2,2,0,2024,2024]]}},{"type":"Feature","geometry":{"type":"Polygon","coordinates":[[[-106.25206,32.7989],[-106.25074,32.80051],[-106.25176,32.80226],[-106.2541,32.80241],[-106.25541,32.80081],[-106.25439,32.79905],[-106.25206,32.7989]]]},"properties":{"cell":"8948c2d5c8fffff","res":9,"coarsened":false,"count":1,"hv":1,"mp":0,"y0":2025,"y1":2025,"sp":[[7,1,1,0,2025,2025]]}},{"type":"Feature","geometry":{"type":"Polygon","coordinates":[[[-106.27072,32.746],[-106.26941,32.74761],[-106.27043,32.74936],[-106.27276,32.74951],[-106.27407,32.7479],[-106.27305,32.74615],[-106.27072,32.746]]]},"properties":{"cell":"8948c2d4457ffff","res":9,"coarsened":false,"count":1,"hv":1,"mp":0,"y0":2025,"y1":2025,"sp":[[40,1,1,0,2025,2025]]}},{"type":"Feature","geometry":{"type":"Polygon","coordinates":[[[-106.18354,32.7776],[-106.18222,32.77921],[-106.18324,32.78096],[-106.18558,32.78111],[-106.18689,32.77951],[-106.18587,32.77775],[-106.18354,32.7776]]]},"properties":{"cell":"8948c2d5297ffff","res":9,"coarsened":false,"count":1,"hv":1,"mp":0,"y0":2025,"y1":2025,"sp":[[27,1,1,0,2025,2025]]}},{"type":"Feature","geometry":{"type":"Polygon","coordinates":[[[-106.45081,32.69649],[-106.4495,32.6981],[-106.45052,32.69985],[-106.45285,32.7],[-106.45416,32.69839],[-106.45314,32.69663],[-106.45081,32.69649]]]},"properties":{"cell":"8948c29801bffff","res":9,"coarsened":false,"count":1,"hv":1,"mp":0,"y0":2025,"y1":2025,"sp":[[37,1,1,0,2025,2025]]}},{"type":"Feature","geometry":{"type":"Polygon","coordinates":[[[-106.22933,32.73659],[-106.22801,32.7382],[-106.22903,32.73995],[-106.23137,32.7401],[-106.23268,32.73849],[-106.23166,32.73674],[-106.22933,32.73659]]]},"properties":{"cell":"8948c2d738bffff","res":9,"coarsened":false,"count":1,"hv":1,"mp":0,"y0":2026,"y1":2026,"sp":[[69,1,1,0,2026,2026]]}},{"type":"Feature","geometry":{"type":"Polygon","coordinates":[[[-106.32773,32.77836],[-106.32642,32.77997],[-106.32744,32.78172],[-106.32977,32.78187],[-106.33108,32.78027],[-106.33006,32.77851],[-106.32773,32.77836]]]},"properties":{"cell":"8948c2d6a3bffff","res":9,"coarsened":false,"count":1,"hv":1,"mp":0,"y0":2026,"y1":2026,"sp":[[32,1,1,0,2026,2026]]}},{"type":"Feature","geometry":{"type":"Polygon","coordinates":[[[-106.30889,32.71123],[-106.30758,32.71284],[-106.3086,32.71459],[-106.31093,32.71474],[-106.31224,32.71313],[-106.31122,32.71138],[-106.30889,32.71123]]]},"properties":{"cell":"8948c2d6017ffff","res":9,"coarsened":false,"count":1,"hv":1,"mp":0,"y0":2021,"y1":2021,"sp":[[37,1,1,0,2021,2021]]}},{"type":"Feature","geometry":{"type":"Polygon","coordinates":[[[-106.34537,32.77779],[-106.34406,32.7794],[-106.34508,32.78115],[-106.34741,32.7813],[-106.34873,32.77969],[-106.3477,32.77794],[-106.34537,32.77779]]]},"properties":{"cell":"8948c2d6bd7ffff","res":9,"coarsened":false,"count":1,"hv":1,"mp":0,"y0":2026,"y1":2026,"sp":[[1,1,1,0,2026,2026]]}},{"type":"Feature","geometry":{"type":"Polygon","coordinates":[[[-106.2926,32.81839],[-106.29129,32.82],[-106.29231,32.82175],[-106.29464,32.8219],[-106.29595,32.82029],[-106.29493,32.81854],[-106.2926,32.81839]]]},"properties":{"cell":"8948c2d4e6fffff","res":9,"coarsened":false,"count":1,"hv":1,"mp":0,"y0":2021,"y1":2021,"sp":[[3,1,1,0,2021,2021]]}},{"type":"Feature","geometry":{"type":"Polygon","coordinates":[[[-106.25876,32.80271],[-106.25745,32.80432],[-106.25847,32.80607],[-106.2608,32.80622],[-106.26212,32.80462],[-106.2611,32.80286],[-106.25876,32.80271]]]},"properties":{"cell":"8948c2d5ca3ffff","res":9,"coarsened":false,"count":1,"hv":1,"mp":0,"y0":2026,"y1":2026,"sp":[[5,1,1,0,2026,2026]]}},{"type":"Feature","geometry":{"type":"Polygon","coordinates":[[[-106.33895,32.77062],[-106.33764,32.77223],[-106.33866,32.77398],[-106.34099,32.77413],[-106.3423,32.77252],[-106.34128,32.77077],[-106.33895,32.77062]]]},"properties":{"cell":"8948c2d6ab7ffff","res":9,"coarsened":false,"count":3,"hv":3,"mp":0,"y0":2025,"y1":2025,"sp":[[21,1,1,0,2025,2025],[72,1,1,0,2025,2025],[1,1,1,0,2025,2025]]}},{"type":"Feature","geometry":{"type":"Polygon","coordinates":[[[-106.29186,32.78623],[-106.29055,32.78784],[-106.29157,32.78959],[-106.2939,32.78974],[-106.29522,32.78813],[-106.2942,32.78638],[-106.29186,32.78623]]]},"properties":{"cell":"8948c2d4147ffff","res":9,"coarsened":false,"count":8,"hv":8,"mp":0,"y0":1987,"y1":2008,"sp":[[7,1,1,0,2008,2008],[44,1,1,0,2008,2008],[16,1,1,0,2008,2008],[73,1,1,0,2008,2008],[74,1,1,0,1987,1987],[75,1,1,0,1987,1987],[76,1,1,0,1987,1987],[77,1,1,0,1987,1987]]}}],"park":"white_sands","h3_res":9,"species_index":[{"n":"Myiarchus cinerascens","c":"Ash-throated Flycatcher","k":"Aves"},{"n":"Hirundo rustica","c":"Barn Swallow","k":"Aves"},{"n":"Setophaga coronata","c":"Yellow-rumped Warbler","k":"Aves"},{"n":"Sayornis saya","c":"Say's Phoebe","k":"Aves"},{"n":"Zenaida asiatica","c":"White-winged Dove","k":"Aves"},{"n":"Calamospiza melanocorys","c":"Lark Bunting","k":"Aves"},{"n":"Dipodomys ordii","c":"Ord's Kangaroo Rat","k":"Mammalia"},{"n":"Eremophila alpestris","c":"Horned Lark","k":"Aves"},{"n":"Geococcyx californianus","c":"Greater Roadrunner","k":"Aves"},{"n":"Calcarius ornatus","c":"Chestnut-collared Longspur","k":"Aves"},{"n":"Circus hudsonius","c":"Northern Harrier","k":"Aves"},{"n":"Aquila chrysaetos","c":"Golden Eagle","k":"Aves"},{"n":"Junco hyemalis","c":"Dark-eyed Junco","k":"Aves"},{"n":"Amphispiza bilineata","c":"Black-throated Sparrow","k":"Aves"},{"n":"Peucaea cassinii","c":"Cassin's Sparrow","k":"Aves"},{"n":"Sturnella lilianae","c":"Lilian's Meadowlark","k":"Aves"},{"n":"Mimus polyglottos","c":"Northern Mockingbird","k":"Aves"},{"n":"Petrochelidon pyrrhonota","c":"Cliff Swallow","k":"Aves"},{"n":"Haemorhous mexicanus","c":"House Finch","k":"Aves"},{"n":"Xerospermophilus spilosoma","c":"Spotted Ground Squirrel","k":"Mammalia"},{"n":"Antrozous pallidus","c":"Pallid Bat","k":"Mammalia"},{"n":"Corvus corax","c":"Common Raven","k":"Aves"},{"n":"Perognathus flavescens","c":"Plains Pocket Mouse","k":"Mammalia"},{"n":"Lepus californicus","c":"Black-tailed Jackrabbit","k":"Mammalia"},{"n":"Vulpes macrotis","c":"Kit Fox","k":"Mammalia"},{"n":"Sigmodon hispidus","c":"Hispid Cotton Rat","k":"Mammalia"},{"n":"Bubo virginianus","c":"Great Horned Owl","k":"Aves"},{"n":"Zonotrichia leucophrys","c":"White-crowned Sparrow","k":"Aves"},{"n":"Artemisiospiza nevadensis","c":"Sagebrush Sparrow","k":"Aves"},{"n":"Zenaida macroura","c":"Mourning Dove","k":"Aves"},{"n":"Lanius ludovicianus","c":"Loggerhead Shrike","k":"Aves"},{"n":"Cardellina pusilla","c":"Wilson's Warbler","k":"Aves"},{"n":"Xanthocephalus xanthocephalus","c":"Yellow-headed Blackbird","k":"Aves"},{"n":"Toxostoma curvirostre","c":"Curve-billed Thrasher","k":"Aves"},{"n":"Ammodramus savannarum","c":"Grasshopper Sparrow","k":"Aves"},{"n":"Poecile gambeli","c":"Mountain Chickadee","k":"Aves"},{"n":"Dryobates scalaris","c":"Ladder-backed Woodpecker","k":"Aves"},{"n":"Oryx gazella","c":"Gemsbok","k":"Mammalia"},{"n":"Passer domesticus","c":"House Sparrow","k":"Aves"},{"n":"Spizella breweri","c":"Brewer's Sparrow","k":"Aves"},{"n":"Tyrannus verticalis","c":"Western Kingbird","k":"Aves"},{"n":"Archilochus alexandri","c":"Black-chinned Hummingbird","k":"Aves"},{"n":"Setophaga aestiva","c":"Northern Yellow Warbler","k":"Aves"},{"n":"Astur cooperii","c":"Cooper's Hawk","k":"Aves"},{"n":"Corvus cryptoleucus","c":"Chihuahuan Raven","k":"Aves"},{"n":"Pooecetes gramineus","c":"Vesper Sparrow","k":"Aves"},{"n":"Oreoscoptes montanus","c":"Sage Thrasher","k":"Aves"},{"n":"Sylvilagus audubonii","c":"Desert Cottontail","k":"Mammalia"},{"n":"Mareca americana","c":"American Wigeon","k":"Aves"},{"n":"Taxidea taxus","c":"Southwestern American Badger","k":"Mammalia"},{"n":"Piranga ludoviciana","c":"Western Tanager","k":"Aves"},{"n":"Contopus sordidulus","c":"Western Wood-Pewee","k":"Aves"},{"n":"Spizella passerina","c":"Chipping Sparrow","k":"Aves"},{"n":"Odocoileus hemionus","c":"Mule Deer","k":"Mammalia"},{"n":"Chondestes grammacus","c":"Lark Sparrow","k":"Aves"},{"n":"Corthylio calendula","c":"Ruby-crowned Kinglet","k":"Aves"},{"n":"Toxostoma crissale","c":"Crissal Thrasher","k":"Aves"},{"n":"Auriparus flaviceps","c":"Verdin","k":"Aves"},{"n":"Pyrocephalus rubinus","c":"Vermilion Flycatcher","k":"Aves"},{"n":"Pipilo maculatus","c":"Spotted Towhee","k":"Aves"},{"n":"Erethizon dorsatum","c":"North American Porcupine","k":"Mammalia"},{"n":"Troglodytes aedon","c":"Northern House Wren","k":"Aves"},{"n":"Tyrannus couchii","c":"Couch's Kingbird","k":"Aves"},{"n":"Falco columbarius","c":"Merlin","k":"Aves"},{"n":"Columba livia","c":"Feral Pigeon","k":"Aves"},{"n":"Icterus parisorum","c":"Scott's Oriole","k":"Aves"},{"n":"Quiscalus mexicanus","c":"Great-tailed Grackle","k":"Aves"},{"n":"Canis latrans","c":"Coyote","k":"Mammalia"},{"n":"Empidonax oberholseri","c":"Dusky Flycatcher","k":"Aves"},{"n":"Antigone canadensis","c":"Sandhill Crane","k":"Aves"},{"n":"Dumetella carolinensis","c":"Gray Catbird","k":"Aves"},{"n":"Tyrannus vociferans","c":"Cassin's Kingbird","k":"Aves"},{"n":"Buteo swainsoni","c":"Swainson's Hawk","k":"Aves"},{"n":"Cathartes aura","c":null,"k":"Aves"},{"n":"Sialia currucoides","c":null,"k":"Aves"},{"n":"Buteo jamaicensis","c":null,"k":"Aves"},{"n":"Falco sparverius","c":null,"k":"Aves"},{"n":"Sialia mexicana","c":null,"k":"Aves"}],"entry":["species_index","count","human_verified","model_predicted","first_year","last_year"],"suppressed":{"excluded":{},"coarsened":{}},"merged_names":{"Setophaga coronata auduboni":"Setophaga coronata","Hirundo rustica erythrogaster":"Hirundo rustica","Sturnella lilianae lilianae":"Sturnella lilianae","Sayornis saya saya":"Sayornis saya","Taxidea taxus berlandieri":"Taxidea taxus","Columba livia domestica":"Columba livia","Zonotrichia leucophrys gambelii":"Zonotrichia leucophrys"}}