{"type":"Feature","geometry":{"type":"MultiPolygon","coordinates":[[[[-121.2387,36.5463],[-121.2386,36.5499],[-121.2296,36.5498],[-121.2293,36.557],[-121.2248,36.557],[-121.2246,36.5606],[-121.22,36.5605],[-121.2199,36.5641],[-121.2154,36.5642],[-121.2155,36.5605],[-121.2109,36.5606],[-121.2113,36.5533],[-121.1978,36.5533],[-121.198,36.5496],[-121.1935,36.5496],[-121.1937,36.5423],[-121.1982,36.5423],[-121.1984,36.5351],[-121.1939,36.5351],[-121.1939,36.5317],[-121.185,36.5316],[-121.1847,36.5423],[-121.1623,36.5422],[-121.1624,36.5351],[-121.1579,36.535],[-121.1579,36.5315],[-121.1534,36.5314],[-121.1534,36.535],[-121.1488,36.5349],[-121.1488,36.5344],[-121.1485,36.5345],[-121.1482,36.534],[-121.1468,36.5333],[-121.1463,36.5328],[-121.1461,36.5319],[-121.1454,36.5307],[-121.1443,36.5295],[-121.1441,36.5273],[-121.1415,36.5245],[-121.1402,36.5237],[-121.1397,36.5224],[-121.1389,36.5217],[-121.1378,36.5217],[-121.1387,36.5179],[-121.1361,36.5176],[-121.1359,36.5173],[-121.1356,36.5169],[-121.1354,36.5176],[-121.1299,36.5169],[-121.1278,36.5174],[-121.1262,36.5171],[-121.1245,36.5163],[-121.1237,36.5156],[-121.1221,36.5149],[-121.1204,36.5137],[-121.1162,36.5114],[-121.1102,36.5073],[-121.1089,36.505],[-121.108,36.504],[-121.1072,36.5038],[-121.1055,36.5029],[-121.1047,36.5018],[-121.1012,36.499],[-121.1299,36.4992],[-121.1299,36.4955],[-121.1337,36.4955],[-121.1335,36.4881],[-121.1157,36.4881],[-121.1162,36.4917],[-121.1117,36.4917],[-121.1112,36.4881],[-121.108,36.488],[-121.1081,36.4844],[-121.1125,36.4845],[-121.1127,36.4773],[-121.1171,36.4774],[-121.1172,36.4738],[-121.1306,36.4739],[-121.1307,36.4702],[-121.1443,36.4703],[-121.1445,36.4626],[-121.1452,36.4626],[-121.1451,36.4619],[-121.1454,36.4613],[-121.1454,36.4608],[-121.1458,36.4599],[-121.1457,36.4598],[-121.1466,36.4589],[-121.1466,36.4584],[-121.1476,36.4577],[-121.1481,36.4577],[-121.1489,36.4567],[-121.1491,36.4558],[-121.1496,36.4556],[-121.1503,36.455],[-121.151,36.455],[-121.1527,36.4543],[-121.1526,36.4526],[-121.153,36.4526],[-121.153,36.4493],[-121.1526,36.4487],[-121.1529,36.448],[-121.1524,36.4464],[-121.1528,36.4458],[-121.1544,36.4448],[-121.1545,36.4446],[-121.1529,36.4445],[-121.153,36.4305],[-121.1575,36.4305],[-121.1576,36.4196],[-121.1531,36.4198],[-121.1531,36.4162],[-121.1711,36.4156],[-121.1713,36.4084],[-121.1891,36.4084],[-121.1888,36.4157],[-121.1891,36.4229],[-121.1981,36.4229],[-121.1984,36.4299],[-121.2071,36.4298],[-121.2065,36.4443],[-121.2021,36.4443],[-121.2018,36.4589],[-121.2062,36.4587],[-121.2061,36.4732],[-121.233,36.4733],[-121.2344,36.4882],[-121.2332,36.4882],[-121.2321,36.5026],[-121.2455,36.503],[-121.245,36.5101],[-121.2405,36.51],[-121.2399,36.5171],[-121.231,36.517],[-121.2302,36.5316],[-121.2389,36.5318],[-121.2388,36.5355],[-121.2298,36.5353],[-121.2298,36.5389],[-121.2343,36.539],[-121.2342,36.5463],[-121.2387,36.5463]]],[[[-121.145,36.5348],[-121.1442,36.5332],[-121.1458,36.5342],[-121.1465,36.5341],[-121.147,36.5336],[-121.148,36.5341],[-121.1483,36.5346],[-121.1454,36.5356],[-121.145,36.5348]]],[[[-121.239,36.5463],[-121.2387,36.5463],[-121.2388,36.5391],[-121.2435,36.5391],[-121.2434,36.5463],[-121.239,36.5463]]]]},"properties":{"park":"pinnacles","name":"Pinnacles National Park","source":"iNaturalist place","place_id":5737,"source_url":"https://www.inaturalist.org/places/5737"}}