{"type":"Feature","geometry":{"type":"Polygon","coordinates":[[[-118.9146,36.6086],[-118.9116,36.6086],[-118.9093,36.6118],[-118.9018,36.6138],[-118.9003,36.6161],[-118.9009,36.6204],[-118.895,36.6225],[-118.8842,36.6224],[-118.8785,36.6241],[-118.8707,36.6284],[-118.8707,36.6318],[-118.8688,36.6345],[-118.854,36.6377],[-118.8424,36.6467],[-118.841,36.6507],[-118.8334,36.6522],[-118.8316,36.6569],[-118.825,36.6565],[-118.8204,36.6585],[-118.8182,36.6667],[-118.8149,36.6692],[-118.8113,36.6694],[-118.8023,36.676],[-118.7982,36.6773],[-118.7937,36.676],[-118.7846,36.6767],[-118.779,36.6811],[-118.7762,36.679],[-118.774,36.6795],[-118.7651,36.6766],[-118.7618,36.6765],[-118.7593,36.6796],[-118.7549,36.6766],[-118.7537,36.6778],[-118.7454,36.6754],[-118.738,36.6779],[-118.7338,36.6736],[-118.7264,36.6745],[-118.7201,36.6732],[-118.7174,36.6671],[-118.7103,36.6648],[-118.7068,36.6655],[-118.7073,36.6587],[-118.7026,36.6552],[-118.7019,36.6504],[-118.6974,36.6438],[-118.6949,36.6431],[-118.69,36.638],[-118.6833,36.637],[-118.6793,36.638],[-118.6756,36.636],[-118.6709,36.636],[-118.6607,36.6401],[-118.6578,36.639],[-118.6562,36.6332],[-118.6486,36.6323],[-118.6417,36.6372],[-118.6348,36.6368],[-118.6283,36.6303],[-118.6169,36.6255],[-118.6115,36.6251],[-118.6115,36.6193],[-118.603,36.6107],[-118.5909,36.6104],[-118.5824,36.6134],[-118.5816,36.6096],[-118.5834,36.6034],[-118.5749,36.5975],[-118.5689,36.5956],[-118.5603,36.5955],[-118.5529,36.598],[-118.5445,36.5939],[-118.5309,36.5929],[-118.5251,36.5948],[-118.5262,36.5986],[-118.5179,36.6045],[-118.5173,36.6092],[-118.5009,36.6185],[-118.4969,36.6248],[-118.4915,36.6265],[-118.4884,36.6329],[-118.4844,36.6346],[-118.4838,36.6446],[-118.4863,36.6474],[-118.4847,36.6499],[-118.4791,36.652],[-118.4737,36.6593],[-118.4757,36.6689],[-118.4721,36.668],[-118.4676,36.671],[-118.4643,36.6704],[-118.4615,36.6748],[-118.4527,36.6774],[-118.4493,36.6829],[-118.4496,36.6856],[-118.4426,36.686],[-118.436,36.6836],[-118.432,36.6841],[-118.4301,36.686],[-118.4272,36.6981],[-118.4201,36.6959],[-118.4159,36.6978],[-118.414,36.6963],[-118.4075,36.7008],[-118.4004,36.6984],[-118.3932,36.6987],[-118.392,36.6966],[-118.3825,36.6985],[-118.3668,36.6922],[-118.3637,36.6877],[-118.3525,36.6831],[-118.3474,36.6759],[-118.3467,36.6724],[-118.3334,36.6729],[-118.329,36.6671],[-118.3361,36.662],[-118.337,36.654],[-118.3256,36.6477],[-118.323,36.6424],[-118.3179,36.64],[-118.3206,36.6363],[-118.3216,36.6283],[-118.3108,36.6261],[-118.3088,36.6222],[-118.302,36.6198],[-118.303,36.6163],[-118.2966,36.6077],[-118.2888,36.6036],[-118.2823,36.605],[-118.2746,36.5975],[-118.2779,36.5923],[-118.289,36.5905],[-118.2894,36.5877],[-118.2877,36.5847],[-118.2936,36.5797],[-118.2923,36.5784],[-118.2942,36.5765],[-118.2899,36.5733],[-118.2926,36.5686],[-118.2916,36.5596],[-118.2783,36.5547],[-118.2761,36.5509],[-118.2652,36.5518],[-118.2614,36.5489],[-118.2618,36.5467],[-118.2596,36.5436],[-118.2524,36.5417],[-118.248,36.533],[-118.2508,36.5298],[-118.2498,36.5247],[-118.2462,36.5221],[-118.2394,36.5235],[-118.2374,36.5204],[-118.2385,36.5125],[-118.2371,36.5113],[-118.2393,36.5093],[-118.2387,36.5057],[-118.2422,36.4998],[-118.2348,36.4939],[-118.2487,36.487],[-118.2503,36.4851],[-118.2494,36.4826],[-118.2555,36.475],[-118.2631,36.4731],[-118.2679,36.4683],[-118.2728,36.4693],[-118.2828,36.4643],[-118.2855,36.4657],[-118.2865,36.4636],[-118.2974,36.4592],[-118.2994,36.4547],[-118.3151,36.4526],[-118.3248,36.4544],[-118.3337,36.4455],[-118.3515,36.4439],[-118.3565,36.4372],[-118.3603,36.4356],[-118.3636,36.4368],[-118.3665,36.423],[-118.3699,36.4199],[-118.3692,36.4087],[-118.3756,36.4021],[-118.3738,36.3875],[-118.3783,36.3842],[-118.3804,36.3794],[-118.3814,36.3689],[-118.3873,36.3652],[-118.3949,36.3565],[-118.4032,36.353],[-118.406,36.3495],[-118.4066,36.3451],[-118.4051,36.342],[-118.4077,36.3427],[-118.41,36.339],[-118.4192,36.3332],[-118.4243,36.3341],[-118.4294,36.3326],[-118.4304,36.3284],[-118.4358,36.3262],[-118.4473,36.3121],[-118.4557,36.3104],[-118.46,36.3119],[-118.4647,36.3171],[-118.4716,36.3201],[-118.4729,36.3242],[-118.4774,36.3239],[-118.4799,36.3252],[-118.481,36.3298],[-118.4858,36.3328],[-118.4822,36.3381],[-118.4867,36.3408],[-118.4866,36.3435],[-118.4929,36.3498],[-118.4918,36.354],[-118.4878,36.3551],[-118.4874,36.3576],[-118.5025,36.3698],[-118.5171,36.3753],[-118.5173,36.3806],[-118.5237,36.386],[-118.5406,36.3911],[-118.5476,36.3899],[-118.5484,36.4],[-118.5507,36.406],[-118.5525,36.4063],[-118.5594,36.4049],[-118.5667,36.4006],[-118.5813,36.3984],[-118.5849,36.3917],[-118.5921,36.3845],[-118.5872,36.3832],[-118.5841,36.3796],[-118.58,36.3784],[-118.5853,36.3724],[-118.5901,36.3703],[-118.5906,36.3673],[-118.5886,36.3659],[-118.5932,36.3651],[-118.5973,36.3532],[-118.5915,36.3467],[-118.593,36.3388],[-118.5917,36.3347],[-118.5751,36.331],[-118.5707,36.3267],[-118.5719,36.3224],[-118.5639,36.3079],[-118.565,36.3052],[-118.572,36.3002],[-118.5776,36.2988],[-118.5895,36.2996],[-118.5916,36.3003],[-118.5925,36.303],[-118.5973,36.3047],[-118.6067,36.3038],[-118.6119,36.3083],[-118.6133,36.3144],[-118.6204,36.3124],[-118.6272,36.3074],[-118.6644,36.3087],[-118.6644,36.3105],[-118.6892,36.3139],[-118.6903,36.3018],[-118.6946,36.302],[-118.6961,36.2949],[-118.7051,36.2951],[-118.7062,36.2914],[-118.7154,36.2917],[-118.7142,36.2956],[-118.7235,36.2952],[-118.7215,36.3031],[-118.7166,36.3038],[-118.7156,36.3077],[-118.7207,36.307],[-118.7195,36.3146],[-118.7245,36.314],[-118.7241,36.3162],[-118.7747,36.3101],[-118.779,36.3174],[-118.7675,36.3963],[-118.7664,36.4862],[-118.8363,36.4868],[-118.8397,36.4802],[-118.8419,36.4804],[-118.8425,36.4847],[-118.8387,36.4833],[-118.8385,36.4861],[-118.8819,36.4864],[-118.8816,36.5417],[-118.8836,36.5436],[-118.8966,36.5445],[-118.8995,36.5482],[-118.8957,36.5505],[-118.8993,36.5524],[-118.9013,36.5582],[-118.9058,36.5597],[-118.9031,36.5618],[-118.9034,36.5663],[-118.8998,36.5675],[-118.8974,36.5712],[-118.8991,36.573],[-118.8985,36.5758],[-118.8944,36.5768],[-118.9005,36.5868],[-118.9168,36.5946],[-118.9162,36.5978],[-118.9192,36.5978],[-118.9187,36.6026],[-118.916,36.6039],[-118.9167,36.6058],[-118.9146,36.6086]]]},"properties":{"park":"sequoia","name":"Sequoia National Park","source":"iNaturalist place","place_id":95321,"source_url":"https://www.inaturalist.org/places/95321"}}