{"type":"Feature","geometry":{"type":"Polygon","coordinates":[[[-89.1553,47.7586],[-89.1873,47.7609],[-89.2151,47.7677],[-89.2522,47.7821],[-89.2649,47.7903],[-89.2906,47.7994],[-89.3041,47.8017],[-89.3146,47.8001],[-89.3314,47.8007],[-89.3478,47.8034],[-89.3633,47.8078],[-89.3774,47.8141],[-89.3897,47.8218],[-89.3998,47.8309],[-89.4074,47.8411],[-89.4123,47.852],[-89.4143,47.8632],[-89.4134,47.8746],[-89.4095,47.8856],[-89.4028,47.8961],[-89.3936,47.9056],[-89.3783,47.9158],[-89.3497,47.9278],[-89.3185,47.9322],[-89.3085,47.9388],[-89.2975,47.9509],[-89.2661,47.9717],[-89.2296,47.9907],[-89.2149,47.9967],[-89.1543,48.0207],[-89.0471,48.0565],[-89.0342,48.0616],[-89.0221,48.0705],[-89.0013,48.0799],[-88.9754,48.0861],[-88.9511,48.087],[-88.8873,48.1128],[-88.8446,48.1266],[-88.8304,48.133],[-88.8163,48.1437],[-88.8026,48.1504],[-88.7678,48.1614],[-88.7481,48.1703],[-88.7308,48.1841],[-88.7171,48.1909],[-88.6694,48.2094],[-88.644,48.2178],[-88.608,48.226],[-88.5919,48.234],[-88.5766,48.239],[-88.5434,48.2434],[-88.5194,48.241],[-88.4994,48.2459],[-88.467,48.2493],[-88.4551,48.2524],[-88.442,48.2674],[-88.4243,48.2809],[-88.4086,48.2891],[-88.3893,48.2957],[-88.3597,48.302],[-88.1748,48.2318],[-88.1848,48.2216],[-88.1967,48.2134],[-88.2126,48.206],[-88.2438,48.1985],[-88.2591,48.1974],[-88.2738,48.1871],[-88.3229,48.1653],[-88.3272,48.1502],[-88.3341,48.1398],[-88.3436,48.1304],[-88.369,48.1141],[-88.3799,48.1098],[-88.3814,48.1075],[-88.4022,48.0958],[-88.4286,48.084],[-88.441,48.0775],[-88.4471,48.0722],[-88.4779,48.057],[-88.4821,48.0424],[-88.4912,48.0292],[-88.5006,48.0197],[-88.5181,48.0073],[-88.547,47.9912],[-88.5711,47.9807],[-88.6181,47.9564],[-88.6609,47.9413],[-88.665,47.9288],[-88.6726,47.9177],[-88.6827,47.9085],[-88.6996,47.8976],[-88.7223,47.8885],[-88.7252,47.8887],[-88.7381,47.8799],[-88.7527,47.8727],[-88.8029,47.855],[-88.8473,47.8429],[-88.8609,47.8361],[-88.8889,47.827],[-88.9079,47.8162],[-88.9232,47.8111],[-88.9394,47.8079],[-88.9599,47.8068],[-88.9919,47.7971],[-89.0147,47.7929],[-89.0514,47.7816],[-89.0685,47.7723],[-89.0836,47.7672],[-89.0998,47.764],[-89.1234,47.763],[-89.1553,47.7586]]]},"properties":{"park":"isle_royale","name":"Isle Royale National Park","source":"iNaturalist place","place_id":95245,"source_url":"https://www.inaturalist.org/places/95245"}}