{"type":"Feature","geometry":{"type":"MultiPolygon","coordinates":[[[[-123.4251,48.1005],[-123.4187,48.0435],[-123.3829,48.0434],[-123.383,48.0286],[-123.3402,48.0],[-123.2542,47.9999],[-123.2543,47.9704],[-123.2306,47.9704],[-123.2271,47.9248],[-123.1608,47.8816],[-123.1576,47.8672],[-123.1972,47.8431],[-123.2065,47.7957],[-123.1205,47.7957],[-123.1338,47.6614],[-123.2064,47.6074],[-123.2561,47.6075],[-123.3317,47.5738],[-123.3169,47.5634],[-123.3283,47.5504],[-123.2932,47.538],[-123.315,47.5059],[-123.3418,47.5064],[-123.3418,47.5202],[-123.5614,47.5177],[-123.6176,47.4853],[-123.6413,47.5004],[-123.6967,47.4947],[-123.6962,47.5313],[-123.7418,47.5363],[-123.7753,47.5295],[-123.8048,47.4987],[-123.8492,47.4979],[-123.9125,47.4697],[-123.9246,47.4895],[-123.9072,47.5059],[-123.8186,47.5177],[-123.8182,47.5613],[-123.8009,47.5657],[-123.7929,47.5902],[-123.8012,47.6115],[-123.9078,47.6294],[-124.0059,47.6215],[-124.014,47.6049],[-124.0896,47.5916],[-124.0948,47.5699],[-124.1538,47.5662],[-124.2174,47.5408],[-124.2761,47.5534],[-124.1907,47.5589],[-124.1217,47.5843],[-124.1217,47.5988],[-124.0394,47.6205],[-124.0127,47.635],[-124.0127,47.657],[-123.9614,47.6699],[-123.9013,47.7104],[-123.8985,47.7313],[-123.9486,47.7573],[-123.9469,47.8092],[-124.0328,47.8165],[-124.0328,47.8383],[-124.2476,47.8599],[-124.2475,47.9528],[-124.1556,47.9292],[-123.9449,47.9501],[-123.9239,47.9816],[-123.9244,48.0237],[-124.0,48.0595],[-123.9461,48.0721],[-123.9457,48.0915],[-123.8084,48.0746],[-123.8081,48.0998],[-123.7422,48.0997],[-123.7407,48.0553],[-123.679,48.0437],[-123.5623,48.0516],[-123.534,48.0367],[-123.4221,48.0435],[-123.436,48.0686],[-123.4251,48.1005]]],[[[-124.3987,47.7334],[-124.3765,47.6351],[-124.3663,47.6133],[-124.3452,47.6095],[-124.3445,47.561],[-124.3625,47.5628],[-124.4227,47.715],[-124.4231,47.7325],[-124.3987,47.7334]]],[[[-124.3802,47.6025],[-124.3803,47.6025],[-124.3803,47.6026],[-124.3802,47.6026],[-124.3802,47.6025]]],[[[-124.3802,47.6023],[-124.3803,47.6023],[-124.3803,47.6023],[-124.3802,47.6023],[-124.3802,47.6023]]],[[[-124.3805,47.6026],[-124.3805,47.6025],[-124.3809,47.6026],[-124.3808,47.6026],[-124.3805,47.6026]]],[[[-124.3806,47.6027],[-124.3806,47.6027],[-124.3806,47.6028],[-124.3805,47.6028],[-124.3806,47.6027]]],[[[-124.3806,47.6021],[-124.3808,47.6021],[-124.3809,47.6022],[-124.3807,47.6022],[-124.3806,47.6021]]],[[[-124.3813,47.6024],[-124.3815,47.6025],[-124.3811,47.6025],[-124.3812,47.6024],[-124.3813,47.6024]]],[[[-124.59,47.891],[-124.5663,47.8887],[-124.5266,47.8421],[-124.4837,47.838],[-124.446,47.7619],[-124.4145,47.7552],[-124.4146,47.7476],[-124.4802,47.7677],[-124.4924,47.8184],[-124.5482,47.8323],[-124.5395,47.8408],[-124.5602,47.865],[-124.592,47.8787],[-124.6107,47.8712],[-124.6088,47.8787],[-124.6336,47.8937],[-124.6054,47.887],[-124.6127,47.9081],[-124.5905,47.9084],[-124.59,47.891]]],[[[-124.4264,47.6969],[-124.4266,47.6969],[-124.4267,47.6971],[-124.4265,47.6971],[-124.4264,47.6969]]],[[[-124.4489,47.7488],[-124.4491,47.7488],[-124.4493,47.7489],[-124.449,47.749],[-124.4489,47.7488]]],[[[-124.4516,47.7463],[-124.4516,47.7466],[-124.4512,47.7466],[-124.4512,47.7464],[-124.4516,47.7463]]],[[[-124.4517,47.7467],[-124.4518,47.7467],[-124.4518,47.7468],[-124.4518,47.7468],[-124.4517,47.7467]]],[[[-124.4552,47.753],[-124.4555,47.753],[-124.456,47.7535],[-124.4555,47.7534],[-124.4552,47.753]]],[[[-124.4555,47.7542],[-124.4557,47.7542],[-124.4557,47.7544],[-124.4555,47.7543],[-124.4555,47.7542]]],[[[-124.4563,47.7538],[-124.4563,47.7536],[-124.4566,47.7536],[-124.4565,47.7538],[-124.4563,47.7538]]],[[[-124.457,47.7553],[-124.457,47.7552],[-124.4574,47.7552],[-124.4573,47.7553],[-124.457,47.7553]]],[[[-124.4753,47.7486],[-124.4757,47.7486],[-124.4758,47.7487],[-124.4752,47.7489],[-124.4753,47.7486]]],[[[-124.4765,47.7652],[-124.4766,47.7652],[-124.4766,47.7653],[-124.4765,47.7654],[-124.4765,47.7652]]],[[[-124.4768,47.7654],[-124.4769,47.7654],[-124.4769,47.7655],[-124.4767,47.7656],[-124.4768,47.7654]]],[[[-124.4792,47.7662],[-124.4793,47.7662],[-124.4793,47.7663],[-124.4791,47.7663],[-124.4792,47.7662]]],[[[-124.4806,47.6786],[-124.484,47.6728],[-124.4878,47.6745],[-124.4909,47.6733],[-124.4806,47.6786]]],[[[-124.4825,47.6782],[-124.4827,47.6783],[-124.4825,47.6786],[-124.4824,47.6783],[-124.4825,47.6782]]],[[[-124.4827,47.6741],[-124.4828,47.6741],[-124.4828,47.6742],[-124.4826,47.6742],[-124.4827,47.6741]]],[[[-124.4853,47.6727],[-124.4855,47.6728],[-124.4854,47.6729],[-124.4852,47.6728],[-124.4853,47.6727]]],[[[-124.4861,47.6729],[-124.4854,47.6726],[-124.4869,47.6724],[-124.4869,47.6727],[-124.4861,47.6729]]],[[[-124.4861,47.6766],[-124.4862,47.6766],[-124.486,47.6769],[-124.486,47.6768],[-124.4861,47.6766]]],[[[-124.4864,47.6769],[-124.4864,47.677],[-124.4862,47.677],[-124.4863,47.6769],[-124.4864,47.6769]]],[[[-124.4866,47.6731],[-124.4867,47.6731],[-124.4863,47.6732],[-124.4864,47.6731],[-124.4866,47.6731]]],[[[-124.4865,47.6766],[-124.4867,47.6767],[-124.4864,47.6769],[-124.4863,47.6768],[-124.4865,47.6766]]],[[[-124.487,47.6729],[-124.4871,47.6728],[-124.4873,47.6729],[-124.4869,47.673],[-124.487,47.6729]]],[[[-124.4877,47.6722],[-124.4881,47.6721],[-124.4881,47.6721],[-124.4874,47.6723],[-124.4877,47.6722]]],[[[-124.4888,47.6734],[-124.4895,47.6731],[-124.4897,47.673],[-124.4893,47.6733],[-124.4888,47.6734]]],[[[-124.4897,47.6721],[-124.4899,47.6721],[-124.489,47.6724],[-124.4895,47.6722],[-124.4897,47.6721]]],[[[-124.4907,47.6722],[-124.4908,47.6721],[-124.4905,47.6723],[-124.4905,47.6723],[-124.4907,47.6722]]],[[[-124.4951,47.7802],[-124.4952,47.7804],[-124.4951,47.7805],[-124.4949,47.7803],[-124.4951,47.7802]]],[[[-124.4957,47.8029],[-124.4957,47.8032],[-124.4953,47.8031],[-124.4953,47.8031],[-124.4957,47.8029]]],[[[-124.4953,47.7807],[-124.4956,47.7807],[-124.4956,47.7809],[-124.4953,47.7809],[-124.4953,47.7807]]],[[[-124.4955,47.8098],[-124.4959,47.8099],[-124.496,47.81],[-124.4955,47.8101],[-124.4955,47.8098]]],[[[-124.4955,47.7798],[-124.4956,47.7798],[-124.4957,47.7799],[-124.4955,47.7799],[-124.4955,47.7798]]],[[[-124.4978,47.7843],[-124.4979,47.7842],[-124.498,47.7843],[-124.4979,47.7844],[-124.4978,47.7843]]],[[[-124.4997,47.7845],[-124.4999,47.7845],[-124.4999,47.7846],[-124.4998,47.7847],[-124.4997,47.7845]]],[[[-124.5005,47.7845],[-124.5005,47.7846],[-124.5003,47.7846],[-124.5003,47.7845],[-124.5005,47.7845]]],[[[-124.5057,47.798],[-124.5044,47.797],[-124.5092,47.7988],[-124.5074,47.7992],[-124.5057,47.798]]],[[[-124.5048,47.7719],[-124.5052,47.7719],[-124.5053,47.772],[-124.5048,47.7722],[-124.5048,47.7719]]],[[[-124.5054,47.7725],[-124.5066,47.7732],[-124.5063,47.7736],[-124.5051,47.773],[-124.5054,47.7725]]],[[[-124.5064,47.7858],[-124.5067,47.7859],[-124.5067,47.786],[-124.5064,47.7861],[-124.5064,47.7858]]],[[[-124.5079,47.8194],[-124.508,47.8194],[-124.508,47.8195],[-124.5078,47.8195],[-124.5079,47.8194]]],[[[-124.51,47.8194],[-124.5102,47.8194],[-124.5102,47.8195],[-124.51,47.8195],[-124.51,47.8194]]],[[[-124.5105,47.7908],[-124.5107,47.7908],[-124.511,47.7909],[-124.5107,47.791],[-124.5105,47.7908]]],[[[-124.5109,47.815],[-124.5115,47.8151],[-124.5114,47.8155],[-124.5108,47.8156],[-124.5109,47.815]]],[[[-124.5133,47.7858],[-124.5135,47.7858],[-124.5136,47.7859],[-124.5133,47.786],[-124.5133,47.7858]]],[[[-124.5213,47.8095],[-124.5214,47.8095],[-124.5215,47.8096],[-124.5212,47.8096],[-124.5213,47.8095]]],[[[-124.5304,47.8117],[-124.5306,47.8119],[-124.5304,47.812],[-124.5303,47.8118],[-124.5304,47.8117]]],[[[-124.5316,47.8052],[-124.5319,47.8053],[-124.5318,47.8056],[-124.5314,47.8055],[-124.5316,47.8052]]],[[[-124.5379,47.8156],[-124.5381,47.8156],[-124.5381,47.8158],[-124.5378,47.8157],[-124.5379,47.8156]]],[[[-124.5384,47.827],[-124.5387,47.8271],[-124.539,47.8274],[-124.5384,47.8274],[-124.5384,47.827]]],[[[-124.5447,47.8367],[-124.5448,47.8367],[-124.5449,47.8369],[-124.5447,47.8369],[-124.5447,47.8367]]],[[[-124.5452,47.8383],[-124.5453,47.8383],[-124.5453,47.8385],[-124.5451,47.8384],[-124.5452,47.8383]]],[[[-124.5457,47.8315],[-124.546,47.8316],[-124.546,47.8317],[-124.5456,47.8316],[-124.5457,47.8315]]],[[[-124.5458,47.8381],[-124.5459,47.838],[-124.5459,47.8382],[-124.5457,47.8381],[-124.5458,47.8381]]],[[[-124.5462,47.8385],[-124.5462,47.8385],[-124.5463,47.8386],[-124.5461,47.8386],[-124.5462,47.8385]]],[[[-124.5491,47.8189],[-124.5492,47.8188],[-124.5493,47.8188],[-124.5493,47.8189],[-124.5491,47.8189]]],[[[-124.555,47.8299],[-124.5554,47.8302],[-124.5554,47.8309],[-124.5544,47.8306],[-124.555,47.8299]]],[[[-124.5551,47.8422],[-124.5555,47.8424],[-124.5548,47.8426],[-124.5549,47.8423],[-124.5551,47.8422]]],[[[-124.5561,47.8447],[-124.5561,47.8446],[-124.5563,47.8447],[-124.5562,47.8448],[-124.5561,47.8447]]],[[[-124.5565,47.8224],[-124.5565,47.8224],[-124.5566,47.8225],[-124.5565,47.8225],[-124.5565,47.8224]]],[[[-124.5567,47.8226],[-124.5568,47.8226],[-124.5568,47.8226],[-124.5567,47.8227],[-124.5567,47.8226]]],[[[-124.5572,47.8209],[-124.5577,47.8209],[-124.5578,47.8211],[-124.5573,47.8211],[-124.5572,47.8209]]],[[[-124.5611,47.8432],[-124.5612,47.8431],[-124.5614,47.8431],[-124.5612,47.8433],[-124.5611,47.8432]]],[[[-124.5612,47.8509],[-124.5616,47.8512],[-124.5617,47.8517],[-124.5614,47.8517],[-124.5612,47.8509]]],[[[-124.5614,47.8362],[-124.5615,47.8362],[-124.5615,47.8362],[-124.5614,47.8363],[-124.5614,47.8362]]],[[[-124.5616,47.8363],[-124.5617,47.8363],[-124.5617,47.8364],[-124.5615,47.8364],[-124.5616,47.8363]]],[[[-124.562,47.8503],[-124.5621,47.8502],[-124.5623,47.8503],[-124.5621,47.8504],[-124.562,47.8503]]],[[[-124.5639,47.8592],[-124.5644,47.8591],[-124.5649,47.8591],[-124.5637,47.8599],[-124.5639,47.8592]]],[[[-124.564,47.8501],[-124.5639,47.8504],[-124.5638,47.8503],[-124.5638,47.8502],[-124.564,47.8501]]],[[[-124.5649,47.8488],[-124.5649,47.8493],[-124.5643,47.8496],[-124.5644,47.8491],[-124.5649,47.8488]]],[[[-124.5644,47.8665],[-124.5645,47.8665],[-124.5646,47.8666],[-124.5644,47.8666],[-124.5644,47.8665]]],[[[-124.5648,47.8663],[-124.565,47.8663],[-124.5651,47.8663],[-124.565,47.8664],[-124.5648,47.8663]]],[[[-124.5663,47.8587],[-124.5662,47.8591],[-124.5655,47.8591],[-124.5657,47.8589],[-124.5663,47.8587]]],[[[-124.5661,47.8488],[-124.5664,47.8488],[-124.5664,47.849],[-124.5661,47.849],[-124.5661,47.8488]]],[[[-124.5675,47.8545],[-124.5681,47.8549],[-124.5682,47.855],[-124.5674,47.8549],[-124.5675,47.8545]]],[[[-124.5686,47.8419],[-124.5677,47.8415],[-124.5678,47.841],[-124.5696,47.8415],[-124.5686,47.8419]]],[[[-124.5687,47.8543],[-124.5689,47.8541],[-124.5695,47.8551],[-124.5688,47.855],[-124.5687,47.8543]]],[[[-124.569,47.8527],[-124.5693,47.8527],[-124.5693,47.8529],[-124.569,47.8529],[-124.569,47.8527]]],[[[-124.5712,47.8635],[-124.5714,47.8638],[-124.571,47.8638],[-124.571,47.8637],[-124.5712,47.8635]]],[[[-124.5759,47.8664],[-124.576,47.8666],[-124.5757,47.867],[-124.5757,47.8668],[-124.5759,47.8664]]],[[[-124.5761,47.8666],[-124.5762,47.8668],[-124.5759,47.867],[-124.576,47.8668],[-124.5761,47.8666]]],[[[-124.5773,47.8705],[-124.5775,47.8705],[-124.5775,47.8707],[-124.5774,47.8706],[-124.5773,47.8705]]],[[[-124.6665,48.275],[-124.6827,48.2486],[-124.6898,48.1663],[-124.615,48.128],[-124.6204,48.1149],[-124.5943,48.1158],[-124.5989,48.0882],[-124.6231,48.0846],[-124.621,48.0357],[-124.6633,48.0603],[-124.6642,47.9974],[-124.6284,47.9268],[-124.5903,47.9215],[-124.5904,47.9105],[-124.6395,47.9205],[-124.6736,47.9576],[-124.6637,47.9617],[-124.6777,47.9676],[-124.671,47.9829],[-124.7005,48.0733],[-124.6886,48.0991],[-124.7286,48.1562],[-124.7322,48.1549],[-124.7424,48.1595],[-124.6978,48.1653],[-124.6978,48.1774],[-124.7213,48.1774],[-124.6905,48.2187],[-124.7072,48.2495],[-124.6665,48.275]]],[[[-124.5921,47.8611],[-124.5925,47.8613],[-124.5923,47.8615],[-124.592,47.8613],[-124.5921,47.8611]]],[[[-124.6044,47.8713],[-124.6045,47.8713],[-124.6048,47.8714],[-124.6045,47.8715],[-124.6044,47.8713]]],[[[-124.6062,47.8707],[-124.6063,47.8709],[-124.6061,47.8709],[-124.6061,47.8708],[-124.6062,47.8707]]],[[[-124.6063,47.8714],[-124.6064,47.8714],[-124.6064,47.8715],[-124.6062,47.8714],[-124.6063,47.8714]]],[[[-124.6071,47.871],[-124.6073,47.8711],[-124.6069,47.8712],[-124.6069,47.8711],[-124.6071,47.871]]],[[[-124.6081,47.8713],[-124.6084,47.8713],[-124.6078,47.8715],[-124.6079,47.8715],[-124.6081,47.8713]]],[[[-124.6082,47.8706],[-124.6083,47.8705],[-124.6086,47.8706],[-124.608,47.8706],[-124.6082,47.8706]]],[[[-124.6111,47.8761],[-124.6111,47.876],[-124.6115,47.876],[-124.6115,47.8761],[-124.6111,47.8761]]],[[[-124.6121,47.8715],[-124.6123,47.8715],[-124.6131,47.8719],[-124.6129,47.872],[-124.6121,47.8715]]],[[[-124.613,47.8735],[-124.6132,47.8734],[-124.613,47.8741],[-124.6128,47.8739],[-124.613,47.8735]]],[[[-124.6133,47.8724],[-124.6134,47.8731],[-124.6131,47.8733],[-124.613,47.8726],[-124.6133,47.8724]]],[[[-124.6296,47.8873],[-124.6292,47.8865],[-124.6309,47.8873],[-124.6303,47.8876],[-124.6296,47.8873]]],[[[-124.6307,47.8861],[-124.6311,47.8861],[-124.6313,47.8865],[-124.6309,47.8864],[-124.6307,47.8861]]],[[[-124.6319,47.8791],[-124.6321,47.8791],[-124.6322,47.8792],[-124.632,47.8792],[-124.6319,47.8791]]],[[[-124.6339,47.8788],[-124.6341,47.8788],[-124.634,47.879],[-124.6338,47.879],[-124.6339,47.8788]]],[[[-124.6348,47.8798],[-124.635,47.8798],[-124.635,47.8801],[-124.6348,47.8799],[-124.6348,47.8798]]],[[[-124.6355,47.8816],[-124.6359,47.8816],[-124.6359,47.8819],[-124.6355,47.882],[-124.6355,47.8816]]],[[[-124.6356,47.8825],[-124.6359,47.8825],[-124.636,47.8827],[-124.6358,47.8829],[-124.6356,47.8825]]],[[[-124.6366,47.8833],[-124.6371,47.8836],[-124.6374,47.8843],[-124.6366,47.8842],[-124.6366,47.8833]]],[[[-124.6379,47.8832],[-124.6386,47.8835],[-124.6386,47.8839],[-124.6375,47.884],[-124.6379,47.8832]]],[[[-124.6392,47.8851],[-124.639,47.8851],[-124.6389,47.885],[-124.6393,47.885],[-124.6392,47.8851]]],[[[-124.6397,47.8853],[-124.6399,47.8853],[-124.6399,47.8855],[-124.6397,47.8854],[-124.6397,47.8853]]],[[[-124.64,47.8853],[-124.6406,47.885],[-124.6408,47.8852],[-124.6406,47.8853],[-124.64,47.8853]]],[[[-124.6417,47.8861],[-124.6418,47.886],[-124.642,47.886],[-124.6419,47.8862],[-124.6417,47.8861]]],[[[-124.6423,47.886],[-124.6424,47.886],[-124.6425,47.8861],[-124.6422,47.8862],[-124.6423,47.886]]],[[[-124.6435,47.8863],[-124.6437,47.8863],[-124.6432,47.8863],[-124.6432,47.8863],[-124.6435,47.8863]]],[[[-124.6487,47.9096],[-124.6489,47.9096],[-124.6492,47.9098],[-124.6487,47.91],[-124.6487,47.9096]]],[[[-124.6491,47.9092],[-124.6501,47.9092],[-124.6502,47.9093],[-124.6489,47.9093],[-124.6491,47.9092]]],[[[-124.6504,47.9103],[-124.6493,47.9099],[-124.6528,47.9099],[-124.6512,47.9105],[-124.6504,47.9103]]],[[[-124.6519,47.9088],[-124.651,47.9085],[-124.653,47.9086],[-124.6528,47.9087],[-124.6519,47.9088]]],[[[-124.6632,47.9356],[-124.6634,47.9357],[-124.6635,47.9358],[-124.6631,47.9359],[-124.6632,47.9356]]],[[[-124.6685,48.3177],[-124.6683,48.3177],[-124.6681,48.3175],[-124.6684,48.3175],[-124.6685,48.3177]]],[[[-124.6686,47.9384],[-124.6692,47.9376],[-124.6696,47.9385],[-124.6688,47.9387],[-124.6686,47.9384]]],[[[-124.67,47.9519],[-124.6699,47.9516],[-124.6703,47.9519],[-124.6702,47.9521],[-124.67,47.9519]]],[[[-124.6704,47.9524],[-124.6706,47.9524],[-124.6706,47.9526],[-124.6704,47.9526],[-124.6704,47.9524]]],[[[-124.6711,47.9508],[-124.6715,47.951],[-124.6716,47.952],[-124.6711,47.9519],[-124.6711,47.9508]]],[[[-124.6717,47.9527],[-124.6717,47.9524],[-124.6723,47.9523],[-124.6722,47.9527],[-124.6717,47.9527]]],[[[-124.6718,47.9532],[-124.6719,47.953],[-124.6727,47.9531],[-124.6723,47.9532],[-124.6718,47.9532]]],[[[-124.6731,47.9525],[-124.6735,47.9527],[-124.6721,47.9529],[-124.6722,47.9528],[-124.6731,47.9525]]],[[[-124.6727,47.9534],[-124.6729,47.9536],[-124.6724,47.9536],[-124.6724,47.9535],[-124.6727,47.9534]]],[[[-124.6748,47.9567],[-124.6749,47.9567],[-124.6749,47.9568],[-124.6747,47.9568],[-124.6748,47.9567]]],[[[-124.6756,48.2982],[-124.6762,48.2982],[-124.6764,48.2985],[-124.6752,48.2984],[-124.6756,48.2982]]],[[[-124.6759,48.3292],[-124.676,48.3293],[-124.6761,48.3293],[-124.676,48.3293],[-124.6759,48.3292]]],[[[-124.6763,48.3295],[-124.6766,48.3296],[-124.6765,48.3298],[-124.6762,48.3295],[-124.6763,48.3295]]],[[[-124.6765,47.9583],[-124.6768,47.9584],[-124.6773,47.9589],[-124.6765,47.9588],[-124.6765,47.9583]]],[[[-124.6769,47.9573],[-124.6773,47.9573],[-124.6774,47.9578],[-124.6768,47.9577],[-124.6769,47.9573]]],[[[-124.677,47.9704],[-124.6772,47.9704],[-124.6773,47.9705],[-124.677,47.9705],[-124.677,47.9704]]],[[[-124.6773,47.9583],[-124.677,47.9583],[-124.6777,47.9582],[-124.6775,47.9584],[-124.6773,47.9583]]],[[[-124.6777,47.9581],[-124.6779,47.9579],[-124.6783,47.9581],[-124.6781,47.9584],[-124.6777,47.9581]]],[[[-124.6785,48.3061],[-124.6792,48.3062],[-124.6792,48.3064],[-124.6783,48.3067],[-124.6785,48.3061]]],[[[-124.6792,47.9771],[-124.6794,47.9772],[-124.6792,47.9774],[-124.6791,47.9772],[-124.6792,47.9771]]],[[[-124.6794,48.0067],[-124.6795,48.0069],[-124.6793,48.0071],[-124.6792,48.0069],[-124.6794,48.0067]]],[[[-124.6809,48.0049],[-124.6811,48.0048],[-124.6812,48.005],[-124.6809,48.005],[-124.6809,48.0049]]],[[[-124.6813,47.9842],[-124.6815,47.9843],[-124.6814,47.9845],[-124.6812,47.9844],[-124.6813,47.9842]]],[[[-124.6819,47.9683],[-124.682,47.9683],[-124.6822,47.9684],[-124.6819,47.9684],[-124.6819,47.9683]]],[[[-124.682,47.9677],[-124.6822,47.9676],[-124.6823,47.9677],[-124.6821,47.9678],[-124.682,47.9677]]],[[[-124.6825,47.9655],[-124.6827,47.9656],[-124.6826,47.9658],[-124.6824,47.9657],[-124.6825,47.9655]]],[[[-124.6825,47.9911],[-124.6828,47.9911],[-124.6829,47.9912],[-124.6826,47.9912],[-124.6825,47.9911]]],[[[-124.6825,47.9675],[-124.6826,47.9675],[-124.6827,47.9675],[-124.6825,47.9677],[-124.6825,47.9675]]],[[[-124.6829,48.2786],[-124.683,48.2786],[-124.683,48.2787],[-124.6829,48.2787],[-124.6829,48.2786]]],[[[-124.6839,47.9682],[-124.6831,47.9681],[-124.683,47.9679],[-124.6843,47.9681],[-124.6839,47.9682]]],[[[-124.6831,48.278],[-124.6831,48.278],[-124.6834,48.278],[-124.683,48.2781],[-124.6831,48.278]]],[[[-124.684,47.9316],[-124.6853,47.9316],[-124.6862,47.9324],[-124.6835,47.9317],[-124.684,47.9316]]],[[[-124.6839,48.2782],[-124.6841,48.2783],[-124.6837,48.2784],[-124.6837,48.2783],[-124.6839,48.2782]]],[[[-124.6841,48.284],[-124.6844,48.2839],[-124.6845,48.284],[-124.6842,48.2841],[-124.6841,48.284]]],[[[-124.6843,48.2786],[-124.6844,48.2786],[-124.6842,48.2787],[-124.6842,48.2786],[-124.6843,48.2786]]],[[[-124.6846,48.2801],[-124.6844,48.2801],[-124.685,48.2801],[-124.6848,48.2802],[-124.6846,48.2801]]],[[[-124.6848,48.2787],[-124.685,48.279],[-124.6845,48.2791],[-124.6846,48.2788],[-124.6848,48.2787]]],[[[-124.685,47.9735],[-124.6852,47.9737],[-124.685,47.9738],[-124.6849,47.9737],[-124.685,47.9735]]],[[[-124.6849,48.2795],[-124.6852,48.2791],[-124.6861,48.2795],[-124.6853,48.2796],[-124.6849,48.2795]]],[[[-124.6854,47.9731],[-124.6856,47.973],[-124.6858,47.9732],[-124.6855,47.9735],[-124.6854,47.9731]]],[[[-124.6857,48.2811],[-124.6859,48.281],[-124.686,48.2811],[-124.6858,48.2812],[-124.6857,48.2811]]],[[[-124.6861,47.9723],[-124.6862,47.9723],[-124.6865,47.9724],[-124.6864,47.9725],[-124.6861,47.9723]]],[[[-124.6866,48.0205],[-124.6863,48.0205],[-124.6863,48.0203],[-124.6866,48.0202],[-124.6866,48.0205]]],[[[-124.6864,48.0207],[-124.6866,48.0207],[-124.6866,48.0209],[-124.6864,48.0209],[-124.6864,48.0207]]],[[[-124.6871,48.0188],[-124.6873,48.019],[-124.687,48.0194],[-124.6868,48.0192],[-124.6871,48.0188]]],[[[-124.687,48.0183],[-124.6871,48.0182],[-124.6873,48.0182],[-124.6872,48.0184],[-124.687,48.0183]]],[[[-124.6873,48.303],[-124.6875,48.3031],[-124.6876,48.3034],[-124.6873,48.3033],[-124.6873,48.303]]],[[[-124.6885,47.9863],[-124.6887,47.9862],[-124.6894,47.9863],[-124.6889,47.9867],[-124.6885,47.9863]]],[[[-124.6887,47.9509],[-124.6892,47.9507],[-124.6899,47.9507],[-124.6894,47.9509],[-124.6887,47.9509]]],[[[-124.6889,47.9873],[-124.6892,47.9873],[-124.6893,47.9876],[-124.6889,47.9876],[-124.6889,47.9873]]],[[[-124.6894,48.3014],[-124.6899,48.3016],[-124.6901,48.3022],[-124.6892,48.3015],[-124.6894,48.3014]]],[[[-124.6902,48.0252],[-124.6906,48.0253],[-124.6907,48.0254],[-124.6903,48.0255],[-124.6902,48.0252]]],[[[-124.6915,47.9876],[-124.6911,47.9875],[-124.6909,47.9873],[-124.6918,47.9874],[-124.6915,47.9876]]],[[[-124.6921,47.9947],[-124.6919,47.9956],[-124.6912,47.9954],[-124.6915,47.9949],[-124.6921,47.9947]]],[[[-124.6919,48.0171],[-124.692,48.0171],[-124.6921,48.0173],[-124.6918,48.0173],[-124.6919,48.0171]]],[[[-124.6922,47.9957],[-124.6924,47.9958],[-124.6919,47.9959],[-124.6919,47.9958],[-124.6922,47.9957]]],[[[-124.6921,47.9965],[-124.6923,47.9964],[-124.6924,47.9965],[-124.6922,47.9966],[-124.6921,47.9965]]],[[[-124.6923,47.9995],[-124.6926,47.9995],[-124.6927,47.9996],[-124.6925,47.9997],[-124.6923,47.9995]]],[[[-124.6944,47.9975],[-124.6925,47.9968],[-124.6978,47.9968],[-124.6961,47.9978],[-124.6944,47.9975]]],[[[-124.6929,47.9998],[-124.6931,47.9998],[-124.6931,47.9998],[-124.6929,47.9999],[-124.6929,47.9998]]],[[[-124.6933,48.0175],[-124.6936,48.0176],[-124.6934,48.0179],[-124.6932,48.0177],[-124.6933,48.0175]]],[[[-124.6942,48.0258],[-124.6944,48.0259],[-124.6941,48.0261],[-124.694,48.0259],[-124.6942,48.0258]]],[[[-124.6987,48.2239],[-124.6989,48.2239],[-124.6989,48.224],[-124.6986,48.224],[-124.6987,48.2239]]],[[[-124.6989,48.0669],[-124.699,48.0669],[-124.6991,48.0669],[-124.6988,48.067],[-124.6989,48.0669]]],[[[-124.6996,48.0433],[-124.6999,48.0433],[-124.6999,48.0435],[-124.6996,48.0435],[-124.6996,48.0433]]],[[[-124.7002,48.3166],[-124.7004,48.3167],[-124.7004,48.3169],[-124.7001,48.3168],[-124.7002,48.3166]]],[[[-124.7004,48.0429],[-124.7007,48.0428],[-124.7008,48.0429],[-124.7004,48.0431],[-124.7004,48.0429]]],[[[-124.7017,48.0107],[-124.7019,48.0106],[-124.7021,48.0108],[-124.7018,48.0109],[-124.7017,48.0107]]],[[[-124.7018,48.0295],[-124.7023,48.0295],[-124.7027,48.0298],[-124.7022,48.03],[-124.7018,48.0295]]],[[[-124.7021,48.2343],[-124.7023,48.2342],[-124.7025,48.2345],[-124.7022,48.2345],[-124.7021,48.2343]]],[[[-124.7031,48.2332],[-124.7031,48.2331],[-124.7033,48.2332],[-124.7031,48.2333],[-124.7031,48.2332]]],[[[-124.7039,48.2357],[-124.7041,48.2357],[-124.7041,48.2358],[-124.7038,48.2358],[-124.7039,48.2357]]],[[[-124.704,48.0422],[-124.7043,48.0422],[-124.7047,48.0425],[-124.704,48.0425],[-124.704,48.0422]]],[[[-124.7044,48.2332],[-124.7045,48.2332],[-124.7047,48.2333],[-124.7042,48.2333],[-124.7044,48.2332]]],[[[-124.7053,48.2457],[-124.7052,48.2456],[-124.7052,48.2454],[-124.7054,48.2454],[-124.7053,48.2457]]],[[[-124.7053,48.2325],[-124.7055,48.2325],[-124.7055,48.2326],[-124.7054,48.2326],[-124.7053,48.2325]]],[[[-124.7058,48.2338],[-124.706,48.2331],[-124.7068,48.2335],[-124.7062,48.2339],[-124.7058,48.2338]]],[[[-124.707,48.2397],[-124.7076,48.2393],[-124.7079,48.2399],[-124.7073,48.24],[-124.707,48.2397]]],[[[-124.7077,48.2518],[-124.7079,48.2518],[-124.7081,48.2519],[-124.7077,48.252],[-124.7077,48.2518]]],[[[-124.7084,48.252],[-124.7087,48.252],[-124.7085,48.2525],[-124.7082,48.2523],[-124.7084,48.252]]],[[[-124.7099,48.2532],[-124.7093,48.2533],[-124.7087,48.2526],[-124.7108,48.2528],[-124.7099,48.2532]]],[[[-124.7092,48.2419],[-124.7087,48.2419],[-124.7099,48.2418],[-124.7097,48.2419],[-124.7092,48.2419]]],[[[-124.7088,48.2486],[-124.709,48.2485],[-124.709,48.2486],[-124.7088,48.2488],[-124.7088,48.2486]]],[[[-124.7091,48.2487],[-124.7093,48.2487],[-124.7089,48.2488],[-124.709,48.2487],[-124.7091,48.2487]]],[[[-124.7102,48.242],[-124.7102,48.242],[-124.7106,48.242],[-124.7102,48.2422],[-124.7102,48.242]]],[[[-124.7106,48.2421],[-124.7107,48.2421],[-124.7107,48.2422],[-124.7106,48.2422],[-124.7106,48.2421]]],[[[-124.7112,48.242],[-124.7115,48.2419],[-124.7118,48.2423],[-124.7113,48.2422],[-124.7112,48.242]]],[[[-124.7114,48.2431],[-124.7115,48.2431],[-124.7115,48.2431],[-124.7113,48.2431],[-124.7114,48.2431]]],[[[-124.7117,48.2503],[-124.7119,48.2504],[-124.7118,48.2507],[-124.7115,48.2506],[-124.7117,48.2503]]],[[[-124.7125,48.1168],[-124.7125,48.1167],[-124.713,48.1167],[-124.7122,48.117],[-124.7125,48.1168]]],[[[-124.7125,48.226],[-124.7127,48.2262],[-124.7126,48.2263],[-124.7123,48.2263],[-124.7125,48.226]]],[[[-124.7129,48.2518],[-124.7131,48.2519],[-124.7127,48.252],[-124.7127,48.2519],[-124.7129,48.2518]]],[[[-124.7138,48.2268],[-124.7131,48.2266],[-124.7131,48.2264],[-124.7136,48.2263],[-124.7138,48.2268]]],[[[-124.7135,48.1168],[-124.7136,48.1168],[-124.7138,48.1168],[-124.7133,48.1169],[-124.7135,48.1168]]],[[[-124.7143,48.1185],[-124.7138,48.1181],[-124.7148,48.1177],[-124.7147,48.1184],[-124.7143,48.1185]]],[[[-124.7141,48.3648],[-124.714,48.3647],[-124.7148,48.3648],[-124.7145,48.365],[-124.7141,48.3648]]],[[[-124.7145,48.2434],[-124.7146,48.2433],[-124.7147,48.2434],[-124.7146,48.2435],[-124.7145,48.2434]]],[[[-124.715,48.2429],[-124.7151,48.2429],[-124.7153,48.243],[-124.7149,48.2431],[-124.715,48.2429]]],[[[-124.7167,48.03],[-124.7169,48.0299],[-124.7173,48.0303],[-124.7168,48.0302],[-124.7167,48.03]]],[[[-124.7173,48.2544],[-124.7176,48.2544],[-124.7177,48.2545],[-124.7176,48.2546],[-124.7173,48.2544]]],[[[-124.7174,48.03],[-124.718,48.0301],[-124.7181,48.0302],[-124.7177,48.0302],[-124.7174,48.03]]],[[[-124.7202,48.1343],[-124.7199,48.1343],[-124.7199,48.1342],[-124.7203,48.1341],[-124.7202,48.1343]]],[[[-124.7242,48.0019],[-124.7244,48.0019],[-124.7245,48.0024],[-124.7241,48.0023],[-124.7242,48.0019]]],[[[-124.7242,48.0038],[-124.7255,48.0034],[-124.7264,48.0048],[-124.7248,48.0056],[-124.7242,48.0038]]],[[[-124.7272,48.0024],[-124.7275,48.0025],[-124.7276,48.0033],[-124.727,48.0032],[-124.7272,48.0024]]],[[[-124.7273,47.9926],[-124.7275,47.9926],[-124.7271,47.9929],[-124.7271,47.9927],[-124.7273,47.9926]]],[[[-124.7275,48.0053],[-124.7279,48.0054],[-124.7272,48.0057],[-124.7274,48.0054],[-124.7275,48.0053]]],[[[-124.728,48.1506],[-124.7281,48.151],[-124.7276,48.1509],[-124.7277,48.1507],[-124.728,48.1506]]],[[[-124.7282,47.9912],[-124.7293,47.9908],[-124.7276,47.9922],[-124.7279,47.9919],[-124.7282,47.9912]]],[[[-124.7278,48.3733],[-124.7281,48.3733],[-124.7282,48.3735],[-124.7281,48.3736],[-124.7278,48.3733]]],[[[-124.7279,48.3725],[-124.728,48.3726],[-124.7281,48.3727],[-124.7278,48.3728],[-124.7279,48.3725]]],[[[-124.7286,48.3653],[-124.7282,48.3653],[-124.7279,48.3646],[-124.7294,48.3654],[-124.7286,48.3653]]],[[[-124.728,48.1894],[-124.7283,48.1893],[-124.7284,48.1894],[-124.7282,48.1895],[-124.728,48.1894]]],[[[-124.7284,47.9921],[-124.7286,47.9922],[-124.7281,47.9924],[-124.7281,47.9923],[-124.7284,47.9921]]],[[[-124.7281,48.3656],[-124.7285,48.3656],[-124.7294,48.3662],[-124.7284,48.3662],[-124.7281,48.3656]]],[[[-124.7282,47.9926],[-124.7283,47.9926],[-124.7288,47.9927],[-124.7281,47.993],[-124.7282,47.9926]]],[[[-124.7286,48.3703],[-124.7288,48.3703],[-124.7282,48.3707],[-124.7283,48.3706],[-124.7286,48.3703]]],[[[-124.729,48.3709],[-124.7286,48.3707],[-124.7293,48.3703],[-124.7295,48.3706],[-124.729,48.3709]]],[[[-124.7286,48.3734],[-124.7287,48.3733],[-124.7289,48.3733],[-124.7288,48.3734],[-124.7286,48.3734]]],[[[-124.7298,48.3827],[-124.7299,48.3827],[-124.7299,48.3829],[-124.7299,48.3829],[-124.7298,48.3827]]],[[[-124.73,48.3698],[-124.7302,48.3698],[-124.7302,48.3702],[-124.7299,48.3702],[-124.73,48.3698]]],[[[-124.7304,48.1243],[-124.7306,48.1243],[-124.7308,48.1244],[-124.7305,48.1246],[-124.7304,48.1243]]],[[[-124.7306,48.3697],[-124.731,48.3698],[-124.7305,48.3703],[-124.7304,48.37],[-124.7306,48.3697]]],[[[-124.7308,48.1249],[-124.7306,48.1247],[-124.7309,48.1247],[-124.731,48.1248],[-124.7308,48.1249]]],[[[-124.7307,48.3759],[-124.731,48.3759],[-124.731,48.3761],[-124.7307,48.376],[-124.7307,48.3759]]],[[[-124.731,48.3784],[-124.7312,48.3784],[-124.7312,48.3787],[-124.731,48.3785],[-124.731,48.3784]]],[[[-124.7312,48.123],[-124.7318,48.1232],[-124.7316,48.1238],[-124.7311,48.1237],[-124.7312,48.123]]],[[[-124.7313,48.1243],[-124.7316,48.1244],[-124.7316,48.1245],[-124.7312,48.1245],[-124.7313,48.1243]]],[[[-124.7316,48.125],[-124.7317,48.125],[-124.7317,48.1254],[-124.7314,48.1252],[-124.7316,48.125]]],[[[-124.7314,48.377],[-124.732,48.3772],[-124.7319,48.3775],[-124.7315,48.3773],[-124.7314,48.377]]],[[[-124.7317,48.3783],[-124.7319,48.3783],[-124.7319,48.3785],[-124.7317,48.3784],[-124.7317,48.3783]]],[[[-124.7324,48.1355],[-124.732,48.1351],[-124.7322,48.1348],[-124.7329,48.1352],[-124.7324,48.1355]]],[[[-124.7324,48.3808],[-124.7326,48.3808],[-124.7325,48.3811],[-124.7324,48.381],[-124.7324,48.3808]]],[[[-124.7324,48.1262],[-124.7325,48.1262],[-124.7326,48.1263],[-124.7325,48.1263],[-124.7324,48.1262]]],[[[-124.7326,48.3713],[-124.7327,48.3713],[-124.7329,48.3714],[-124.7327,48.3715],[-124.7326,48.3713]]],[[[-124.7331,48.1546],[-124.7333,48.1548],[-124.733,48.1549],[-124.7329,48.1548],[-124.7331,48.1546]]],[[[-124.7339,48.3691],[-124.7342,48.3691],[-124.7344,48.3692],[-124.7338,48.3692],[-124.7339,48.3691]]],[[[-124.7351,48.3699],[-124.7352,48.3698],[-124.7361,48.37],[-124.7354,48.3701],[-124.7351,48.3699]]],[[[-124.7426,48.1825],[-124.7429,48.1825],[-124.7429,48.1825],[-124.7428,48.1827],[-124.7426,48.1825]]],[[[-124.7444,48.1537],[-124.7445,48.1536],[-124.7447,48.1537],[-124.7446,48.1537],[-124.7444,48.1537]]],[[[-124.7451,48.1504],[-124.7453,48.1504],[-124.7454,48.1506],[-124.7451,48.1505],[-124.7451,48.1504]]],[[[-124.7534,48.1606],[-124.7525,48.1604],[-124.7455,48.1553],[-124.7485,48.1551],[-124.7534,48.1606]]],[[[-124.7461,48.1529],[-124.7462,48.1529],[-124.7463,48.153],[-124.7462,48.153],[-124.7461,48.1529]]],[[[-124.7467,48.1538],[-124.7468,48.1538],[-124.7468,48.1539],[-124.7467,48.1539],[-124.7467,48.1538]]],[[[-124.7471,48.1511],[-124.7473,48.1511],[-124.7475,48.1515],[-124.7473,48.1515],[-124.7471,48.1511]]],[[[-124.7548,48.1584],[-124.7551,48.1584],[-124.755,48.1588],[-124.7545,48.1585],[-124.7548,48.1584]]],[[[-124.7571,48.1756],[-124.7558,48.1753],[-124.7552,48.1745],[-124.7573,48.174],[-124.7571,48.1756]]],[[[-124.7568,48.1547],[-124.7566,48.1544],[-124.7573,48.1549],[-124.757,48.1549],[-124.7568,48.1547]]],[[[-124.7574,48.153],[-124.7575,48.1532],[-124.7571,48.1533],[-124.7572,48.1531],[-124.7574,48.153]]],[[[-124.7579,48.1537],[-124.758,48.1539],[-124.7577,48.154],[-124.7576,48.1539],[-124.7579,48.1537]]],[[[-124.7579,48.1757],[-124.7581,48.1758],[-124.7581,48.1759],[-124.7579,48.1759],[-124.7579,48.1757]]],[[[-124.7615,48.1768],[-124.7615,48.1764],[-124.759,48.1757],[-124.7629,48.1761],[-124.7615,48.1768]]],[[[-124.7637,48.176],[-124.7632,48.1758],[-124.7643,48.1757],[-124.7641,48.1761],[-124.7637,48.176]]],[[[-124.7659,48.1772],[-124.7666,48.1773],[-124.7667,48.1775],[-124.7661,48.1774],[-124.7659,48.1772]]],[[[-124.7668,48.1774],[-124.7669,48.1773],[-124.767,48.1774],[-124.7668,48.1775],[-124.7668,48.1774]]],[[[-124.7711,48.1782],[-124.7714,48.1783],[-124.7715,48.1784],[-124.7708,48.1784],[-124.7711,48.1782]]]]},"properties":{"park":"olympic","name":"Olympic National Park","source":"iNaturalist place","place_id":69094,"source_url":"https://www.inaturalist.org/places/69094"}}