{"type":"Feature","geometry":{"type":"Polygon","coordinates":[[[-113.0844,37.1713],[-113.0913,37.1722],[-113.0914,37.1998],[-113.1094,37.1998],[-113.1095,37.236],[-113.1184,37.236],[-113.1186,37.2574],[-113.109,37.2587],[-113.1088,37.3372],[-113.1178,37.3372],[-113.1178,37.3516],[-113.1269,37.3516],[-113.1269,37.3734],[-113.1968,37.3734],[-113.1968,37.3879],[-113.2059,37.3879],[-113.2059,37.4024],[-113.215,37.4024],[-113.215,37.4375],[-113.217,37.4375],[-113.217,37.4522],[-113.2283,37.4522],[-113.2242,37.467],[-113.2072,37.4665],[-113.2072,37.481],[-113.1981,37.481],[-113.1983,37.5043],[-113.18,37.5043],[-113.18,37.5028],[-113.1447,37.5028],[-113.1463,37.4598],[-113.1445,37.4453],[-113.0913,37.4454],[-113.0909,37.3735],[-113.0554,37.3731],[-113.0554,37.3804],[-113.0463,37.3804],[-113.0462,37.3876],[-113.0415,37.3875],[-113.0415,37.3912],[-113.0369,37.3911],[-113.0368,37.3988],[-113.0316,37.3988],[-113.0262,37.3938],[-113.0185,37.3945],[-113.0143,37.3984],[-113.0104,37.3985],[-113.0056,37.3973],[-113.0043,37.3953],[-113.0005,37.3953],[-113.0005,37.3699],[-112.9011,37.3698],[-112.9014,37.2815],[-112.8991,37.2815],[-112.8992,37.2669],[-112.8816,37.267],[-112.8816,37.2524],[-112.8635,37.2524],[-112.8634,37.1515],[-112.8988,37.1517],[-112.8989,37.1414],[-112.9702,37.1413],[-112.9704,37.1645],[-113.0113,37.1644],[-113.0113,37.1681],[-113.0067,37.1681],[-113.0067,37.1719],[-112.9976,37.1718],[-112.9976,37.1828],[-112.993,37.1828],[-112.993,37.1865],[-112.9885,37.1865],[-112.9885,37.1926],[-112.9909,37.1913],[-112.9884,37.2013],[-113.0066,37.2012],[-113.0067,37.1828],[-113.0113,37.1828],[-113.0113,37.1791],[-113.0158,37.1791],[-113.0158,37.1718],[-113.0844,37.1713]]]},"properties":{"park":"zion","name":"Zion National Park","source":"iNaturalist place","place_id":50634,"source_url":"https://www.inaturalist.org/places/50634"}}