{"type":"Feature","geometry":{"type":"MultiPolygon","coordinates":[[[[-103.5508,47.0231],[-103.53,47.0231],[-103.5193,47.0177],[-103.5193,47.0159],[-103.5088,47.0159],[-103.5088,47.0087],[-103.4771,47.0087],[-103.477,46.9943],[-103.4136,46.9944],[-103.4135,46.98],[-103.3924,46.98],[-103.3897,46.9769],[-103.358,46.9553],[-103.3472,46.9553],[-103.3155,46.9337],[-103.3155,46.8966],[-103.3416,46.8905],[-103.3634,46.8883],[-103.3731,46.891],[-103.375,46.8938],[-103.3752,46.8919],[-103.3832,46.8926],[-103.3825,46.8948],[-103.3874,46.8917],[-103.3966,46.8911],[-103.4026,46.8927],[-103.4091,46.8987],[-103.4151,46.9013],[-103.434,46.9031],[-103.4497,46.9092],[-103.4765,46.9112],[-103.4938,46.9176],[-103.5095,46.9183],[-103.5148,46.9219],[-103.5225,46.9219],[-103.5226,46.9183],[-103.52,46.9183],[-103.52,46.9149],[-103.5262,46.9154],[-103.5268,46.9142],[-103.53,46.9157],[-103.5252,46.9172],[-103.5252,46.9183],[-103.5301,46.9184],[-103.5286,46.9214],[-103.5293,46.9236],[-103.5352,46.9272],[-103.5424,46.9266],[-103.5462,46.9294],[-103.5462,46.9323],[-103.5504,46.9316],[-103.5511,46.9331],[-103.5675,46.9288],[-103.5675,46.9688],[-103.5781,46.9798],[-103.5933,46.9798],[-103.5933,46.987],[-103.6038,46.9943],[-103.6038,47.0015],[-103.572,47.0232],[-103.5508,47.0231]]],[[[-103.6217,47.2436],[-103.6193,47.2328],[-103.6254,47.2327],[-103.6308,47.24],[-103.6308,47.2436],[-103.6255,47.2436],[-103.6255,47.2472],[-103.6206,47.2472],[-103.6217,47.2436]]],[[[-103.3977,47.6316],[-103.3234,47.6315],[-103.3233,47.6242],[-103.3127,47.6242],[-103.3127,47.6169],[-103.2644,47.6168],[-103.2644,47.6131],[-103.259,47.6131],[-103.259,47.6113],[-103.2484,47.6112],[-103.2483,47.6094],[-103.243,47.6094],[-103.243,47.6022],[-103.2483,47.6022],[-103.2481,47.591],[-103.2584,47.5914],[-103.268,47.5995],[-103.2733,47.6008],[-103.2812,47.5964],[-103.2811,47.5879],[-103.2843,47.5829],[-103.2979,47.5781],[-103.3056,47.5779],[-103.3051,47.5861],[-103.3066,47.588],[-103.3124,47.588],[-103.3123,47.5743],[-103.3762,47.5742],[-103.3759,47.5453],[-103.4298,47.5451],[-103.4405,47.5523],[-103.4405,47.5596],[-103.4617,47.5673],[-103.4619,47.6027],[-103.4512,47.6027],[-103.4512,47.6136],[-103.4405,47.6136],[-103.4405,47.6244],[-103.4191,47.6244],[-103.4191,47.6316],[-103.3977,47.6316]]]]},"properties":{"park":"theodore_roosevelt","name":"Theodore Roosevelt National Park","source":"iNaturalist place","place_id":72793,"source_url":"https://www.inaturalist.org/places/72793"}}