{"type":"Feature","geometry":{"type":"MultiPolygon","coordinates":[[[[-110.4988,32.2373],[-110.4985,32.1066],[-110.5529,32.1065],[-110.5529,32.104],[-110.5864,32.1041],[-110.5865,32.148],[-110.6059,32.1479],[-110.6032,32.144],[-110.6023,32.1355],[-110.6101,32.1277],[-110.6149,32.1276],[-110.6179,32.1253],[-110.6364,32.126],[-110.6363,32.1333],[-110.6407,32.1333],[-110.6407,32.1297],[-110.6536,32.1297],[-110.6536,32.1334],[-110.6557,32.1334],[-110.6557,32.1315],[-110.6578,32.1315],[-110.6578,32.1333],[-110.6747,32.1332],[-110.6747,32.1223],[-110.6872,32.1223],[-110.6875,32.1477],[-110.7349,32.1482],[-110.7338,32.1596],[-110.7382,32.1627],[-110.738,32.2209],[-110.721,32.2209],[-110.7209,32.2355],[-110.5532,32.2352],[-110.5532,32.2374],[-110.4988,32.2373]]],[[[-111.1181,32.316],[-111.1139,32.3159],[-111.1139,32.3231],[-111.1096,32.3232],[-111.1096,32.3195],[-111.1054,32.3196],[-111.1054,32.3231],[-111.0894,32.3232],[-111.0887,32.316],[-111.1006,32.3109],[-111.1006,32.3087],[-111.1026,32.3087],[-111.1026,32.3051],[-111.1139,32.3051],[-111.1139,32.3015],[-111.1054,32.3015],[-111.1054,32.2943],[-111.1225,32.2942],[-111.1224,32.2725],[-111.1139,32.2724],[-111.1139,32.2651],[-111.1011,32.2651],[-111.1011,32.2615],[-111.1054,32.2615],[-111.1053,32.2579],[-111.0926,32.2579],[-111.0926,32.2615],[-111.084,32.2597],[-111.084,32.2561],[-111.0798,32.2561],[-111.0797,32.2507],[-111.1669,32.2507],[-111.1669,32.2482],[-111.2182,32.2482],[-111.2182,32.2627],[-111.2353,32.2627],[-111.2353,32.27],[-111.2438,32.27],[-111.2438,32.2772],[-111.2353,32.2772],[-111.2353,32.2917],[-111.2181,32.2918],[-111.2182,32.3063],[-111.2353,32.3063],[-111.2353,32.3135],[-111.184,32.3135],[-111.184,32.3062],[-111.1669,32.3062],[-111.1669,32.3353],[-111.1823,32.3353],[-111.1824,32.3518],[-111.1314,32.3521],[-111.1313,32.3376],[-111.127,32.3376],[-111.1269,32.3341],[-111.1226,32.334],[-111.1224,32.3161],[-111.1181,32.316]]]]},"properties":{"park":"saguaro","name":"Saguaro National Park","source":"iNaturalist place","place_id":65739,"source_url":"https://www.inaturalist.org/places/65739"}}