{"type":"Feature","geometry":{"type":"MultiPolygon","coordinates":[[[[-80.8271,33.8444],[-80.8267,33.8437],[-80.8265,33.8437],[-80.8225,33.8338],[-80.8222,33.8342],[-80.8143,33.8339],[-80.7962,33.8337],[-80.7972,33.8302],[-80.7958,33.8263],[-80.7914,33.8218],[-80.7919,33.8203],[-80.7909,33.82],[-80.7908,33.8193],[-80.7896,33.8199],[-80.7878,33.82],[-80.7876,33.8213],[-80.7874,33.8201],[-80.787,33.8195],[-80.7865,33.819],[-80.7806,33.8164],[-80.7764,33.8166],[-80.7757,33.8168],[-80.7752,33.8171],[-80.7749,33.8175],[-80.7743,33.8199],[-80.7697,33.8179],[-80.7624,33.8162],[-80.7592,33.8145],[-80.7539,33.813],[-80.753,33.8129],[-80.7518,33.813],[-80.7486,33.8137],[-80.7478,33.8137],[-80.7458,33.8133],[-80.7451,33.8133],[-80.7402,33.8144],[-80.7385,33.8144],[-80.7384,33.8143],[-80.7381,33.8131],[-80.7383,33.812],[-80.7382,33.8102],[-80.7378,33.8089],[-80.7378,33.807],[-80.7376,33.8068],[-80.7369,33.8071],[-80.7364,33.8069],[-80.7363,33.8065],[-80.7341,33.8059],[-80.7317,33.8054],[-80.7312,33.8055],[-80.7302,33.8052],[-80.7257,33.8049],[-80.7248,33.805],[-80.7243,33.8045],[-80.7218,33.8051],[-80.7213,33.8056],[-80.7208,33.8055],[-80.7203,33.8057],[-80.7196,33.8075],[-80.7207,33.8078],[-80.7209,33.8085],[-80.7212,33.8086],[-80.7221,33.8084],[-80.7227,33.8085],[-80.7237,33.8085],[-80.7244,33.809],[-80.7249,33.8092],[-80.7247,33.8115],[-80.7192,33.8176],[-80.7181,33.8179],[-80.7103,33.8134],[-80.7057,33.8098],[-80.6777,33.781],[-80.6704,33.7815],[-80.6666,33.7827],[-80.6645,33.7838],[-80.6622,33.7845],[-80.6617,33.7851],[-80.6611,33.7854],[-80.6603,33.7855],[-80.6597,33.7853],[-80.6585,33.7855],[-80.6581,33.7862],[-80.656,33.7879],[-80.6552,33.7892],[-80.6552,33.7902],[-80.6548,33.7911],[-80.654,33.7922],[-80.6524,33.7935],[-80.6515,33.794],[-80.6488,33.7947],[-80.6454,33.7941],[-80.645,33.7928],[-80.6444,33.7921],[-80.6419,33.7908],[-80.6401,33.7903],[-80.6386,33.7895],[-80.6372,33.7882],[-80.6368,33.7865],[-80.636,33.7855],[-80.6323,33.7847],[-80.6304,33.7847],[-80.6289,33.7841],[-80.6275,33.7834],[-80.6267,33.7825],[-80.6257,33.7803],[-80.6244,33.7797],[-80.6219,33.7802],[-80.6054,33.7719],[-80.6058,33.7711],[-80.6057,33.7709],[-80.6035,33.7705],[-80.6024,33.77],[-80.6014,33.7691],[-80.6013,33.7684],[-80.6016,33.7676],[-80.6031,33.7669],[-80.6039,33.7669],[-80.6054,33.768],[-80.606,33.7679],[-80.6063,33.7673],[-80.6058,33.7658],[-80.6059,33.7648],[-80.6053,33.7641],[-80.604,33.764],[-80.6033,33.7635],[-80.6031,33.7631],[-80.6052,33.7621],[-80.6069,33.7617],[-80.6078,33.7622],[-80.6087,33.7623],[-80.6089,33.7619],[-80.6089,33.7615],[-80.6081,33.7595],[-80.6072,33.7589],[-80.6054,33.7589],[-80.6049,33.7586],[-80.6048,33.7581],[-80.6059,33.7575],[-80.6085,33.7573],[-80.6117,33.7557],[-80.6121,33.7552],[-80.612,33.7549],[-80.6114,33.7546],[-80.6093,33.7548],[-80.609,33.7546],[-80.609,33.7539],[-80.6093,33.7531],[-80.6103,33.7521],[-80.6118,33.7513],[-80.6134,33.7508],[-80.6157,33.7512],[-80.6158,33.7507],[-80.6154,33.75],[-80.6143,33.7488],[-80.6143,33.7483],[-80.6146,33.7479],[-80.6184,33.7486],[-80.6193,33.7485],[-80.6199,33.7483],[-80.62,33.7477],[-80.6193,33.7469],[-80.6188,33.7458],[-80.6186,33.7447],[-80.6186,33.7438],[-80.6193,33.7433],[-80.6209,33.7449],[-80.6223,33.7456],[-80.6252,33.7452],[-80.6279,33.7441],[-80.6297,33.7437],[-80.6316,33.7436],[-80.6339,33.7442],[-80.6366,33.7453],[-80.6394,33.7468],[-80.641,33.7479],[-80.6403,33.7501],[-80.6404,33.7511],[-80.6413,33.7518],[-80.6423,33.7522],[-80.645,33.7527],[-80.6458,33.7532],[-80.6468,33.754],[-80.6479,33.7555],[-80.6488,33.757],[-80.6501,33.7582],[-80.6519,33.7591],[-80.6538,33.7597],[-80.656,33.761],[-80.6566,33.7633],[-80.6563,33.7648],[-80.6558,33.7659],[-80.6522,33.7692],[-80.6517,33.7704],[-80.652,33.7716],[-80.6528,33.7729],[-80.6545,33.7737],[-80.6569,33.7737],[-80.6592,33.7733],[-80.6613,33.7725],[-80.6663,33.7693],[-80.667,33.7683],[-80.6687,33.7679],[-80.6707,33.7677],[-80.6716,33.7674],[-80.6722,33.7669],[-80.6732,33.7657],[-80.6743,33.7628],[-80.6745,33.7626],[-80.6752,33.7627],[-80.6768,33.7634],[-80.6787,33.7633],[-80.6796,33.763],[-80.6801,33.7624],[-80.6808,33.7613],[-80.6819,33.7602],[-80.6838,33.759],[-80.685,33.7577],[-80.6864,33.7566],[-80.6866,33.7566],[-80.6873,33.7574],[-80.688,33.7578],[-80.6867,33.759],[-80.6862,33.7599],[-80.6863,33.7605],[-80.6872,33.7609],[-80.688,33.7607],[-80.6882,33.7605],[-80.689,33.7579],[-80.6904,33.7579],[-80.6923,33.7571],[-80.6972,33.7567],[-80.6988,33.7569],[-80.6996,33.7573],[-80.7023,33.759],[-80.7049,33.7599],[-80.7053,33.7602],[-80.7056,33.7608],[-80.7055,33.7617],[-80.7052,33.7623],[-80.7041,33.7635],[-80.7034,33.7648],[-80.7036,33.7656],[-80.7043,33.7671],[-80.7051,33.7677],[-80.7069,33.7686],[-80.7079,33.769],[-80.7103,33.7712],[-80.711,33.7717],[-80.7122,33.772],[-80.7133,33.7717],[-80.714,33.7714],[-80.7146,33.7701],[-80.7145,33.7695],[-80.7138,33.768],[-80.7137,33.767],[-80.7139,33.766],[-80.7143,33.7655],[-80.7146,33.764],[-80.7144,33.7625],[-80.7146,33.7619],[-80.7157,33.7608],[-80.7172,33.761],[-80.7188,33.7618],[-80.7194,33.7625],[-80.7211,33.7643],[-80.7219,33.7669],[-80.7224,33.7677],[-80.7235,33.7682],[-80.7242,33.7687],[-80.7252,33.769],[-80.7261,33.769],[-80.7272,33.7687],[-80.728,33.7683],[-80.7284,33.7677],[-80.7285,33.7669],[-80.7282,33.7642],[-80.7283,33.7633],[-80.7295,33.7611],[-80.73,33.7608],[-80.7336,33.7607],[-80.7344,33.7604],[-80.7349,33.7599],[-80.7363,33.7582],[-80.7369,33.7578],[-80.7377,33.7569],[-80.7383,33.7569],[-80.7394,33.7571],[-80.7401,33.7581],[-80.7401,33.7587],[-80.7399,33.7594],[-80.7381,33.7627],[-80.7363,33.7642],[-80.7358,33.7654],[-80.7354,33.7658],[-80.7353,33.7664],[-80.7355,33.7671],[-80.7378,33.7682],[-80.7397,33.7685],[-80.7403,33.7688],[-80.7405,33.7693],[-80.7407,33.7715],[-80.7412,33.7735],[-80.7417,33.7745],[-80.7433,33.776],[-80.7444,33.7766],[-80.7457,33.7769],[-80.7468,33.7768],[-80.7485,33.776],[-80.7496,33.7746],[-80.7498,33.7739],[-80.7503,33.7732],[-80.7518,33.7725],[-80.7522,33.7721],[-80.7523,33.7714],[-80.7521,33.77],[-80.7505,33.769],[-80.7492,33.7686],[-80.7488,33.7682],[-80.7486,33.7661],[-80.7481,33.7655],[-80.7477,33.7652],[-80.7468,33.7649],[-80.7457,33.7643],[-80.7453,33.7637],[-80.7454,33.7631],[-80.7459,33.7625],[-80.7468,33.7623],[-80.7475,33.7624],[-80.7484,33.7635],[-80.7487,33.7643],[-80.7501,33.7652],[-80.7514,33.7652],[-80.7522,33.765],[-80.7532,33.7643],[-80.7543,33.7641],[-80.7551,33.7642],[-80.7557,33.7645],[-80.756,33.7649],[-80.7562,33.7655],[-80.7555,33.7674],[-80.7556,33.7681],[-80.7567,33.7711],[-80.7567,33.772],[-80.7572,33.774],[-80.7577,33.7745],[-80.7596,33.775],[-80.7605,33.7748],[-80.7616,33.7742],[-80.7619,33.7737],[-80.7623,33.7725],[-80.7645,33.7704],[-80.7657,33.7679],[-80.7663,33.7675],[-80.767,33.7672],[-80.7677,33.7675],[-80.768,33.768],[-80.7672,33.77],[-80.7674,33.7716],[-80.7679,33.7721],[-80.7686,33.7726],[-80.7695,33.7729],[-80.7706,33.773],[-80.7716,33.7728],[-80.7724,33.7724],[-80.773,33.7719],[-80.775,33.7687],[-80.7773,33.7663],[-80.778,33.7644],[-80.7792,33.7626],[-80.7804,33.7618],[-80.7816,33.7614],[-80.7838,33.7611],[-80.7853,33.7617],[-80.7856,33.7623],[-80.7856,33.7629],[-80.7842,33.7637],[-80.7825,33.7649],[-80.782,33.7655],[-80.7813,33.7674],[-80.7812,33.7679],[-80.7818,33.7688],[-80.7826,33.7696],[-80.7836,33.7702],[-80.7849,33.7706],[-80.7864,33.7706],[-80.79,33.7701],[-80.7959,33.7707],[-80.7972,33.7711],[-80.7988,33.7718],[-80.8004,33.7733],[-80.8024,33.7744],[-80.8038,33.7748],[-80.8051,33.7749],[-80.8075,33.7748],[-80.8077,33.7749],[-80.8079,33.777],[-80.8086,33.7783],[-80.8111,33.7801],[-80.8143,33.7815],[-80.8164,33.7816],[-80.8172,33.7813],[-80.8177,33.7809],[-80.8181,33.7804],[-80.8184,33.7786],[-80.8188,33.7777],[-80.82,33.7762],[-80.8214,33.7755],[-80.8226,33.7751],[-80.8234,33.775],[-80.8262,33.7758],[-80.8286,33.7771],[-80.8289,33.7778],[-80.8288,33.7784],[-80.8286,33.7788],[-80.8268,33.7794],[-80.8248,33.7807],[-80.8243,33.7813],[-80.8233,33.7826],[-80.823,33.7838],[-80.8226,33.7846],[-80.8214,33.7855],[-80.8212,33.7859],[-80.8219,33.7876],[-80.8226,33.7879],[-80.8245,33.7879],[-80.8274,33.7862],[-80.8286,33.7857],[-80.8313,33.7855],[-80.8325,33.7856],[-80.8335,33.7859],[-80.8341,33.7865],[-80.8346,33.7875],[-80.8342,33.7906],[-80.8344,33.7915],[-80.835,33.7926],[-80.8358,33.7934],[-80.8368,33.794],[-80.8375,33.7946],[-80.8393,33.7951],[-80.8414,33.7953],[-80.8439,33.796],[-80.8471,33.7975],[-80.8484,33.798],[-80.8503,33.7993],[-80.853,33.8005],[-80.8542,33.8008],[-80.8567,33.802],[-80.8589,33.8025],[-80.8604,33.8021],[-80.8613,33.8021],[-80.8639,33.8029],[-80.8648,33.8031],[-80.8655,33.8035],[-80.8659,33.8079],[-80.8662,33.809],[-80.8673,33.8107],[-80.866,33.8108],[-80.8644,33.8112],[-80.8636,33.812],[-80.8618,33.8131],[-80.8612,33.814],[-80.8604,33.8162],[-80.8605,33.8169],[-80.8608,33.8178],[-80.8614,33.8184],[-80.8637,33.8192],[-80.8649,33.8191],[-80.8662,33.8188],[-80.8684,33.818],[-80.8675,33.8248],[-80.8655,33.8246],[-80.8637,33.8384],[-80.8627,33.8385],[-80.8619,33.8389],[-80.8617,33.8393],[-80.8619,33.8406],[-80.8615,33.8412],[-80.8615,33.8414],[-80.8604,33.8409],[-80.8588,33.8406],[-80.8588,33.8389],[-80.8582,33.8386],[-80.858,33.8383],[-80.857,33.8388],[-80.8558,33.8388],[-80.8555,33.838],[-80.8543,33.8378],[-80.8542,33.8372],[-80.8548,33.8365],[-80.8549,33.8358],[-80.8547,33.8355],[-80.8542,33.8355],[-80.854,33.8349],[-80.8535,33.8348],[-80.853,33.8342],[-80.8519,33.8336],[-80.8504,33.8332],[-80.8502,33.8325],[-80.8498,33.8322],[-80.8462,33.8312],[-80.8457,33.8308],[-80.8453,33.8315],[-80.8448,33.8315],[-80.8448,33.8311],[-80.8446,33.8311],[-80.8428,33.8317],[-80.8414,33.8332],[-80.8411,33.8334],[-80.8403,33.8333],[-80.8394,33.8341],[-80.839,33.8342],[-80.837,33.8341],[-80.8366,33.8354],[-80.8348,33.8349],[-80.8324,33.8357],[-80.83,33.835],[-80.83,33.8361],[-80.8294,33.836],[-80.8293,33.8437],[-80.8271,33.8444]]]]},"properties":{"park":"congaree","name":"Congaree National Park","source":"iNaturalist place","place_id":53620,"source_url":"https://www.inaturalist.org/places/53620"}}