{"type":"Feature","geometry":{"type":"MultiPolygon","coordinates":[[[[-90.1857,38.628],[-90.1859,38.6295],[-90.1853,38.6295],[-90.1833,38.6294],[-90.1825,38.6292],[-90.1825,38.6288],[-90.1827,38.6278],[-90.1835,38.6256],[-90.1844,38.6234],[-90.1857,38.6204],[-90.1862,38.6192],[-90.187,38.6193],[-90.1882,38.6198],[-90.189,38.6204],[-90.1881,38.6235],[-90.1869,38.6264],[-90.1857,38.628]]]]},"properties":{"park":"gateway_arch","name":"Gateway Arch National Park","source":"iNaturalist place","place_id":137962,"source_url":"https://www.inaturalist.org/places/137962"}}