{"type":"FeatureCollection","features":[{"type":"Feature","geometry":{"type":"Polygon","coordinates":[[[-90.18386,38.62405],[-90.18236,38.62534],[-90.18311,38.62709],[-90.18535,38.62755],[-90.18685,38.62626],[-90.1861,38.62451],[-90.18386,38.62405]]]},"properties":{"cell":"892640c83c3ffff","res":9,"coarsened":false,"count":368,"hv":368,"mp":0,"y0":2008,"y1":2026,"sp":[[1,96,96,0,2009,2026],[2,53,53,0,2012,2026],[0,40,40,0,2015,2026],[3,37,37,0,2012,2026],[10,18,18,0,2009,2026],[13,15,15,0,2008,2026],[22,14,14,0,2015,2026],[26,13,13,0,2009,2026],[4,10,10,0,2019,2026],[14,9,9,0,2019,2025],[12,7,7,0,2019,2026],[32,5,5,0,2024,2026],[15,4,4,0,2019,2024],[29,4,4,0,2023,2026],[33,4,4,0,2024,2026],[5,3,3,0,2019,2024],[28,3,3,0,2023,2023],[35,3,3,0,2024,2024],[36,3,3,0,2024,2025],[39,3,3,0,2024,2024],[27,2,2,0,2009,2023],[20,2,2,0,2024,2025],[24,2,2,0,2024,2024],[42,2,2,0,2024,2026],[19,2,2,0,2026,2026],[11,1,1,0,2019,2019],[16,1,1,0,2008,2008],[18,1,1,0,2019,2019],[31,1,1,0,2024,2024],[7,1,1,0,2024,2024],[37,1,1,0,2024,2024],[40,1,1,0,2024,2024],[41,1,1,0,2024,2024],[21,1,1,0,2024,2024],[50,1,1,0,2025,2025],[51,1,1,0,2025,2025],[43,1,1,0,2025,2025],[53,1,1,0,2026,2026],[49,1,1,0,2026,2026]]}},{"type":"Feature","geometry":{"type":"Polygon","coordinates":[[[-90.18311,38.62709],[-90.18161,38.62838],[-90.18235,38.63013],[-90.18459,38.63059],[-90.18609,38.62931],[-90.18535,38.62755],[-90.18311,38.62709]]]},"properties":{"cell":"892640c83d3ffff","res":9,"coarsened":false,"count":250,"hv":250,"mp":0,"y0":2019,"y1":2026,"sp":[[10,44,44,0,2023,2026],[1,33,33,0,2022,2026],[0,29,29,0,2020,2026],[14,21,21,0,2023,2026],[4,16,16,0,2019,2026],[3,10,10,0,2019,2025],[20,9,9,0,2021,2026],[18,9,9,0,2021,2026],[12,9,9,0,2023,2026],[2,8,8,0,2019,2025],[5,8,8,0,2019,2026],[34,7,7,0,2022,2026],[23,6,6,0,2022,2026],[8,5,5,0,2019,2025],[26,5,5,0,2024,2026],[32,4,4,0,2025,2026],[13,3,3,0,2023,2026],[19,2,2,0,2023,2024],[15,2,2,0,2024,2024],[43,2,2,0,2024,2025],[52,2,2,0,2025,2025],[6,1,1,0,2019,2019],[21,1,1,0,2021,2021],[22,1,1,0,2022,2022],[30,1,1,0,2024,2024],[33,1,1,0,2024,2024],[29,1,1,0,2024,2024],[38,1,1,0,2024,2024],[44,1,1,0,2025,2025],[45,1,1,0,2025,2025],[47,1,1,0,2025,2025],[11,1,1,0,2025,2025],[53,1,1,0,2025,2025],[55,1,1,0,2026,2026],[27,1,1,0,2022,2022],[56,1,1,0,2022,2022],[36,1,1,0,2022,2022]]}},{"type":"Feature","geometry":{"type":"Polygon","coordinates":[[[-90.18462,38.62101],[-90.18312,38.6223],[-90.18386,38.62405],[-90.1861,38.62451],[-90.1876,38.62322],[-90.18686,38.62147],[-90.18462,38.62101]]]},"properties":{"cell":"892640c83cfffff","res":9,"coarsened":false,"count":169,"hv":169,"mp":0,"y0":2008,"y1":2026,"sp":[[1,42,42,0,2008,2026],[2,29,29,0,2019,2026],[0,22,22,0,2008,2026],[10,19,19,0,2019,2026],[3,11,11,0,2019,2025],[19,8,8,0,2021,2025],[13,5,5,0,2024,2026],[26,4,4,0,2025,2026],[5,3,3,0,2023,2025],[27,3,3,0,2022,2026],[49,3,3,0,2025,2026],[17,2,2,0,2008,2021],[34,2,2,0,2025,2025],[36,2,2,0,2025,2026],[35,2,2,0,2025,2025],[7,1,1,0,2008,2008],[9,1,1,0,2019,2019],[24,1,1,0,2022,2022],[20,1,1,0,2024,2024],[12,1,1,0,2025,2025],[48,1,1,0,2025,2025],[33,1,1,0,2025,2025],[4,1,1,0,2025,2025],[11,1,1,0,2025,2025],[45,1,1,0,2026,2026],[18,1,1,0,2026,2026],[14,1,1,0,2026,2026]]}},{"type":"Feature","geometry":{"type":"Polygon","coordinates":[[[-90.1876,38.62322],[-90.1861,38.62451],[-90.18685,38.62626],[-90.18909,38.62673],[-90.19059,38.62544],[-90.18984,38.62369],[-90.1876,38.62322]]]},"properties":{"cell":"892640c83cbffff","res":9,"coarsened":false,"count":74,"hv":74,"mp":0,"y0":2020,"y1":2026,"sp":[[1,35,35,0,2020,2026],[5,6,6,0,2024,2026],[26,5,5,0,2023,2026],[10,5,5,0,2022,2026],[13,4,4,0,2026,2026],[2,3,3,0,2025,2026],[18,2,2,0,2021,2026],[12,2,2,0,2024,2026],[4,2,2,0,2024,2025],[14,2,2,0,2024,2025],[27,2,2,0,2022,2026],[19,1,1,0,2024,2024],[46,1,1,0,2025,2025],[15,1,1,0,2025,2025],[23,1,1,0,2026,2026],[32,1,1,0,2026,2026],[22,1,1,0,2026,2026]]}},{"type":"Feature","geometry":{"type":"Polygon","coordinates":[[[-90.18685,38.62626],[-90.18535,38.62755],[-90.18609,38.62931],[-90.18833,38.62977],[-90.18983,38.62848],[-90.18909,38.62673],[-90.18685,38.62626]]]},"properties":{"cell":"892640c83dbffff","res":9,"coarsened":false,"count":21,"hv":21,"mp":0,"y0":2021,"y1":2026,"sp":[[10,9,9,0,2021,2026],[2,6,6,0,2025,2025],[1,2,2,0,2023,2025],[26,2,2,0,2024,2025],[5,1,1,0,2025,2025],[4,1,1,0,2025,2025]]}},{"type":"Feature","geometry":{"type":"Polygon","coordinates":[[[-90.18537,38.61797],[-90.18387,38.61926],[-90.18462,38.62101],[-90.18686,38.62147],[-90.18836,38.62018],[-90.18761,38.61843],[-90.18537,38.61797]]]},"properties":{"cell":"892640c8357ffff","res":9,"coarsened":false,"count":12,"hv":12,"mp":0,"y0":2022,"y1":2026,"sp":[[1,4,4,0,2023,2025],[0,2,2,0,2022,2025],[10,1,1,0,2024,2024],[26,1,1,0,2024,2024],[13,1,1,0,2025,2025],[52,1,1,0,2026,2026],[2,1,1,0,2026,2026],[57,1,1,0,2022,2022]]}},{"type":"Feature","geometry":{"type":"Polygon","coordinates":[[[-90.18836,38.62018],[-90.18686,38.62147],[-90.1876,38.62322],[-90.18984,38.62369],[-90.19134,38.6224],[-90.1906,38.62064],[-90.18836,38.62018]]]},"properties":{"cell":"892640c8353ffff","res":9,"coarsened":false,"count":29,"hv":29,"mp":0,"y0":2022,"y1":2026,"sp":[[1,11,11,0,2022,2026],[2,8,8,0,2024,2026],[26,3,3,0,2023,2025],[10,2,2,0,2022,2024],[3,2,2,0,2026,2026],[42,1,1,0,2024,2024],[54,1,1,0,2026,2026],[52,1,1,0,2026,2026]]}},{"type":"Feature","geometry":{"type":"Polygon","coordinates":[[[-90.17419,38.60608],[-90.13753,38.62089],[-90.13744,38.65442],[-90.17402,38.67315],[-90.2107,38.65834],[-90.21077,38.6248],[-90.17419,38.60608]]]},"properties":{"cell":"862640c87ffffff","res":6,"coarsened":true,"count":1,"hv":1,"mp":0,"y0":2023,"y1":2023,"sp":[[25,1,1,0,2023,2023]]}}],"park":"gateway_arch","h3_res":9,"species_index":[{"n":"Agelaius phoeniceus","c":"Red-winged Blackbird","k":"Aves"},{"n":"Turdus migratorius","c":"American Robin","k":"Aves"},{"n":"Branta canadensis","c":"Canada Goose","k":"Aves"},{"n":"Anas platyrhynchos","c":"Mallard","k":"Aves"},{"n":"Sturnus vulgaris","c":"European Starling","k":"Aves"},{"n":"Passer domesticus","c":"House Sparrow","k":"Aves"},{"n":"Procyon lotor","c":"Common Raccoon","k":"Mammalia"},{"n":"Setophaga aestiva","c":"Northern Yellow Warbler","k":"Aves"},{"n":"Mimus polyglottos","c":"Northern Mockingbird","k":"Aves"},{"n":"Ardea alba","c":"Great Egret","k":"Aves"},{"n":"Sciurus carolinensis","c":"Eastern Gray Squirrel","k":"Mammalia"},{"n":"Chaetura pelagica","c":"Chimney Swift","k":"Aves"},{"n":"Zenaida macroura","c":"Mourning Dove","k":"Aves"},{"n":"Quiscalus quiscula","c":"Common Grackle","k":"Aves"},{"n":"Columba livia","c":"Feral Pigeon","k":"Aves"},{"n":"Thryothorus ludovicianus","c":"Carolina Wren","k":"Aves"},{"n":"Empidonax virescens","c":"Acadian Flycatcher","k":"Aves"},{"n":"Icterus spurius","c":"Orchard Oriole","k":"Aves"},{"n":"Sylvilagus floridanus","c":"Eastern Cottontail","k":"Mammalia"},{"n":"Marmota monax","c":"Groundhog","k":"Mammalia"},{"n":"Spinus tristis","c":"American Goldfinch","k":"Aves"},{"n":"Cyanocitta cristata","c":"Blue Jay","k":"Aves"},{"n":"Buteo jamaicensis","c":"Red-tailed Hawk","k":"Aves"},{"n":"Didelphis virginiana","c":"Virginia Opossum","k":"Mammalia"},{"n":"Leiothlypis ruficapilla","c":"Nashville Warbler","k":"Aves"},{"n":"Haliaeetus leucocephalus","c":"Bald Eagle","k":"Aves"},{"n":"Cardinalis cardinalis","c":"Northern Cardinal","k":"Aves"},{"n":"Zonotrichia albicollis","c":"White-throated Sparrow","k":"Aves"},{"n":"Petrochelidon pyrrhonota","c":"Cliff Swallow","k":"Aves"},{"n":"Hirundo rustica","c":"Barn Swallow","k":"Aves"},{"n":"Tyrannus tyrannus","c":"Eastern Kingbird","k":"Aves"},{"n":"Cathartes aura","c":"Turkey Vulture","k":"Aves"},{"n":"Dumetella carolinensis","c":"Gray Catbird","k":"Aves"},{"n":"Toxostoma rufum","c":"Brown Thrasher","k":"Aves"},{"n":"Haemorhous mexicanus","c":"House Finch","k":"Aves"},{"n":"Polioptila caerulea","c":"Blue-gray Gnatcatcher","k":"Aves"},{"n":"Sayornis phoebe","c":"Eastern Phoebe","k":"Aves"},{"n":"Sciurus niger","c":"Eastern Fox Squirrel","k":"Mammalia"},{"n":"Strix varia","c":"Barred Owl","k":"Aves"},{"n":"Cardellina pusilla","c":"Wilson's Warbler","k":"Aves"},{"n":"Geothlypis trichas","c":"Common Yellowthroat","k":"Aves"},{"n":"Setophaga ruticilla","c":"American Redstart","k":"Aves"},{"n":"Colaptes auratus","c":"Northern Flicker","k":"Aves"},{"n":"Astur cooperii","c":"Cooper's Hawk","k":"Aves"},{"n":"Junco hyemalis","c":"Dark-eyed Junco","k":"Aves"},{"n":"Dryobates pubescens","c":"Downy Woodpecker","k":"Aves"},{"n":"Sialia sialis","c":"Eastern Bluebird","k":"Aves"},{"n":"Melospiza melodia","c":"Song Sparrow","k":"Aves"},{"n":"Certhia americana","c":"Brown Creeper","k":"Aves"},{"n":"Molothrus ater","c":"Brown-headed Cowbird","k":"Aves"},{"n":"Falco peregrinus","c":"Peregrine Falcon","k":"Aves"},{"n":"Falco sparverius","c":"American Kestrel","k":"Aves"},{"n":"Vireo gilvus","c":"Eastern Warbling Vireo","k":"Aves"},{"n":"Buteo lineatus","c":"Red-shouldered Hawk","k":"Aves"},{"n":"Spizella pusilla","c":"Field Sparrow","k":"Aves"},{"n":"Dendrocygna autumnalis","c":"Northern Black-bellied Whistling-Duck","k":"Aves"},{"n":"Zonotrichia leucophrys","c":"White-crowned Sparrow","k":"Aves"},{"n":"Parkesia noveboracensis","c":"Northern Waterthrush","k":"Aves"}],"entry":["species_index","count","human_verified","model_predicted","first_year","last_year"],"suppressed":{"excluded":{},"coarsened":{"Haliaeetus leucocephalus":1}},"merged_names":{"Columba livia domestica":"Columba livia","Colaptes auratus luteus":"Colaptes auratus","Dendrocygna autumnalis fulgens":"Dendrocygna autumnalis"}}