{"type":"Feature","geometry":{"type":"MultiPolygon","coordinates":[[[[-112.1289,37.5793],[-112.1289,37.5649],[-112.1648,37.5649],[-112.1648,37.5658],[-112.2106,37.5658],[-112.2104,37.5513],[-112.2195,37.5514],[-112.2195,37.5441],[-112.2377,37.5441],[-112.2377,37.5221],[-112.2468,37.5221],[-112.2468,37.4932],[-112.2149,37.4932],[-112.2149,37.457],[-112.2286,37.457],[-112.2286,37.4498],[-112.2298,37.4498],[-112.2298,37.4421],[-112.2661,37.4421],[-112.2662,37.4498],[-112.2649,37.4498],[-112.265,37.4933],[-112.2741,37.4933],[-112.2738,37.5224],[-112.2739,37.5441],[-112.2559,37.5441],[-112.2559,37.5514],[-112.2513,37.5514],[-112.2513,37.5586],[-112.2469,37.5586],[-112.2468,37.5658],[-112.2423,37.5658],[-112.2423,37.5731],[-112.2377,37.5731],[-112.2378,37.5803],[-112.2332,37.5803],[-112.2332,37.5876],[-112.2286,37.5876],[-112.2286,37.5948],[-112.2195,37.5948],[-112.2195,37.6021],[-112.2104,37.6021],[-112.2104,37.6129],[-112.2013,37.6129],[-112.2013,37.6166],[-112.1831,37.6166],[-112.1831,37.6227],[-112.1839,37.6227],[-112.1838,37.6446],[-112.1747,37.6446],[-112.1747,37.6518],[-112.1656,37.6518],[-112.1656,37.6555],[-112.1478,37.6555],[-112.1479,37.6628],[-112.1387,37.6627],[-112.1387,37.6684],[-112.1433,37.6684],[-112.1433,37.6719],[-112.1387,37.6719],[-112.1388,37.6746],[-112.1433,37.6747],[-112.1433,37.6774],[-112.1456,37.6774],[-112.1456,37.681],[-112.1388,37.6811],[-112.1388,37.6955],[-112.1161,37.6956],[-112.1161,37.6992],[-112.0842,37.6993],[-112.0841,37.6811],[-112.0833,37.6811],[-112.0832,37.6626],[-112.097,37.6626],[-112.097,37.6518],[-112.1015,37.6517],[-112.1015,37.6336],[-112.1106,37.6336],[-112.1105,37.6227],[-112.1196,37.6228],[-112.1197,37.6154],[-112.1335,37.6154],[-112.1334,37.6081],[-112.1289,37.6081],[-112.1289,37.6045],[-112.1334,37.6045],[-112.1334,37.5973],[-112.1289,37.5972],[-112.1289,37.5793]]]]},"properties":{"park":"bryce_canyon","name":"Bryce Canyon National Park","source":"iNaturalist place","place_id":69110,"source_url":"https://www.inaturalist.org/places/69110"}}