{"type":"Feature","geometry":{"type":"MultiPolygon","coordinates":[[[[-122.1295,46.7557],[-122.1269,46.7557],[-122.1268,46.7593],[-122.1109,46.7566],[-122.1109,46.7536],[-122.1082,46.7536],[-122.1082,46.7503],[-122.1123,46.752],[-122.1158,46.75],[-122.1232,46.7506],[-122.1295,46.7557]]],[[[-121.7177,46.7353],[-121.8288,46.7355],[-121.8319,46.7293],[-121.8465,46.7276],[-121.8531,46.7304],[-121.8553,46.7289],[-121.868,46.7295],[-121.8913,46.7328],[-121.8997,46.736],[-121.9182,46.7373],[-121.9182,46.7413],[-121.9224,46.7429],[-121.9182,46.7443],[-121.9184,46.844],[-121.921,46.844],[-121.921,46.8494],[-121.9183,46.8494],[-121.918,46.9073],[-121.9162,46.9073],[-121.9163,46.9971],[-121.9014,47.0011],[-121.8977,46.9998],[-121.8873,47.0008],[-121.874,46.9989],[-121.8582,46.9992],[-121.8536,46.9967],[-121.845,46.9964],[-121.5336,46.9951],[-121.5374,46.9891],[-121.5399,46.9775],[-121.5194,46.9776],[-121.5085,46.9625],[-121.5009,46.9483],[-121.5015,46.9332],[-121.5085,46.9221],[-121.5038,46.9159],[-121.5021,46.9105],[-121.4966,46.9089],[-121.5024,46.9019],[-121.51,46.8972],[-121.5138,46.8916],[-121.5129,46.8854],[-121.5199,46.8797],[-121.5226,46.8733],[-121.5147,46.8715],[-121.5071,46.8654],[-121.4969,46.8634],[-121.4951,46.8555],[-121.485,46.8416],[-121.4837,46.8349],[-121.4742,46.832],[-121.4707,46.8277],[-121.4732,46.8197],[-121.458,46.8117],[-121.454,46.8013],[-121.4429,46.7927],[-121.4529,46.7892],[-121.455,46.7808],[-121.4533,46.7772],[-121.4476,46.7724],[-121.4477,46.77],[-121.4593,46.7673],[-121.461,46.7685],[-121.4666,46.7643],[-121.4692,46.767],[-121.4714,46.7649],[-121.4708,46.7638],[-121.4754,46.7621],[-121.4778,46.7629],[-121.4859,46.7523],[-121.4921,46.749],[-121.5095,46.7482],[-121.5248,46.7388],[-121.5268,46.7349],[-121.5342,46.7293],[-121.5409,46.7263],[-121.5521,46.7245],[-121.5558,46.7199],[-121.5592,46.7184],[-121.5915,46.7184],[-121.5935,46.7092],[-121.5973,46.7079],[-121.6008,46.7085],[-121.6048,46.7185],[-121.6178,46.7185],[-121.6241,46.7271],[-121.6256,46.7321],[-121.6294,46.7356],[-121.7177,46.7353]]],[[[-121.9796,46.9907],[-121.9796,46.9973],[-121.9582,46.9965],[-121.9568,46.9943],[-121.9529,46.9928],[-121.942,46.9943],[-121.9371,46.992],[-121.9371,46.9881],[-121.9513,46.985],[-121.9618,46.9871],[-121.9796,46.9871],[-121.9796,46.9907]]]]},"properties":{"park":"mount_rainier","name":"Mount Rainier National Park","source":"iNaturalist place","place_id":8838,"source_url":"https://www.inaturalist.org/places/8838"}}