{"type":"Feature","geometry":{"type":"MultiPolygon","coordinates":[[[[-107.6507,38.5175],[-107.6369,38.5175],[-107.6369,38.5139],[-107.6323,38.5139],[-107.6323,38.503],[-107.6461,38.503],[-107.6461,38.5066],[-107.6415,38.5067],[-107.6415,38.5103],[-107.6507,38.5103],[-107.6507,38.5175]]],[[[-107.7292,38.5559],[-107.7662,38.5561],[-107.766,38.5579],[-107.7748,38.5575],[-107.7749,38.5573],[-107.7755,38.5575],[-107.7774,38.5561],[-107.7774,38.5556],[-107.7887,38.5551],[-107.7883,38.5623],[-107.7976,38.562],[-107.7972,38.5692],[-107.8019,38.569],[-107.8015,38.5762],[-107.8111,38.5757],[-107.8111,38.5793],[-107.8202,38.5788],[-107.8202,38.5823],[-107.8295,38.5825],[-107.8295,38.5898],[-107.8292,38.6046],[-107.8282,38.6192],[-107.8269,38.6337],[-107.8267,38.641],[-107.8077,38.6412],[-107.8078,38.6375],[-107.803,38.6339],[-107.7987,38.6304],[-107.7936,38.6298],[-107.7923,38.6276],[-107.7911,38.6265],[-107.7901,38.6261],[-107.7892,38.625],[-107.788,38.6241],[-107.7875,38.6232],[-107.7858,38.6222],[-107.784,38.6216],[-107.7837,38.6206],[-107.7837,38.6199],[-107.7665,38.6202],[-107.7668,38.6131],[-107.7328,38.6133],[-107.733,38.599],[-107.7037,38.5987],[-107.7038,38.6024],[-107.6945,38.6024],[-107.6946,38.6061],[-107.6899,38.6061],[-107.6899,38.6098],[-107.6852,38.6098],[-107.6849,38.6207],[-107.6525,38.6206],[-107.6525,38.606],[-107.6478,38.606],[-107.6479,38.5914],[-107.6666,38.5912],[-107.6666,38.5987],[-107.6712,38.5987],[-107.6712,38.5913],[-107.6719,38.5805],[-107.6671,38.5805],[-107.6673,38.5769],[-107.6529,38.5767],[-107.6528,38.5803],[-107.6435,38.5803],[-107.6435,38.573],[-107.639,38.573],[-107.6391,38.5693],[-107.6346,38.5693],[-107.6348,38.562],[-107.6351,38.5585],[-107.6256,38.5584],[-107.6259,38.5512],[-107.6309,38.5513],[-107.6311,38.5477],[-107.6322,38.5477],[-107.6322,38.5429],[-107.6368,38.5429],[-107.6369,38.5393],[-107.6276,38.5393],[-107.6277,38.532],[-107.6184,38.532],[-107.6184,38.5248],[-107.6415,38.5248],[-107.6415,38.5284],[-107.6553,38.5284],[-107.6554,38.5175],[-107.6692,38.5175],[-107.6692,38.5211],[-107.6738,38.5211],[-107.6738,38.5247],[-107.6922,38.5247],[-107.6922,38.5284],[-107.6968,38.5284],[-107.6968,38.532],[-107.7117,38.532],[-107.7118,38.5375],[-107.7163,38.5375],[-107.7164,38.5449],[-107.721,38.545],[-107.721,38.5486],[-107.7164,38.5486],[-107.716,38.5558],[-107.7292,38.5559]]]]},"properties":{"park":"black_canyon_of_the_gunnison","name":"Black Canyon of the Gunnison National Park","source":"iNaturalist place","place_id":72635,"source_url":"https://www.inaturalist.org/places/72635"}}