{"type":"FeatureCollection","features":[{"type":"Feature","geometry":{"type":"Polygon","coordinates":[[[-107.71634,38.57962],[-107.71497,38.58118],[-107.71607,38.58286],[-107.71854,38.58298],[-107.7199,38.58142],[-107.7188,38.57974],[-107.71634,38.57962]]]},"properties":{"cell":"89269dc8e6bffff","res":9,"coarsened":false,"count":49,"hv":49,"mp":0,"y0":2002,"y1":2026,"sp":[[1,6,6,0,2011,2024],[3,6,6,0,2011,2021],[4,4,4,0,2011,2022],[9,3,3,0,2011,2026],[13,3,3,0,2011,2026],[0,2,2,0,2002,2011],[37,2,2,0,2019,2024],[44,2,2,0,2018,2021],[49,2,2,0,2011,2021],[32,2,2,0,2016,2024],[21,2,2,0,2021,2023],[58,2,2,0,2016,2021],[47,2,2,0,2026,2026],[25,1,1,0,2018,2018],[50,1,1,0,2011,2011],[24,1,1,0,2011,2011],[51,1,1,0,2011,2011],[15,1,1,0,2011,2011],[48,1,1,0,2021,2021],[39,1,1,0,2022,2022],[2,1,1,0,2024,2024],[95,1,1,0,2025,2025],[57,1,1,0,2025,2025],[45,1,1,0,2015,2015]]}},{"type":"Feature","geometry":{"type":"Polygon","coordinates":[[[-107.68994,38.53938],[-107.68858,38.54093],[-107.68968,38.54261],[-107.69214,38.54273],[-107.6935,38.54117],[-107.69241,38.5395],[-107.68994,38.53938]]]},"properties":{"cell":"89269d525d7ffff","res":9,"coarsened":false,"count":8,"hv":8,"mp":0,"y0":2012,"y1":2025,"sp":[[0,4,4,0,2012,2025],[11,1,1,0,2021,2021],[14,1,1,0,2021,2021],[4,1,1,0,2023,2023],[29,1,1,0,2024,2024]]}},{"type":"Feature","geometry":{"type":"Polygon","coordinates":[[[-107.68612,38.54081],[-107.68476,38.54237],[-107.68585,38.54405],[-107.68832,38.54417],[-107.68968,38.54261],[-107.68858,38.54093],[-107.68612,38.54081]]]},"properties":{"cell":"89269d5259bffff","res":9,"coarsened":false,"count":44,"hv":44,"mp":0,"y0":2007,"y1":2026,"sp":[[0,7,7,0,2007,2023],[9,5,5,0,2012,2022],[13,4,4,0,2012,2019],[3,4,4,0,2009,2018],[4,4,4,0,2015,2025],[1,3,3,0,2013,2026],[5,3,3,0,2015,2015],[34,2,2,0,2022,2025],[58,2,2,0,2022,2025],[11,2,2,0,2018,2018],[47,1,1,0,2018,2018],[22,1,1,0,2022,2022],[23,1,1,0,2023,2023],[41,1,1,0,2026,2026],[45,1,1,0,2015,2015],[36,1,1,0,2015,2015],[79,1,1,0,2012,2012],[98,1,1,0,2012,2012]]}},{"type":"Feature","geometry":{"type":"Polygon","coordinates":[[[-107.68506,38.55375],[-107.6837,38.55531],[-107.6848,38.55699],[-107.68726,38.55711],[-107.68863,38.55555],[-107.68753,38.55387],[-107.68506,38.55375]]]},"properties":{"cell":"89269dc8b03ffff","res":9,"coarsened":false,"count":107,"hv":107,"mp":0,"y0":2011,"y1":2026,"sp":[[1,35,35,0,2021,2026],[4,6,6,0,2011,2026],[13,6,6,0,2021,2026],[16,6,6,0,2021,2026],[57,5,5,0,2021,2024],[9,4,4,0,2017,2026],[36,4,4,0,2019,2025],[21,3,3,0,2023,2026],[12,3,3,0,2023,2026],[0,2,2,0,2014,2019],[10,2,2,0,2021,2024],[14,2,2,0,2021,2022],[58,2,2,0,2019,2024],[37,2,2,0,2024,2025],[76,2,2,0,2025,2026],[2,1,1,0,2014,2014],[23,1,1,0,2018,2018],[24,1,1,0,2018,2018],[7,1,1,0,2021,2021],[32,1,1,0,2021,2021],[41,1,1,0,2021,2021],[30,1,1,0,2021,2021],[59,1,1,0,2021,2021],[22,1,1,0,2022,2022],[67,1,1,0,2022,2022],[15,1,1,0,2022,2022],[6,1,1,0,2012,2012],[50,1,1,0,2023,2023],[55,1,1,0,2023,2023],[73,1,1,0,2023,2023],[42,1,1,0,2023,2023],[80,1,1,0,2023,2023],[46,1,1,0,2024,2024],[87,1,1,0,2024,2024],[91,1,1,0,2025,2025],[78,1,1,0,2025,2025],[96,1,1,0,2026,2026],[45,1,1,0,2013,2013]]}},{"type":"Feature","geometry":{"type":"Polygon","coordinates":[[[-107.68968,38.54261],[-107.68832,38.54417],[-107.68942,38.54585],[-107.69188,38.54597],[-107.69324,38.54441],[-107.69214,38.54273],[-107.68968,38.54261]]]},"properties":{"cell":"89269dc8b6fffff","res":9,"coarsened":false,"count":107,"hv":107,"mp":0,"y0":2009,"y1":2026,"sp":[[3,16,16,0,2009,2018],[0,13,13,0,2014,2024],[9,13,13,0,2018,2026],[1,7,7,0,2015,2025],[13,7,7,0,2018,2025],[8,7,7,0,2014,2026],[15,5,5,0,2014,2023],[91,4,4,0,2025,2025],[33,4,4,0,2025,2025],[41,4,4,0,2025,2026],[4,3,3,0,2015,2023],[6,3,3,0,2018,2021],[10,3,3,0,2020,2025],[14,3,3,0,2022,2026],[22,3,3,0,2014,2023],[5,2,2,0,2015,2022],[31,2,2,0,2014,2024],[49,1,1,0,2020,2020],[59,1,1,0,2022,2022],[32,1,1,0,2022,2022],[43,1,1,0,2014,2014],[72,1,1,0,2025,2025],[86,1,1,0,2016,2016],[70,1,1,0,2022,2022],[50,1,1,0,2022,2022]]}},{"type":"Feature","geometry":{"type":"Polygon","coordinates":[[[-107.68335,38.52931],[-107.68199,38.53087],[-107.68308,38.53255],[-107.68555,38.53267],[-107.68691,38.53111],[-107.68581,38.52943],[-107.68335,38.52931]]]},"properties":{"cell":"89269d52507ffff","res":9,"coarsened":false,"count":1,"hv":1,"mp":0,"y0":2015,"y1":2015,"sp":[[3,1,1,0,2015,2015]]}},{"type":"Feature","geometry":{"type":"Polygon","coordinates":[[[-107.73903,38.57422],[-107.73766,38.57578],[-107.73876,38.57746],[-107.74123,38.57757],[-107.74259,38.57602],[-107.74149,38.57434],[-107.73903,38.57422]]]},"properties":{"cell":"89269dc9d73ffff","res":9,"coarsened":false,"count":24,"hv":24,"mp":0,"y0":1997,"y1":2026,"sp":[[98,5,5,0,2024,2025],[0,3,3,0,2013,2013],[3,3,3,0,2007,2011],[21,2,2,0,2019,2019],[8,1,1,0,2019,2019],[40,1,1,0,2011,2011],[27,1,1,0,1999,1999],[63,1,1,0,2007,2007],[64,1,1,0,2007,2007],[1,1,1,0,2022,2022],[36,1,1,0,1997,1997],[2,1,1,0,2016,2016],[9,1,1,0,2026,2026],[13,1,1,0,2026,2026],[33,1,1,0,2025,2025]]}},{"type":"Feature","geometry":{"type":"Polygon","coordinates":[[[-107.74007,38.56128],[-107.73871,38.56284],[-107.73981,38.56452],[-107.74228,38.56464],[-107.74364,38.56308],[-107.74254,38.5614],[-107.74007,38.56128]]]},"properties":{"cell":"89269dc99c7ffff","res":9,"coarsened":false,"count":26,"hv":26,"mp":0,"y0":2016,"y1":2026,"sp":[[6,5,5,0,2016,2026],[13,5,5,0,2022,2026],[4,4,4,0,2017,2022],[16,2,2,0,2023,2026],[14,2,2,0,2025,2026],[38,1,1,0,2019,2019],[22,1,1,0,2020,2020],[30,1,1,0,2022,2022],[81,1,1,0,2023,2023],[50,1,1,0,2023,2023],[9,1,1,0,2016,2016],[0,1,1,0,2025,2025],[47,1,1,0,2026,2026]]}},{"type":"Feature","geometry":{"type":"Polygon","coordinates":[[[-107.68942,38.54585],[-107.68805,38.5474],[-107.68915,38.54908],[-107.69161,38.5492],[-107.69298,38.54764],[-107.69188,38.54597],[-107.68942,38.54585]]]},"properties":{"cell":"89269dc8b63ffff","res":9,"coarsened":false,"count":15,"hv":15,"mp":0,"y0":2016,"y1":2026,"sp":[[11,4,4,0,2016,2026],[7,1,1,0,2016,2016],[8,1,1,0,2016,2016],[9,1,1,0,2016,2016],[10,1,1,0,2016,2016],[12,1,1,0,2016,2016],[13,1,1,0,2016,2016],[14,1,1,0,2016,2016],[15,1,1,0,2016,2016],[21,1,1,0,2018,2018],[29,1,1,0,2024,2024],[3,1,1,0,2026,2026]]}},{"type":"Feature","geometry":{"type":"Polygon","coordinates":[[[-107.70921,38.57603],[-107.70785,38.57759],[-107.70895,38.57927],[-107.71141,38.57939],[-107.71277,38.57783],[-107.71167,38.57615],[-107.70921,38.57603]]]},"properties":{"cell":"89269dc8a9bffff","res":9,"coarsened":false,"count":2,"hv":2,"mp":0,"y0":2016,"y1":2016,"sp":[[16,1,1,0,2016,2016],[8,1,1,0,2016,2016]]}},{"type":"Feature","geometry":{"type":"Polygon","coordinates":[[[-107.70486,38.58394],[-107.70349,38.5855],[-107.70459,38.58717],[-107.70706,38.58729],[-107.70842,38.58573],[-107.70732,38.58406],[-107.70486,38.58394]]]},"properties":{"cell":"89269dc8e3bffff","res":9,"coarsened":false,"count":17,"hv":17,"mp":0,"y0":2016,"y1":2026,"sp":[[1,3,3,0,2016,2024],[76,2,2,0,2023,2023],[21,2,2,0,2019,2024],[4,2,2,0,2026,2026],[27,1,1,0,2017,2017],[22,1,1,0,2024,2024],[35,1,1,0,2024,2024],[16,1,1,0,2019,2019],[11,1,1,0,2019,2019],[32,1,1,0,2019,2019],[37,1,1,0,2019,2019],[42,1,1,0,2019,2019]]}},{"type":"Feature","geometry":{"type":"Polygon","coordinates":[[[-107.67847,38.54369],[-107.64215,38.56465],[-107.64798,38.59903],[-107.69017,38.61245],[-107.7265,38.59148],[-107.72064,38.5571],[-107.67847,38.54369]]]},"properties":{"cell":"86269dc8fffffff","res":6,"coarsened":true,"count":1,"hv":1,"mp":0,"y0":2016,"y1":2016,"sp":[[17,1,1,0,2016,2016]]}},{"type":"Feature","geometry":{"type":"Polygon","coordinates":[[[-107.69245,38.55411],[-107.69109,38.55567],[-107.69219,38.55735],[-107.69465,38.55747],[-107.69601,38.55591],[-107.69491,38.55423],[-107.69245,38.55411]]]},"properties":{"cell":"89269dc8b57ffff","res":9,"coarsened":false,"count":22,"hv":22,"mp":0,"y0":2016,"y1":2025,"sp":[[3,3,3,0,2016,2021],[32,3,3,0,2023,2024],[13,2,2,0,2024,2024],[58,1,1,0,2021,2021],[9,1,1,0,2021,2021],[24,1,1,0,2022,2022],[8,1,1,0,2022,2022],[30,1,1,0,2023,2023],[7,1,1,0,2023,2023],[78,1,1,0,2023,2023],[37,1,1,0,2024,2024],[1,1,1,0,2024,2024],[16,1,1,0,2024,2024],[14,1,1,0,2024,2024],[15,1,1,0,2025,2025],[72,1,1,0,2025,2025],[0,1,1,0,2024,2024]]}},{"type":"Feature","geometry":{"type":"Polygon","coordinates":[[[-107.71251,38.58106],[-107.71115,38.58262],[-107.71225,38.5843],[-107.71471,38.58441],[-107.71607,38.58286],[-107.71497,38.58118],[-107.71251,38.58106]]]},"properties":{"cell":"89269dc8e63ffff","res":9,"coarsened":false,"count":17,"hv":17,"mp":0,"y0":2012,"y1":2026,"sp":[[1,3,3,0,2012,2023],[49,2,2,0,2023,2026],[18,1,1,0,2012,2012],[6,1,1,0,2012,2012],[48,1,1,0,2021,2021],[0,1,1,0,2021,2021],[65,1,1,0,2022,2022],[36,1,1,0,2023,2023],[12,1,1,0,2014,2014],[111,1,1,0,2021,2021],[16,1,1,0,2021,2021],[70,1,1,0,2021,2021],[11,1,1,0,2021,2021],[46,1,1,0,2021,2021]]}},{"type":"Feature","geometry":{"type":"Polygon","coordinates":[[[-107.69364,38.58502],[-107.69228,38.58658],[-107.69338,38.58825],[-107.69584,38.58837],[-107.6972,38.58682],[-107.6961,38.58514],[-107.69364,38.58502]]]},"properties":{"cell":"89269dc88dbffff","res":9,"coarsened":false,"count":1,"hv":1,"mp":0,"y0":2015,"y1":2015,"sp":[[3,1,1,0,2015,2015]]}},{"type":"Feature","geometry":{"type":"Polygon","coordinates":[[[-107.70591,38.571],[-107.70455,38.57256],[-107.70565,38.57424],[-107.70811,38.57436],[-107.70947,38.5728],[-107.70837,38.57112],[-107.70591,38.571]]]},"properties":{"cell":"89269dc8a8fffff","res":9,"coarsened":false,"count":19,"hv":19,"mp":0,"y0":2011,"y1":2026,"sp":[[47,8,8,0,2026,2026],[1,2,2,0,2018,2026],[13,2,2,0,2020,2022],[32,2,2,0,2024,2024],[19,1,1,0,2011,2011],[41,1,1,0,2020,2020],[0,1,1,0,2024,2024],[57,1,1,0,2025,2025],[36,1,1,0,2026,2026]]}},{"type":"Feature","geometry":{"type":"Polygon","coordinates":[[[-107.70459,38.58717],[-107.70323,38.58873],[-107.70433,38.59041],[-107.70679,38.59053],[-107.70816,38.58897],[-107.70706,38.58729],[-107.70459,38.58717]]]},"properties":{"cell":"89269dc8e07ffff","res":9,"coarsened":false,"count":11,"hv":11,"mp":0,"y0":2017,"y1":2025,"sp":[[12,2,2,0,2017,2023],[13,2,2,0,2017,2025],[4,2,2,0,2017,2017],[22,2,2,0,2024,2025],[20,1,1,0,2017,2017],[75,1,1,0,2023,2023],[66,1,1,0,2024,2024]]}},{"type":"Feature","geometry":{"type":"Polygon","coordinates":[[[-107.68757,38.56849],[-107.68621,38.57005],[-107.68731,38.57172],[-107.68977,38.57184],[-107.69113,38.57029],[-107.69003,38.56861],[-107.68757,38.56849]]]},"properties":{"cell":"89269dc8863ffff","res":9,"coarsened":false,"count":1,"hv":1,"mp":0,"y0":2017,"y1":2017,"sp":[[12,1,1,0,2017,2017]]}},{"type":"Feature","geometry":{"type":"Polygon","coordinates":[[[-107.68863,38.55555],[-107.68726,38.55711],[-107.68836,38.55879],[-107.69082,38.55891],[-107.69219,38.55735],[-107.69109,38.55567],[-107.68863,38.55555]]]},"properties":{"cell":"89269dc8b1bffff","res":9,"coarsened":false,"count":7,"hv":7,"mp":0,"y0":2009,"y1":2026,"sp":[[1,2,2,0,2025,2026],[32,2,2,0,2025,2025],[16,1,1,0,2009,2009],[49,1,1,0,2024,2024],[6,1,1,0,2025,2025]]}},{"type":"Feature","geometry":{"type":"Polygon","coordinates":[[[-107.69905,38.56418],[-107.69769,38.56573],[-107.69878,38.56741],[-107.70125,38.56753],[-107.70261,38.56597],[-107.70151,38.56429],[-107.69905,38.56418]]]},"properties":{"cell":"89269dc8aafffff","res":9,"coarsened":false,"count":19,"hv":19,"mp":0,"y0":2017,"y1":2026,"sp":[[1,5,5,0,2020,2026],[4,3,3,0,2017,2022],[21,1,1,0,2018,2018],[19,1,1,0,2021,2021],[11,1,1,0,2022,2022],[41,1,1,0,2023,2023],[58,1,1,0,2023,2023],[36,1,1,0,2023,2023],[82,1,1,0,2017,2017],[13,1,1,0,2024,2024],[44,1,1,0,2024,2024],[9,1,1,0,2026,2026],[10,1,1,0,2026,2026]]}},{"type":"Feature","geometry":{"type":"Polygon","coordinates":[[[-107.68585,38.54405],[-107.68449,38.54561],[-107.68559,38.54729],[-107.68805,38.5474],[-107.68942,38.54585],[-107.68832,38.54417],[-107.68585,38.54405]]]},"properties":{"cell":"89269dc8b67ffff","res":9,"coarsened":false,"count":16,"hv":16,"mp":0,"y0":2014,"y1":2026,"sp":[[9,6,6,0,2018,2023],[21,2,2,0,2014,2025],[0,2,2,0,2014,2019],[13,2,2,0,2023,2024],[4,1,1,0,2025,2025],[50,1,1,0,2025,2025],[76,1,1,0,2025,2025],[1,1,1,0,2026,2026]]}},{"type":"Feature","geometry":{"type":"Polygon","coordinates":[[[-107.75103,38.56343],[-107.74966,38.56499],[-107.75076,38.56667],[-107.75323,38.56679],[-107.75459,38.56523],[-107.75349,38.56355],[-107.75103,38.56343]]]},"properties":{"cell":"89269dc9837ffff","res":9,"coarsened":false,"count":5,"hv":5,"mp":0,"y0":2014,"y1":2024,"sp":[[22,3,3,0,2014,2024],[62,1,1,0,2021,2021],[6,1,1,0,2024,2024]]}},{"type":"Feature","geometry":{"type":"Polygon","coordinates":[[[-107.68691,38.53111],[-107.68555,38.53267],[-107.68665,38.53434],[-107.68911,38.53446],[-107.69047,38.53291],[-107.68937,38.53123],[-107.68691,38.53111]]]},"properties":{"cell":"89269d52503ffff","res":9,"coarsened":false,"count":3,"hv":3,"mp":0,"y0":2018,"y1":2026,"sp":[[3,3,3,0,2018,2026]]}},{"type":"Feature","geometry":{"type":"Polygon","coordinates":[[[-107.68361,38.52608],[-107.68225,38.52763],[-107.68335,38.52931],[-107.68581,38.52943],[-107.68717,38.52787],[-107.68607,38.5262],[-107.68361,38.52608]]]},"properties":{"cell":"89269d5253bffff","res":9,"coarsened":false,"count":3,"hv":3,"mp":0,"y0":2018,"y1":2023,"sp":[[3,2,2,0,2018,2023],[22,1,1,0,2018,2018]]}},{"type":"Feature","geometry":{"type":"Polygon","coordinates":[[[-107.70103,38.58538],[-107.69967,38.58693],[-107.70077,38.58861],[-107.70323,38.58873],[-107.70459,38.58717],[-107.70349,38.5855],[-107.70103,38.58538]]]},"properties":{"cell":"89269dc8e33ffff","res":9,"coarsened":false,"count":4,"hv":4,"mp":0,"y0":2017,"y1":2024,"sp":[[26,1,1,0,2017,2017],[4,1,1,0,2022,2022],[1,1,1,0,2022,2022],[22,1,1,0,2024,2024]]}},{"type":"Feature","geometry":{"type":"Polygon","coordinates":[[[-107.72676,38.58824],[-107.7254,38.5898],[-107.7265,38.59148],[-107.72896,38.5916],[-107.73033,38.59004],[-107.72923,38.58836],[-107.72676,38.58824]]]},"properties":{"cell":"89269dc9d97ffff","res":9,"coarsened":false,"count":4,"hv":4,"mp":0,"y0":2011,"y1":2024,"sp":[[28,1,1,0,2017,2017],[85,1,1,0,2024,2024],[36,1,1,0,2024,2024],[51,1,1,0,2011,2011]]}},{"type":"Feature","geometry":{"type":"Polygon","coordinates":[[[-107.64616,38.53075],[-107.6448,38.53231],[-107.64589,38.53398],[-107.64836,38.5341],[-107.64972,38.53255],[-107.64862,38.53087],[-107.64616,38.53075]]]},"properties":{"cell":"89269dcd053ffff","res":9,"coarsened":false,"count":2,"hv":2,"mp":0,"y0":2018,"y1":2025,"sp":[[29,1,1,0,2018,2018],[65,1,1,0,2025,2025]]}},{"type":"Feature","geometry":{"type":"Polygon","coordinates":[[[-107.72042,38.57495],[-107.71906,38.57651],[-107.72016,38.57818],[-107.72262,38.5783],[-107.72399,38.57674],[-107.72289,38.57507],[-107.72042,38.57495]]]},"properties":{"cell":"89269dc8adbffff","res":9,"coarsened":false,"count":15,"hv":15,"mp":0,"y0":2018,"y1":2026,"sp":[[9,4,4,0,2023,2026],[6,2,2,0,2018,2024],[4,2,2,0,2020,2026],[47,2,2,0,2024,2026],[33,1,1,0,2019,2019],[46,1,1,0,2022,2022],[41,1,1,0,2023,2023],[1,1,1,0,2023,2023],[42,1,1,0,2024,2024]]}},{"type":"Feature","geometry":{"type":"Polygon","coordinates":[[[-107.69298,38.54764],[-107.69161,38.5492],[-107.69271,38.55088],[-107.69518,38.551],[-107.69654,38.54944],[-107.69544,38.54776],[-107.69298,38.54764]]]},"properties":{"cell":"89269dc8b7bffff","res":9,"coarsened":false,"count":2,"hv":2,"mp":0,"y0":2018,"y1":2025,"sp":[[1,1,1,0,2018,2018],[47,1,1,0,2025,2025]]}},{"type":"Feature","geometry":{"type":"Polygon","coordinates":[[[-107.70868,38.5825],[-107.70732,38.58406],[-107.70842,38.58573],[-107.71088,38.58585],[-107.71225,38.5843],[-107.71115,38.58262],[-107.70868,38.5825]]]},"properties":{"cell":"89269dc8e77ffff","res":9,"coarsened":false,"count":30,"hv":30,"mp":0,"y0":2016,"y1":2025,"sp":[[30,4,4,0,2016,2024],[13,3,3,0,2024,2025],[6,2,2,0,2022,2024],[38,2,2,0,2023,2024],[1,2,2,0,2023,2024],[10,2,2,0,2024,2025],[42,2,2,0,2024,2024],[49,2,2,0,2024,2024],[35,1,1,0,2016,2016],[46,1,1,0,2021,2021],[44,1,1,0,2022,2022],[11,1,1,0,2023,2023],[14,1,1,0,2019,2019],[79,1,1,0,2024,2024],[31,1,1,0,2024,2024],[58,1,1,0,2024,2024],[69,1,1,0,2024,2024],[4,1,1,0,2024,2024],[32,1,1,0,2025,2025]]}},{"type":"Feature","geometry":{"type":"Polygon","coordinates":[[[-107.73468,38.58213],[-107.73331,38.58369],[-107.73441,38.58536],[-107.73688,38.58548],[-107.73824,38.58392],[-107.73714,38.58225],[-107.73468,38.58213]]]},"properties":{"cell":"89269dc9d13ffff","res":9,"coarsened":false,"count":1,"hv":1,"mp":0,"y0":2018,"y1":2018,"sp":[[31,1,1,0,2018,2018]]}},{"type":"Feature","geometry":{"type":"Polygon","coordinates":[[[-107.75328,38.5814],[-107.75192,38.58296],[-107.75302,38.58463],[-107.75548,38.58475],[-107.75684,38.58319],[-107.75574,38.58152],[-107.75328,38.5814]]]},"properties":{"cell":"89269dc9c2fffff","res":9,"coarsened":false,"count":2,"hv":2,"mp":0,"y0":2019,"y1":2019,"sp":[[32,1,1,0,2019,2019],[1,1,1,0,2019,2019]]}},{"type":"Feature","geometry":{"type":"Polygon","coordinates":[[[-107.65407,38.52464],[-107.65271,38.5262],[-107.65381,38.52787],[-107.65627,38.52799],[-107.65763,38.52644],[-107.65653,38.52476],[-107.65407,38.52464]]]},"properties":{"cell":"89269dcd287ffff","res":9,"coarsened":false,"count":2,"hv":2,"mp":0,"y0":2018,"y1":2024,"sp":[[29,1,1,0,2018,2018],[3,1,1,0,2024,2024]]}},{"type":"Feature","geometry":{"type":"Polygon","coordinates":[[[-107.73955,38.56775],[-107.73819,38.56931],[-107.73929,38.57099],[-107.74175,38.57111],[-107.74311,38.56955],[-107.74201,38.56787],[-107.73955,38.56775]]]},"properties":{"cell":"89269dc9d6fffff","res":9,"coarsened":false,"count":3,"hv":3,"mp":0,"y0":2007,"y1":2026,"sp":[[0,1,1,0,2007,2007],[92,1,1,0,2025,2025],[47,1,1,0,2026,2026]]}},{"type":"Feature","geometry":{"type":"Polygon","coordinates":[[[-107.69601,38.55591],[-107.69465,38.55747],[-107.69575,38.55914],[-107.69821,38.55926],[-107.69957,38.55771],[-107.69848,38.55603],[-107.69601,38.55591]]]},"properties":{"cell":"89269dc8b53ffff","res":9,"coarsened":false,"count":1,"hv":1,"mp":0,"y0":2018,"y1":2018,"sp":[[9,1,1,0,2018,2018]]}},{"type":"Feature","geometry":{"type":"Polygon","coordinates":[[[-107.68915,38.54908],[-107.68779,38.55064],[-107.68889,38.55232],[-107.69135,38.55244],[-107.69271,38.55088],[-107.69161,38.5492],[-107.68915,38.54908]]]},"properties":{"cell":"89269dc8b73ffff","res":9,"coarsened":false,"count":16,"hv":16,"mp":0,"y0":2018,"y1":2026,"sp":[[33,3,3,0,2019,2026],[3,3,3,0,2018,2019],[9,3,3,0,2023,2025],[1,2,2,0,2022,2024],[34,1,1,0,2019,2019],[29,1,1,0,2019,2019],[48,1,1,0,2020,2020],[0,1,1,0,2022,2022],[10,1,1,0,2024,2024]]}},{"type":"Feature","geometry":{"type":"Polygon","coordinates":[[[-107.68533,38.55052],[-107.68396,38.55208],[-107.68506,38.55375],[-107.68753,38.55387],[-107.68889,38.55232],[-107.68779,38.55064],[-107.68533,38.55052]]]},"properties":{"cell":"89269dc8b0fffff","res":9,"coarsened":false,"count":37,"hv":37,"mp":0,"y0":2019,"y1":2026,"sp":[[71,15,15,0,2025,2025],[13,4,4,0,2020,2023],[0,3,3,0,2025,2025],[50,3,3,0,2025,2025],[1,2,2,0,2021,2022],[12,2,2,0,2023,2023],[33,2,2,0,2025,2025],[3,1,1,0,2019,2019],[36,1,1,0,2022,2022],[10,1,1,0,2023,2023],[9,1,1,0,2023,2023],[32,1,1,0,2023,2023],[4,1,1,0,2026,2026]]}},{"type":"Feature","geometry":{"type":"Polygon","coordinates":[[[-107.74746,38.56164],[-107.7461,38.5632],[-107.7472,38.56487],[-107.74966,38.56499],[-107.75103,38.56343],[-107.74993,38.56176],[-107.74746,38.56164]]]},"properties":{"cell":"89269dc99cbffff","res":9,"coarsened":false,"count":27,"hv":27,"mp":0,"y0":2019,"y1":2026,"sp":[[6,6,6,0,2019,2025],[42,3,3,0,2020,2022],[36,2,2,0,2020,2021],[32,2,2,0,2022,2026],[66,2,2,0,2022,2024],[13,2,2,0,2026,2026],[43,1,1,0,2020,2020],[24,1,1,0,2020,2020],[9,1,1,0,2020,2020],[4,1,1,0,2021,2021],[49,1,1,0,2022,2022],[71,1,1,0,2023,2023],[47,1,1,0,2024,2024],[30,1,1,0,2025,2025],[94,1,1,0,2025,2025],[67,1,1,0,2025,2025]]}},{"type":"Feature","geometry":{"type":"Polygon","coordinates":[[[-107.68256,38.53902],[-107.68119,38.54058],[-107.68229,38.54225],[-107.68476,38.54237],[-107.68612,38.54081],[-107.68502,38.53914],[-107.68256,38.53902]]]},"properties":{"cell":"89269d52583ffff","res":9,"coarsened":false,"count":1,"hv":1,"mp":0,"y0":2010,"y1":2010,"sp":[[22,1,1,0,2010,2010]]}},{"type":"Feature","geometry":{"type":"Polygon","coordinates":[[[-107.74893,38.58931],[-107.74757,38.59087],[-107.74867,38.59254],[-107.75113,38.59266],[-107.7525,38.5911],[-107.75139,38.58943],[-107.74893,38.58931]]]},"properties":{"cell":"89269dc9cafffff","res":9,"coarsened":false,"count":1,"hv":1,"mp":0,"y0":2019,"y1":2019,"sp":[[0,1,1,0,2019,2019]]}},{"type":"Feature","geometry":{"type":"Polygon","coordinates":[[[-107.68889,38.55232],[-107.68753,38.55387],[-107.68863,38.55555],[-107.69109,38.55567],[-107.69245,38.55411],[-107.69135,38.55244],[-107.68889,38.55232]]]},"properties":{"cell":"89269dc8b0bffff","res":9,"coarsened":false,"count":57,"hv":57,"mp":0,"y0":2019,"y1":2026,"sp":[[1,12,12,0,2021,2026],[58,6,6,0,2023,2026],[13,6,6,0,2024,2025],[9,3,3,0,2019,2025],[57,2,2,0,2021,2023],[41,2,2,0,2022,2022],[8,2,2,0,2023,2024],[21,2,2,0,2023,2026],[71,2,2,0,2023,2023],[12,2,2,0,2024,2025],[32,1,1,0,2019,2019],[7,1,1,0,2021,2021],[22,1,1,0,2021,2021],[48,1,1,0,2022,2022],[72,1,1,0,2023,2023],[24,1,1,0,2023,2023],[50,1,1,0,2024,2024],[15,1,1,0,2024,2024],[14,1,1,0,2024,2024],[33,1,1,0,2024,2024],[67,1,1,0,2024,2024],[6,1,1,0,2024,2024],[86,1,1,0,2024,2024],[49,1,1,0,2024,2024],[18,1,1,0,2025,2025],[36,1,1,0,2025,2025],[46,1,1,0,2025,2025],[114,1,1,0,2022,2022]]}},{"type":"Feature","geometry":{"type":"Polygon","coordinates":[[[-107.73929,38.57099],[-107.73793,38.57255],[-107.73903,38.57422],[-107.74149,38.57434],[-107.74285,38.57278],[-107.74175,38.57111],[-107.73929,38.57099]]]},"properties":{"cell":"89269dc9d63ffff","res":9,"coarsened":false,"count":1,"hv":1,"mp":0,"y0":2019,"y1":2019,"sp":[[9,1,1,0,2019,2019]]}},{"type":"Feature","geometry":{"type":"Polygon","coordinates":[[[-107.72807,38.57207],[-107.72671,38.57363],[-107.72781,38.57531],[-107.73028,38.57542],[-107.73164,38.57387],[-107.73054,38.57219],[-107.72807,38.57207]]]},"properties":{"cell":"89269dc9d23ffff","res":9,"coarsened":false,"count":2,"hv":2,"mp":0,"y0":2019,"y1":2024,"sp":[[13,1,1,0,2019,2019],[3,1,1,0,2024,2024]]}},{"type":"Feature","geometry":{"type":"Polygon","coordinates":[[[-107.6914,38.56705],[-107.69003,38.56861],[-107.69113,38.57029],[-107.6936,38.57041],[-107.69496,38.56885],[-107.69386,38.56717],[-107.6914,38.56705]]]},"properties":{"cell":"89269dc886bffff","res":9,"coarsened":false,"count":5,"hv":5,"mp":0,"y0":2016,"y1":2025,"sp":[[16,2,2,0,2016,2024],[49,1,1,0,2024,2024],[12,1,1,0,2025,2025],[9,1,1,0,2025,2025]]}},{"type":"Feature","geometry":{"type":"Polygon","coordinates":[[[-107.69021,38.53614],[-107.68884,38.5377],[-107.68994,38.53938],[-107.69241,38.5395],[-107.69377,38.53794],[-107.69267,38.53626],[-107.69021,38.53614]]]},"properties":{"cell":"89269d525c7ffff","res":9,"coarsened":false,"count":1,"hv":1,"mp":0,"y0":2019,"y1":2019,"sp":[[3,1,1,0,2019,2019]]}},{"type":"Feature","geometry":{"type":"Polygon","coordinates":[[[-107.73216,38.5674],[-107.7308,38.56896],[-107.7319,38.57063],[-107.73436,38.57075],[-107.73573,38.56919],[-107.73463,38.56752],[-107.73216,38.5674]]]},"properties":{"cell":"89269dc9993ffff","res":9,"coarsened":false,"count":22,"hv":22,"mp":0,"y0":2019,"y1":2026,"sp":[[47,9,9,0,2021,2026],[13,2,2,0,2019,2026],[44,2,2,0,2022,2024],[22,2,2,0,2023,2025],[6,1,1,0,2023,2023],[36,1,1,0,2024,2024],[16,1,1,0,2024,2024],[3,1,1,0,2021,2021],[21,1,1,0,2026,2026],[1,1,1,0,2026,2026],[9,1,1,0,2026,2026]]}},{"type":"Feature","geometry":{"type":"Polygon","coordinates":[[[-107.74998,38.57637],[-107.74862,38.57793],[-107.74972,38.57961],[-107.75218,38.57972],[-107.75354,38.57817],[-107.75244,38.57649],[-107.74998,38.57637]]]},"properties":{"cell":"89269dc9d4bffff","res":9,"coarsened":false,"count":1,"hv":1,"mp":0,"y0":2015,"y1":2015,"sp":[[39,1,1,0,2015,2015]]}},{"type":"Feature","geometry":{"type":"Polygon","coordinates":[[[-107.66119,38.52823],[-107.65983,38.52979],[-107.66093,38.53147],[-107.66339,38.53159],[-107.66475,38.53003],[-107.66365,38.52835],[-107.66119,38.52823]]]},"properties":{"cell":"89269dcd29bffff","res":9,"coarsened":false,"count":2,"hv":2,"mp":0,"y0":2019,"y1":2023,"sp":[[29,1,1,0,2019,2019],[70,1,1,0,2023,2023]]}},{"type":"Feature","geometry":{"type":"Polygon","coordinates":[[[-107.73981,38.56452],[-107.73845,38.56608],[-107.73955,38.56775],[-107.74201,38.56787],[-107.74338,38.56631],[-107.74228,38.56464],[-107.73981,38.56452]]]},"properties":{"cell":"89269dc99d7ffff","res":9,"coarsened":false,"count":5,"hv":5,"mp":0,"y0":2018,"y1":2018,"sp":[[41,2,2,0,2018,2018],[40,1,1,0,2018,2018],[32,1,1,0,2018,2018],[3,1,1,0,2018,2018]]}},{"type":"Feature","geometry":{"type":"Polygon","coordinates":[[[-107.72504,38.56381],[-107.72367,38.56536],[-107.72477,38.56704],[-107.72724,38.56716],[-107.7286,38.5656],[-107.7275,38.56393],[-107.72504,38.56381]]]},"properties":{"cell":"89269dc8a4bffff","res":9,"coarsened":false,"count":17,"hv":17,"mp":0,"y0":2018,"y1":2018,"sp":[[13,5,5,0,2018,2018],[0,2,2,0,2018,2018],[9,2,2,0,2018,2018],[16,2,2,0,2018,2018],[1,1,1,0,2018,2018],[14,1,1,0,2018,2018],[3,1,1,0,2018,2018],[42,1,1,0,2018,2018],[30,1,1,0,2018,2018],[41,1,1,0,2018,2018]]}},{"type":"Feature","geometry":{"type":"Polygon","coordinates":[[[-107.73242,38.56416],[-107.73106,38.56572],[-107.73216,38.5674],[-107.73463,38.56752],[-107.73599,38.56596],[-107.73489,38.56428],[-107.73242,38.56416]]]},"properties":{"cell":"89269dc9983ffff","res":9,"coarsened":false,"count":4,"hv":4,"mp":0,"y0":2018,"y1":2020,"sp":[[9,1,1,0,2018,2018],[8,1,1,0,2018,2018],[43,1,1,0,2018,2018],[4,1,1,0,2020,2020]]}},{"type":"Feature","geometry":{"type":"Polygon","coordinates":[[[-107.69747,38.58358],[-107.6961,38.58514],[-107.6972,38.58682],[-107.69967,38.58693],[-107.70103,38.58538],[-107.69993,38.5837],[-107.69747,38.58358]]]},"properties":{"cell":"89269dc8e37ffff","res":9,"coarsened":false,"count":7,"hv":7,"mp":0,"y0":2018,"y1":2024,"sp":[[84,2,2,0,2024,2024],[1,1,1,0,2018,2018],[45,1,1,0,2018,2018],[12,1,1,0,2018,2018],[46,1,1,0,2018,2018],[13,1,1,0,2018,2018]]}},{"type":"Feature","geometry":{"type":"Polygon","coordinates":[[[-107.69773,38.58035],[-107.69637,38.5819],[-107.69747,38.58358],[-107.69993,38.5837],[-107.70129,38.58214],[-107.70019,38.58047],[-107.69773,38.58035]]]},"properties":{"cell":"89269dc8e27ffff","res":9,"coarsened":false,"count":1,"hv":1,"mp":0,"y0":2018,"y1":2018,"sp":[[32,1,1,0,2018,2018]]}},{"type":"Feature","geometry":{"type":"Polygon","coordinates":[[[-107.74259,38.57602],[-107.74123,38.57757],[-107.74233,38.57925],[-107.74479,38.57937],[-107.74615,38.57781],[-107.74505,38.57613],[-107.74259,38.57602]]]},"properties":{"cell":"89269dc9d47ffff","res":9,"coarsened":false,"count":1,"hv":1,"mp":0,"y0":2019,"y1":2019,"sp":[[32,1,1,0,2019,2019]]}},{"type":"Feature","geometry":{"type":"Polygon","coordinates":[[[-107.74589,38.58105],[-107.74453,38.5826],[-107.74563,38.58428],[-107.74809,38.5844],[-107.74946,38.58284],[-107.74835,38.58116],[-107.74589,38.58105]]]},"properties":{"cell":"89269dc9d53ffff","res":9,"coarsened":false,"count":1,"hv":1,"mp":0,"y0":2019,"y1":2019,"sp":[[41,1,1,0,2019,2019]]}},{"type":"Feature","geometry":{"type":"Polygon","coordinates":[[[-107.72016,38.57818],[-107.7188,38.57974],[-107.7199,38.58142],[-107.72236,38.58154],[-107.72372,38.57998],[-107.72262,38.5783],[-107.72016,38.57818]]]},"properties":{"cell":"89269dc9da7ffff","res":9,"coarsened":false,"count":1,"hv":1,"mp":0,"y0":2006,"y1":2006,"sp":[[16,1,1,0,2006,2006]]}},{"type":"Feature","geometry":{"type":"Polygon","coordinates":[[[-107.75024,38.57314],[-107.74888,38.57469],[-107.74998,38.57637],[-107.75244,38.57649],[-107.7538,38.57493],[-107.7527,38.57325],[-107.75024,38.57314]]]},"properties":{"cell":"89269dc98b3ffff","res":9,"coarsened":false,"count":4,"hv":4,"mp":0,"y0":2004,"y1":2026,"sp":[[40,1,1,0,2017,2017],[0,1,1,0,2011,2011],[3,1,1,0,2004,2004],[47,1,1,0,2026,2026]]}},{"type":"Feature","geometry":{"type":"Polygon","coordinates":[[[-107.74285,38.57278],[-107.74149,38.57434],[-107.74259,38.57602],[-107.74505,38.57613],[-107.74642,38.57458],[-107.74531,38.5729],[-107.74285,38.57278]]]},"properties":{"cell":"89269dc9d7bffff","res":9,"coarsened":false,"count":2,"hv":2,"mp":0,"y0":2016,"y1":2017,"sp":[[3,1,1,0,2017,2017],[0,1,1,0,2016,2016]]}},{"type":"Feature","geometry":{"type":"Polygon","coordinates":[[[-107.64642,38.52751],[-107.64506,38.52907],[-107.64616,38.53075],[-107.64862,38.53087],[-107.64998,38.52931],[-107.64888,38.52763],[-107.64642,38.52751]]]},"properties":{"cell":"89269dcd043ffff","res":9,"coarsened":false,"count":6,"hv":6,"mp":0,"y0":2020,"y1":2025,"sp":[[53,3,3,0,2024,2025],[52,1,1,0,2020,2020],[14,1,1,0,2024,2024],[93,1,1,0,2025,2025]]}},{"type":"Feature","geometry":{"type":"Polygon","coordinates":[[[-107.75684,38.58319],[-107.75548,38.58475],[-107.75658,38.58643],[-107.75905,38.58655],[-107.76041,38.58499],[-107.75931,38.58331],[-107.75684,38.58319]]]},"properties":{"cell":"89269dc9c2bffff","res":9,"coarsened":false,"count":2,"hv":2,"mp":0,"y0":2020,"y1":2025,"sp":[[53,1,1,0,2020,2020],[1,1,1,0,2025,2025]]}},{"type":"Feature","geometry":{"type":"Polygon","coordinates":[[[-107.68665,38.53434],[-107.68528,38.5359],[-107.68638,38.53758],[-107.68884,38.5377],[-107.69021,38.53614],[-107.68911,38.53446],[-107.68665,38.53434]]]},"properties":{"cell":"89269d52513ffff","res":9,"coarsened":false,"count":3,"hv":3,"mp":0,"y0":2020,"y1":2026,"sp":[[3,3,3,0,2020,2026]]}},{"type":"Feature","geometry":{"type":"Polygon","coordinates":[[[-107.63048,38.49587],[-107.59417,38.51682],[-107.59999,38.55122],[-107.64215,38.56465],[-107.67847,38.54369],[-107.67262,38.5093],[-107.63048,38.49587]]]},"properties":{"cell":"86269dcd7ffffff","res":6,"coarsened":true,"count":1,"hv":1,"mp":0,"y0":2020,"y1":2020,"sp":[[54,1,1,0,2020,2020]]}},{"type":"Feature","geometry":{"type":"Polygon","coordinates":[[[-107.66197,38.60945],[-107.66061,38.61101],[-107.66171,38.61269],[-107.66417,38.61281],[-107.66553,38.61125],[-107.66443,38.60957],[-107.66197,38.60945]]]},"properties":{"cell":"89269dcab57ffff","res":9,"coarsened":false,"count":1,"hv":1,"mp":0,"y0":2020,"y1":2020,"sp":[[55,1,1,0,2020,2020]]}},{"type":"Feature","geometry":{"type":"Polygon","coordinates":[[[-107.65405,38.61556],[-107.65269,38.61712],[-107.65378,38.61879],[-107.65625,38.61891],[-107.65761,38.61736],[-107.65651,38.61568],[-107.65405,38.61556]]]},"properties":{"cell":"89269dcab8bffff","res":9,"coarsened":false,"count":2,"hv":2,"mp":0,"y0":2020,"y1":2020,"sp":[[2,1,1,0,2020,2020],[56,1,1,0,2020,2020]]}},{"type":"Feature","geometry":{"type":"Polygon","coordinates":[[[-107.70261,38.56597],[-107.70125,38.56753],[-107.70235,38.56921],[-107.70481,38.56933],[-107.70617,38.56777],[-107.70507,38.56609],[-107.70261,38.56597]]]},"properties":{"cell":"89269dc8aabffff","res":9,"coarsened":false,"count":5,"hv":5,"mp":0,"y0":2019,"y1":2026,"sp":[[3,3,3,0,2019,2019],[47,1,1,0,2026,2026],[2,1,1,0,2026,2026]]}},{"type":"Feature","geometry":{"type":"Polygon","coordinates":[[[-107.72451,38.57028],[-107.72315,38.57183],[-107.72425,38.57351],[-107.72671,38.57363],[-107.72807,38.57207],[-107.72697,38.57039],[-107.72451,38.57028]]]},"properties":{"cell":"89269dc9d27ffff","res":9,"coarsened":false,"count":12,"hv":12,"mp":0,"y0":2017,"y1":2025,"sp":[[1,3,3,0,2017,2023],[47,2,2,0,2017,2025],[10,1,1,0,2022,2022],[9,1,1,0,2022,2022],[4,1,1,0,2022,2022],[13,1,1,0,2025,2025],[19,1,1,0,2025,2025],[65,1,1,0,2025,2025],[46,1,1,0,2025,2025]]}},{"type":"Feature","geometry":{"type":"Polygon","coordinates":[[[-107.69192,38.56058],[-107.69056,38.56214],[-107.69166,38.56382],[-107.69412,38.56394],[-107.69549,38.56238],[-107.69439,38.5607],[-107.69192,38.56058]]]},"properties":{"cell":"89269dc8bc3ffff","res":9,"coarsened":false,"count":1,"hv":1,"mp":0,"y0":2021,"y1":2021,"sp":[[19,1,1,0,2021,2021]]}},{"type":"Feature","geometry":{"type":"Polygon","coordinates":[[[-107.68836,38.55879],[-107.687,38.56034],[-107.6881,38.56202],[-107.69056,38.56214],[-107.69192,38.56058],[-107.69082,38.55891],[-107.68836,38.55879]]]},"properties":{"cell":"89269dc8bc7ffff","res":9,"coarsened":false,"count":2,"hv":2,"mp":0,"y0":2021,"y1":2023,"sp":[[24,1,1,0,2021,2021],[32,1,1,0,2023,2023]]}},{"type":"Feature","geometry":{"type":"Polygon","coordinates":[[[-107.69271,38.55088],[-107.69135,38.55244],[-107.69245,38.55411],[-107.69491,38.55423],[-107.69628,38.55267],[-107.69518,38.551],[-107.69271,38.55088]]]},"properties":{"cell":"89269dc8b47ffff","res":9,"coarsened":false,"count":2,"hv":2,"mp":0,"y0":2021,"y1":2025,"sp":[[0,1,1,0,2021,2021],[13,1,1,0,2025,2025]]}},{"type":"Feature","geometry":{"type":"Polygon","coordinates":[[[-107.72834,38.56884],[-107.72697,38.57039],[-107.72807,38.57207],[-107.73054,38.57219],[-107.7319,38.57063],[-107.7308,38.56896],[-107.72834,38.56884]]]},"properties":{"cell":"89269dc9d2fffff","res":9,"coarsened":false,"count":4,"hv":4,"mp":0,"y0":2018,"y1":2025,"sp":[[47,2,2,0,2024,2025],[16,1,1,0,2021,2021],[11,1,1,0,2018,2018]]}},{"type":"Feature","geometry":{"type":"Polygon","coordinates":[[[-107.70235,38.56921],[-107.70098,38.57076],[-107.70208,38.57244],[-107.70455,38.57256],[-107.70591,38.571],[-107.70481,38.56933],[-107.70235,38.56921]]]},"properties":{"cell":"89269dc8abbffff","res":9,"coarsened":false,"count":23,"hv":23,"mp":0,"y0":2009,"y1":2026,"sp":[[49,4,4,0,2021,2024],[1,4,4,0,2011,2025],[41,3,3,0,2024,2025],[32,2,2,0,2009,2025],[70,1,1,0,2021,2021],[0,1,1,0,2023,2023],[42,1,1,0,2024,2024],[30,1,1,0,2024,2024],[27,1,1,0,2024,2024],[6,1,1,0,2009,2009],[9,1,1,0,2025,2025],[22,1,1,0,2025,2025],[21,1,1,0,2026,2026],[37,1,1,0,2023,2023]]}},{"type":"Feature","geometry":{"type":"Polygon","coordinates":[[[-107.75076,38.56667],[-107.7494,38.56823],[-107.7505,38.5699],[-107.75296,38.57002],[-107.75433,38.56846],[-107.75323,38.56679],[-107.75076,38.56667]]]},"properties":{"cell":"89269dc98afffff","res":9,"coarsened":false,"count":13,"hv":13,"mp":0,"y0":2011,"y1":2026,"sp":[[50,3,3,0,2025,2026],[49,2,2,0,2023,2023],[60,1,1,0,2016,2016],[47,1,1,0,2023,2023],[79,1,1,0,2023,2023],[6,1,1,0,2024,2024],[90,1,1,0,2011,2011],[1,1,1,0,2026,2026],[42,1,1,0,2026,2026],[44,1,1,0,2026,2026]]}},{"type":"Feature","geometry":{"type":"Polygon","coordinates":[[[-107.67715,38.55987],[-107.67579,38.56142],[-107.67689,38.5631],[-107.67935,38.56322],[-107.68071,38.56166],[-107.67961,38.55999],[-107.67715,38.55987]]]},"properties":{"cell":"89269dc8b87ffff","res":9,"coarsened":false,"count":3,"hv":3,"mp":0,"y0":2015,"y1":2025,"sp":[[2,1,1,0,2015,2015],[24,1,1,0,2022,2022],[44,1,1,0,2025,2025]]}},{"type":"Feature","geometry":{"type":"Polygon","coordinates":[[[-107.67003,38.55627],[-107.66866,38.55783],[-107.66976,38.55951],[-107.67222,38.55963],[-107.67359,38.55807],[-107.67249,38.55639],[-107.67003,38.55627]]]},"properties":{"cell":"89269dc8bb7ffff","res":9,"coarsened":false,"count":1,"hv":1,"mp":0,"y0":2015,"y1":2015,"sp":[[6,1,1,0,2015,2015]]}},{"type":"Feature","geometry":{"type":"Polygon","coordinates":[[[-107.6947,38.57208],[-107.69333,38.57364],[-107.69443,38.57532],[-107.6969,38.57544],[-107.69826,38.57388],[-107.69716,38.5722],[-107.6947,38.57208]]]},"properties":{"cell":"89269dc884fffff","res":9,"coarsened":false,"count":5,"hv":5,"mp":0,"y0":2015,"y1":2025,"sp":[[1,2,2,0,2025,2025],[2,1,1,0,2015,2015],[68,1,1,0,2022,2022],[49,1,1,0,2025,2025]]}},{"type":"Feature","geometry":{"type":"Polygon","coordinates":[[[-107.68559,38.54729],[-107.68423,38.54884],[-107.68533,38.55052],[-107.68779,38.55064],[-107.68915,38.54908],[-107.68805,38.5474],[-107.68559,38.54729]]]},"properties":{"cell":"89269dc8b77ffff","res":9,"coarsened":false,"count":13,"hv":13,"mp":0,"y0":2021,"y1":2025,"sp":[[1,2,2,0,2021,2024],[50,2,2,0,2025,2025],[32,2,2,0,2024,2025],[4,1,1,0,2023,2023],[30,1,1,0,2023,2023],[3,1,1,0,2023,2023],[13,1,1,0,2025,2025],[94,1,1,0,2025,2025],[16,1,1,0,2025,2025],[37,1,1,0,2025,2025]]}},{"type":"Feature","geometry":{"type":"Polygon","coordinates":[[[-107.69443,38.57532],[-107.69307,38.57687],[-107.69417,38.57855],[-107.69663,38.57867],[-107.69799,38.57711],[-107.6969,38.57544],[-107.69443,38.57532]]]},"properties":{"cell":"89269dc8843ffff","res":9,"coarsened":false,"count":2,"hv":2,"mp":0,"y0":2021,"y1":2023,"sp":[[2,1,1,0,2021,2021],[41,1,1,0,2023,2023]]}},{"type":"Feature","geometry":{"type":"Polygon","coordinates":[[[-107.6848,38.55699],[-107.68344,38.55855],[-107.68454,38.56022],[-107.687,38.56034],[-107.68836,38.55879],[-107.68726,38.55711],[-107.6848,38.55699]]]},"properties":{"cell":"89269dc8b13ffff","res":9,"coarsened":false,"count":2,"hv":2,"mp":0,"y0":2018,"y1":2024,"sp":[[61,1,1,0,2018,2018],[16,1,1,0,2024,2024]]}},{"type":"Feature","geometry":{"type":"Polygon","coordinates":[[[-107.73389,38.59183],[-107.73253,38.59339],[-107.73363,38.59507],[-107.73609,38.59518],[-107.73745,38.59363],[-107.73635,38.59195],[-107.73389,38.59183]]]},"properties":{"cell":"89269dc8367ffff","res":9,"coarsened":false,"count":5,"hv":5,"mp":0,"y0":2011,"y1":2024,"sp":[[38,1,1,0,2021,2021],[30,1,1,0,2024,2024],[13,1,1,0,2024,2024],[44,1,1,0,2024,2024],[4,1,1,0,2011,2011]]}},{"type":"Feature","geometry":{"type":"Polygon","coordinates":[[[-107.72399,38.57674],[-107.72262,38.5783],[-107.72372,38.57998],[-107.72619,38.5801],[-107.72755,38.57854],[-107.72645,38.57686],[-107.72399,38.57674]]]},"properties":{"cell":"89269dc9dafffff","res":9,"coarsened":false,"count":3,"hv":3,"mp":0,"y0":2021,"y1":2024,"sp":[[4,1,1,0,2021,2021],[9,1,1,0,2024,2024],[91,1,1,0,2024,2024]]}},{"type":"Feature","geometry":{"type":"Polygon","coordinates":[[[-107.72147,38.56201],[-107.72011,38.56357],[-107.72121,38.56525],[-107.72367,38.56536],[-107.72504,38.56381],[-107.72394,38.56213],[-107.72147,38.56201]]]},"properties":{"cell":"89269dc8a4fffff","res":9,"coarsened":false,"count":1,"hv":1,"mp":0,"y0":2022,"y1":2022,"sp":[[4,1,1,0,2022,2022]]}},{"type":"Feature","geometry":{"type":"Polygon","coordinates":[[[-107.72425,38.57351],[-107.72289,38.57507],[-107.72399,38.57674],[-107.72645,38.57686],[-107.72781,38.57531],[-107.72671,38.57363],[-107.72425,38.57351]]]},"properties":{"cell":"89269dc9d37ffff","res":9,"coarsened":false,"count":12,"hv":12,"mp":0,"y0":2021,"y1":2025,"sp":[[1,9,9,0,2021,2025],[83,1,1,0,2024,2024],[42,1,1,0,2024,2024],[37,1,1,0,2025,2025]]}},{"type":"Feature","geometry":{"type":"Polygon","coordinates":[[[-107.66962,38.60658],[-107.66826,38.60814],[-107.66936,38.60981],[-107.67182,38.60993],[-107.67319,38.60838],[-107.67209,38.6067],[-107.66962,38.60658]]]},"properties":{"cell":"89269dcab4bffff","res":9,"coarsened":false,"count":1,"hv":1,"mp":0,"y0":2022,"y1":2022,"sp":[[1,1,1,0,2022,2022]]}},{"type":"Feature","geometry":{"type":"Polygon","coordinates":[[[-107.74364,38.56308],[-107.74228,38.56464],[-107.74338,38.56631],[-107.74584,38.56643],[-107.7472,38.56487],[-107.7461,38.5632],[-107.74364,38.56308]]]},"properties":{"cell":"89269dc99c3ffff","res":9,"coarsened":false,"count":6,"hv":6,"mp":0,"y0":2016,"y1":2024,"sp":[[4,1,1,0,2022,2022],[6,1,1,0,2023,2023],[79,1,1,0,2023,2023],[47,1,1,0,2023,2023],[50,1,1,0,2024,2024],[32,1,1,0,2016,2016]]}},{"type":"Feature","geometry":{"type":"Polygon","coordinates":[[[-107.7439,38.55984],[-107.74254,38.5614],[-107.74364,38.56308],[-107.7461,38.5632],[-107.74746,38.56164],[-107.74636,38.55996],[-107.7439,38.55984]]]},"properties":{"cell":"89269dc99cfffff","res":9,"coarsened":false,"count":6,"hv":6,"mp":0,"y0":2022,"y1":2026,"sp":[[13,2,2,0,2022,2026],[6,1,1,0,2022,2022],[21,1,1,0,2022,2022],[32,1,1,0,2022,2022],[50,1,1,0,2023,2023]]}},{"type":"Feature","geometry":{"type":"Polygon","coordinates":[[[-107.69391,38.58179],[-107.69254,38.58334],[-107.69364,38.58502],[-107.6961,38.58514],[-107.69747,38.58358],[-107.69637,38.5819],[-107.69391,38.58179]]]},"properties":{"cell":"89269dc88cbffff","res":9,"coarsened":false,"count":1,"hv":1,"mp":0,"y0":2022,"y1":2022,"sp":[[6,1,1,0,2022,2022]]}},{"type":"Feature","geometry":{"type":"Polygon","coordinates":[[[-107.69799,38.57711],[-107.69663,38.57867],[-107.69773,38.58035],[-107.70019,38.58047],[-107.70156,38.57891],[-107.70046,38.57723],[-107.69799,38.57711]]]},"properties":{"cell":"89269dc885bffff","res":9,"coarsened":false,"count":4,"hv":4,"mp":0,"y0":2022,"y1":2024,"sp":[[1,2,2,0,2022,2024],[10,1,1,0,2022,2022],[29,1,1,0,2023,2023]]}},{"type":"Feature","geometry":{"type":"Polygon","coordinates":[[[-107.68401,38.56669],[-107.68265,38.56825],[-107.68375,38.56993],[-107.68621,38.57005],[-107.68757,38.56849],[-107.68647,38.56681],[-107.68401,38.56669]]]},"properties":{"cell":"89269dc8867ffff","res":9,"coarsened":false,"count":1,"hv":1,"mp":0,"y0":2022,"y1":2022,"sp":[[2,1,1,0,2022,2022]]}},{"type":"Feature","geometry":{"type":"Polygon","coordinates":[[[-107.69417,38.57855],[-107.69281,38.58011],[-107.69391,38.58179],[-107.69637,38.5819],[-107.69773,38.58035],[-107.69663,38.57867],[-107.69417,38.57855]]]},"properties":{"cell":"89269dc8853ffff","res":9,"coarsened":false,"count":2,"hv":2,"mp":0,"y0":2022,"y1":2024,"sp":[[45,1,1,0,2022,2022],[4,1,1,0,2024,2024]]}},{"type":"Feature","geometry":{"type":"Polygon","coordinates":[[[-107.65049,38.61376],[-107.64912,38.61532],[-107.65022,38.617],[-107.65269,38.61712],[-107.65405,38.61556],[-107.65295,38.61388],[-107.65049,38.61376]]]},"properties":{"cell":"89269dcab8fffff","res":9,"coarsened":false,"count":1,"hv":1,"mp":0,"y0":2022,"y1":2022,"sp":[[1,1,1,0,2022,2022]]}},{"type":"Feature","geometry":{"type":"Polygon","coordinates":[[[-107.65222,38.54728],[-107.65086,38.54884],[-107.65196,38.55052],[-107.65442,38.55064],[-107.65578,38.54908],[-107.65468,38.5474],[-107.65222,38.54728]]]},"properties":{"cell":"89269dcd687ffff","res":9,"coarsened":false,"count":1,"hv":1,"mp":0,"y0":2022,"y1":2022,"sp":[[16,1,1,0,2022,2022]]}},{"type":"Feature","geometry":{"type":"Polygon","coordinates":[[[-107.74338,38.56631],[-107.74201,38.56787],[-107.74311,38.56955],[-107.74558,38.56967],[-107.74694,38.56811],[-107.74584,38.56643],[-107.74338,38.56631]]]},"properties":{"cell":"89269dc99d3ffff","res":9,"coarsened":false,"count":1,"hv":1,"mp":0,"y0":2022,"y1":2022,"sp":[[36,1,1,0,2022,2022]]}},{"type":"Feature","geometry":{"type":"Polygon","coordinates":[[[-107.69984,38.55447],[-107.69848,38.55603],[-107.69957,38.55771],[-107.70204,38.55783],[-107.7034,38.55627],[-107.7023,38.55459],[-107.69984,38.55447]]]},"properties":{"cell":"89269dc8b5bffff","res":9,"coarsened":false,"count":4,"hv":4,"mp":0,"y0":2022,"y1":2026,"sp":[[1,2,2,0,2025,2026],[22,1,1,0,2022,2022],[3,1,1,0,2024,2024]]}},{"type":"Feature","geometry":{"type":"Polygon","coordinates":[[[-107.66146,38.525],[-107.66009,38.52656],[-107.66119,38.52823],[-107.66365,38.52835],[-107.66502,38.5268],[-107.66392,38.52512],[-107.66146,38.525]]]},"properties":{"cell":"89269dcd28bffff","res":9,"coarsened":false,"count":1,"hv":1,"mp":0,"y0":2015,"y1":2015,"sp":[[29,1,1,0,2015,2015]]}},{"type":"Feature","geometry":{"type":"Polygon","coordinates":[[[-107.70892,38.48831],[-107.67262,38.5093],[-107.67847,38.54369],[-107.72064,38.5571],[-107.75694,38.53611],[-107.75107,38.50172],[-107.70892,38.48831]]]},"properties":{"cell":"86269d527ffffff","res":6,"coarsened":true,"count":1,"hv":1,"mp":0,"y0":2023,"y1":2023,"sp":[[17,1,1,0,2023,2023]]}},{"type":"Feature","geometry":{"type":"Polygon","coordinates":[[[-107.70524,38.53362],[-107.70388,38.53518],[-107.70498,38.53686],[-107.70744,38.53698],[-107.7088,38.53542],[-107.7077,38.53374],[-107.70524,38.53362]]]},"properties":{"cell":"89269d5242fffff","res":9,"coarsened":false,"count":4,"hv":4,"mp":0,"y0":2023,"y1":2025,"sp":[[22,2,2,0,2023,2023],[69,1,1,0,2023,2023],[0,1,1,0,2025,2025]]}},{"type":"Feature","geometry":{"type":"Polygon","coordinates":[[[-107.72069,38.57172],[-107.71932,38.57327],[-107.72042,38.57495],[-107.72289,38.57507],[-107.72425,38.57351],[-107.72315,38.57183],[-107.72069,38.57172]]]},"properties":{"cell":"89269dc8acbffff","res":9,"coarsened":false,"count":6,"hv":6,"mp":0,"y0":2016,"y1":2026,"sp":[[4,1,1,0,2023,2023],[16,1,1,0,2024,2024],[42,1,1,0,2023,2023],[47,1,1,0,2025,2025],[3,1,1,0,2016,2016],[32,1,1,0,2026,2026]]}},{"type":"Feature","geometry":{"type":"Polygon","coordinates":[[[-107.7472,38.56487],[-107.74584,38.56643],[-107.74694,38.56811],[-107.7494,38.56823],[-107.75076,38.56667],[-107.74966,38.56499],[-107.7472,38.56487]]]},"properties":{"cell":"89269dc99dbffff","res":9,"coarsened":false,"count":7,"hv":7,"mp":0,"y0":2023,"y1":2026,"sp":[[47,2,2,0,2024,2024],[13,1,1,0,2023,2023],[36,1,1,0,2023,2023],[6,1,1,0,2023,2023],[22,1,1,0,2023,2023],[66,1,1,0,2026,2026]]}},{"type":"Feature","geometry":{"type":"Polygon","coordinates":[[[-107.69377,38.53794],[-107.69241,38.5395],[-107.6935,38.54117],[-107.69597,38.54129],[-107.69733,38.53973],[-107.69623,38.53806],[-107.69377,38.53794]]]},"properties":{"cell":"89269d525c3ffff","res":9,"coarsened":false,"count":2,"hv":2,"mp":0,"y0":2023,"y1":2023,"sp":[[15,1,1,0,2023,2023],[58,1,1,0,2023,2023]]}},{"type":"Feature","geometry":{"type":"Polygon","coordinates":[[[-107.71555,38.58933],[-107.71418,38.59088],[-107.71528,38.59256],[-107.71775,38.59268],[-107.71911,38.59112],[-107.71801,38.58944],[-107.71555,38.58933]]]},"properties":{"cell":"89269dc8e57ffff","res":9,"coarsened":false,"count":5,"hv":5,"mp":0,"y0":2023,"y1":2025,"sp":[[6,1,1,0,2023,2023],[30,1,1,0,2023,2023],[22,1,1,0,2025,2025],[32,1,1,0,2025,2025],[31,1,1,0,2025,2025]]}},{"type":"Feature","geometry":{"type":"Polygon","coordinates":[[[-107.69628,38.55267],[-107.69491,38.55423],[-107.69601,38.55591],[-107.69848,38.55603],[-107.69984,38.55447],[-107.69874,38.55279],[-107.69628,38.55267]]]},"properties":{"cell":"89269dc8b43ffff","res":9,"coarsened":false,"count":1,"hv":1,"mp":0,"y0":2023,"y1":2023,"sp":[[3,1,1,0,2023,2023]]}},{"type":"Feature","geometry":{"type":"Polygon","coordinates":[[[-107.7319,38.57063],[-107.73054,38.57219],[-107.73164,38.57387],[-107.7341,38.57398],[-107.73546,38.57243],[-107.73436,38.57075],[-107.7319,38.57063]]]},"properties":{"cell":"89269dc9d2bffff","res":9,"coarsened":false,"count":1,"hv":1,"mp":0,"y0":2023,"y1":2023,"sp":[[22,1,1,0,2023,2023]]}},{"type":"Feature","geometry":{"type":"Polygon","coordinates":[[[-107.73625,38.56272],[-107.73489,38.56428],[-107.73599,38.56596],[-107.73845,38.56608],[-107.73981,38.56452],[-107.73871,38.56284],[-107.73625,38.56272]]]},"properties":{"cell":"89269dc998bffff","res":9,"coarsened":false,"count":2,"hv":2,"mp":0,"y0":2023,"y1":2025,"sp":[[29,1,1,0,2023,2023],[46,1,1,0,2025,2025]]}},{"type":"Feature","geometry":{"type":"Polygon","coordinates":[[[-107.70816,38.58897],[-107.70679,38.59053],[-107.70789,38.5922],[-107.71036,38.59232],[-107.71172,38.59076],[-107.71062,38.58909],[-107.70816,38.58897]]]},"properties":{"cell":"89269dc8e03ffff","res":9,"coarsened":false,"count":5,"hv":5,"mp":0,"y0":2023,"y1":2024,"sp":[[42,1,1,0,2023,2023],[18,1,1,0,2023,2023],[22,1,1,0,2023,2023],[74,1,1,0,2023,2023],[4,1,1,0,2024,2024]]}},{"type":"Feature","geometry":{"type":"Polygon","coordinates":[[[-107.71964,38.58465],[-107.71827,38.58621],[-107.71937,38.58789],[-107.72184,38.58801],[-107.7232,38.58645],[-107.7221,38.58477],[-107.71964,38.58465]]]},"properties":{"cell":"89269dc8e4fffff","res":9,"coarsened":false,"count":3,"hv":3,"mp":0,"y0":2023,"y1":2024,"sp":[[46,1,1,0,2023,2023],[13,1,1,0,2024,2024],[37,1,1,0,2024,2024]]}},{"type":"Feature","geometry":{"type":"Polygon","coordinates":[[[-107.71172,38.59076],[-107.71036,38.59232],[-107.71146,38.594],[-107.71392,38.59412],[-107.71528,38.59256],[-107.71418,38.59088],[-107.71172,38.59076]]]},"properties":{"cell":"89269dc8e1bffff","res":9,"coarsened":false,"count":1,"hv":1,"mp":0,"y0":2023,"y1":2023,"sp":[[42,1,1,0,2023,2023]]}},{"type":"Feature","geometry":{"type":"Polygon","coordinates":[[[-107.67332,38.5613],[-107.67196,38.56286],[-107.67306,38.56454],[-107.67552,38.56466],[-107.67689,38.5631],[-107.67579,38.56142],[-107.67332,38.5613]]]},"properties":{"cell":"89269dc894bffff","res":9,"coarsened":false,"count":5,"hv":5,"mp":0,"y0":2023,"y1":2024,"sp":[[13,1,1,0,2023,2023],[77,1,1,0,2023,2023],[9,1,1,0,2023,2023],[44,1,1,0,2024,2024],[74,1,1,0,2024,2024]]}},{"type":"Feature","geometry":{"type":"Polygon","coordinates":[[[-107.6695,38.56274],[-107.66813,38.5643],[-107.66923,38.56598],[-107.6717,38.5661],[-107.67306,38.56454],[-107.67196,38.56286],[-107.6695,38.56274]]]},"properties":{"cell":"89269dc8943ffff","res":9,"coarsened":false,"count":4,"hv":4,"mp":0,"y0":2023,"y1":2024,"sp":[[89,2,2,0,2024,2024],[1,1,1,0,2023,2023],[4,1,1,0,2024,2024]]}},{"type":"Feature","geometry":{"type":"Polygon","coordinates":[[[-107.66237,38.55915],[-107.66101,38.5607],[-107.66211,38.56238],[-107.66457,38.5625],[-107.66594,38.56094],[-107.66484,38.55927],[-107.66237,38.55915]]]},"properties":{"cell":"89269dc8973ffff","res":9,"coarsened":false,"count":12,"hv":12,"mp":0,"y0":2023,"y1":2024,"sp":[[6,4,4,0,2024,2024],[74,2,2,0,2024,2024],[41,1,1,0,2023,2023],[42,1,1,0,2023,2023],[12,1,1,0,2024,2024],[9,1,1,0,2024,2024],[88,1,1,0,2024,2024],[57,1,1,0,2024,2024]]}},{"type":"Feature","geometry":{"type":"Polygon","coordinates":[[[-107.66594,38.56094],[-107.66457,38.5625],[-107.66567,38.56418],[-107.66813,38.5643],[-107.6695,38.56274],[-107.6684,38.56106],[-107.66594,38.56094]]]},"properties":{"cell":"89269dc8947ffff","res":9,"coarsened":false,"count":6,"hv":6,"mp":0,"y0":2023,"y1":2024,"sp":[[6,2,2,0,2024,2024],[44,2,2,0,2024,2024],[1,1,1,0,2023,2023],[76,1,1,0,2023,2023]]}},{"type":"Feature","geometry":{"type":"Polygon","coordinates":[[[-107.7166,38.57639],[-107.71524,38.57795],[-107.71634,38.57962],[-107.7188,38.57974],[-107.72016,38.57818],[-107.71906,38.57651],[-107.7166,38.57639]]]},"properties":{"cell":"89269dc8ad3ffff","res":9,"coarsened":false,"count":6,"hv":6,"mp":0,"y0":2021,"y1":2026,"sp":[[47,3,3,0,2025,2026],[21,1,1,0,2021,2021],[11,1,1,0,2025,2025],[82,1,1,0,2025,2025]]}},{"type":"Feature","geometry":{"type":"Polygon","coordinates":[[[-107.71686,38.57315],[-107.7155,38.57471],[-107.7166,38.57639],[-107.71906,38.57651],[-107.72042,38.57495],[-107.71932,38.57327],[-107.71686,38.57315]]]},"properties":{"cell":"89269dc8ac3ffff","res":9,"coarsened":false,"count":1,"hv":1,"mp":0,"y0":2023,"y1":2023,"sp":[[6,1,1,0,2023,2023]]}},{"type":"Feature","geometry":{"type":"Polygon","coordinates":[[[-107.70947,38.5728],[-107.70811,38.57436],[-107.70921,38.57603],[-107.71167,38.57615],[-107.71304,38.57459],[-107.71194,38.57292],[-107.70947,38.5728]]]},"properties":{"cell":"89269dc8a8bffff","res":9,"coarsened":false,"count":3,"hv":3,"mp":0,"y0":2023,"y1":2026,"sp":[[1,1,1,0,2023,2023],[36,1,1,0,2024,2024],[0,1,1,0,2026,2026]]}},{"type":"Feature","geometry":{"type":"Polygon","coordinates":[[[-107.71712,38.56992],[-107.71576,38.57148],[-107.71686,38.57315],[-107.71932,38.57327],[-107.72069,38.57172],[-107.71959,38.57004],[-107.71712,38.56992]]]},"properties":{"cell":"89269dc8acfffff","res":9,"coarsened":false,"count":1,"hv":1,"mp":0,"y0":2023,"y1":2023,"sp":[[50,1,1,0,2023,2023]]}},{"type":"Feature","geometry":{"type":"Polygon","coordinates":[[[-107.70208,38.57244],[-107.70072,38.574],[-107.70182,38.57567],[-107.70428,38.57579],[-107.70565,38.57424],[-107.70455,38.57256],[-107.70208,38.57244]]]},"properties":{"cell":"89269dc8a87ffff","res":9,"coarsened":false,"count":3,"hv":3,"mp":0,"y0":2023,"y1":2024,"sp":[[37,2,2,0,2023,2023],[8,1,1,0,2024,2024]]}},{"type":"Feature","geometry":{"type":"Polygon","coordinates":[[[-107.73164,38.57387],[-107.73028,38.57542],[-107.73138,38.5771],[-107.73384,38.57722],[-107.7352,38.57566],[-107.7341,38.57398],[-107.73164,38.57387]]]},"properties":{"cell":"89269dc9d3bffff","res":9,"coarsened":false,"count":1,"hv":1,"mp":0,"y0":2023,"y1":2023,"sp":[[16,1,1,0,2023,2023]]}},{"type":"Feature","geometry":{"type":"Polygon","coordinates":[[[-107.68783,38.56526],[-107.68647,38.56681],[-107.68757,38.56849],[-107.69003,38.56861],[-107.6914,38.56705],[-107.6903,38.56538],[-107.68783,38.56526]]]},"properties":{"cell":"89269dc886fffff","res":9,"coarsened":false,"count":1,"hv":1,"mp":0,"y0":2023,"y1":2023,"sp":[[24,1,1,0,2023,2023]]}},{"type":"Feature","geometry":{"type":"Polygon","coordinates":[[[-107.70644,38.56453],[-107.70507,38.56609],[-107.70617,38.56777],[-107.70864,38.56789],[-107.71,38.56633],[-107.7089,38.56465],[-107.70644,38.56453]]]},"properties":{"cell":"89269dc8a07ffff","res":9,"coarsened":false,"count":1,"hv":1,"mp":0,"y0":2023,"y1":2023,"sp":[[36,1,1,0,2023,2023]]}},{"type":"Feature","geometry":{"type":"Polygon","coordinates":[[[-107.67359,38.55807],[-107.67222,38.55963],[-107.67332,38.5613],[-107.67579,38.56142],[-107.67715,38.55987],[-107.67605,38.55819],[-107.67359,38.55807]]]},"properties":{"cell":"89269dc8bb3ffff","res":9,"coarsened":false,"count":1,"hv":1,"mp":0,"y0":2023,"y1":2023,"sp":[[4,1,1,0,2023,2023]]}},{"type":"Feature","geometry":{"type":"Polygon","coordinates":[[[-107.68454,38.56022],[-107.68317,38.56178],[-107.68427,38.56346],[-107.68674,38.56358],[-107.6881,38.56202],[-107.687,38.56034],[-107.68454,38.56022]]]},"properties":{"cell":"89269dc8b8bffff","res":9,"coarsened":false,"count":1,"hv":1,"mp":0,"y0":2022,"y1":2022,"sp":[[0,1,1,0,2022,2022]]}},{"type":"Feature","geometry":{"type":"Polygon","coordinates":[[[-107.70974,38.56956],[-107.70837,38.57112],[-107.70947,38.5728],[-107.71194,38.57292],[-107.7133,38.57136],[-107.7122,38.56968],[-107.70974,38.56956]]]},"properties":{"cell":"89269dc8a13ffff","res":9,"coarsened":false,"count":3,"hv":3,"mp":0,"y0":2024,"y1":2026,"sp":[[3,1,1,0,2024,2024],[36,1,1,0,2024,2024],[47,1,1,0,2026,2026]]}},{"type":"Feature","geometry":{"type":"Polygon","coordinates":[[[-107.74311,38.56955],[-107.74175,38.57111],[-107.74285,38.57278],[-107.74531,38.5729],[-107.74668,38.57134],[-107.74558,38.56967],[-107.74311,38.56955]]]},"properties":{"cell":"89269dc9d6bffff","res":9,"coarsened":false,"count":1,"hv":1,"mp":0,"y0":2024,"y1":2024,"sp":[[9,1,1,0,2024,2024]]}},{"type":"Feature","geometry":{"type":"Polygon","coordinates":[[[-107.70895,38.57927],[-107.70758,38.58082],[-107.70868,38.5825],[-107.71115,38.58262],[-107.71251,38.58106],[-107.71141,38.57939],[-107.70895,38.57927]]]},"properties":{"cell":"89269dc8e67ffff","res":9,"coarsened":false,"count":1,"hv":1,"mp":0,"y0":2024,"y1":2024,"sp":[[6,1,1,0,2024,2024]]}},{"type":"Feature","geometry":{"type":"Polygon","coordinates":[[[-107.6815,38.55196],[-107.68014,38.55352],[-107.68124,38.55519],[-107.6837,38.55531],[-107.68506,38.55375],[-107.68396,38.55208],[-107.6815,38.55196]]]},"properties":{"cell":"89269dc8b07ffff","res":9,"coarsened":false,"count":1,"hv":1,"mp":0,"y0":2024,"y1":2024,"sp":[[16,1,1,0,2024,2024]]}},{"type":"Feature","geometry":{"type":"Polygon","coordinates":[[[-107.67438,38.54836],[-107.67302,38.54992],[-107.67412,38.5516],[-107.67658,38.55172],[-107.67794,38.55016],[-107.67684,38.54848],[-107.67438,38.54836]]]},"properties":{"cell":"89269dc8b37ffff","res":9,"coarsened":false,"count":1,"hv":1,"mp":0,"y0":2024,"y1":2024,"sp":[[36,1,1,0,2024,2024]]}},{"type":"Feature","geometry":{"type":"Polygon","coordinates":[[[-107.69522,38.56561],[-107.69386,38.56717],[-107.69496,38.56885],[-107.69742,38.56897],[-107.69878,38.56741],[-107.69769,38.56573],[-107.69522,38.56561]]]},"properties":{"cell":"89269dc8aa7ffff","res":9,"coarsened":false,"count":1,"hv":1,"mp":0,"y0":2024,"y1":2024,"sp":[[19,1,1,0,2024,2024]]}},{"type":"Feature","geometry":{"type":"Polygon","coordinates":[[[-107.73033,38.59004],[-107.72896,38.5916],[-107.73006,38.59327],[-107.73253,38.59339],[-107.73389,38.59183],[-107.73279,38.59016],[-107.73033,38.59004]]]},"properties":{"cell":"89269dc9d93ffff","res":9,"coarsened":false,"count":2,"hv":2,"mp":0,"y0":2011,"y1":2024,"sp":[[10,1,1,0,2024,2024],[13,1,1,0,2011,2011]]}},{"type":"Feature","geometry":{"type":"Polygon","coordinates":[[[-107.65763,38.52644],[-107.65627,38.52799],[-107.65737,38.52967],[-107.65983,38.52979],[-107.66119,38.52823],[-107.66009,38.52656],[-107.65763,38.52644]]]},"properties":{"cell":"89269dcd283ffff","res":9,"coarsened":false,"count":2,"hv":2,"mp":0,"y0":2024,"y1":2024,"sp":[[29,1,1,0,2024,2024],[0,1,1,0,2024,2024]]}},{"type":"Feature","geometry":{"type":"Polygon","coordinates":[[[-107.6724,38.52716],[-107.67104,38.52871],[-107.67214,38.53039],[-107.6746,38.53051],[-107.67596,38.52895],[-107.67486,38.52727],[-107.6724,38.52716]]]},"properties":{"cell":"89269dcd2dbffff","res":9,"coarsened":false,"count":1,"hv":1,"mp":0,"y0":2024,"y1":2024,"sp":[[3,1,1,0,2024,2024]]}},{"type":"Feature","geometry":{"type":"Polygon","coordinates":[[[-107.70129,38.58214],[-107.69993,38.5837],[-107.70103,38.58538],[-107.70349,38.5855],[-107.70486,38.58394],[-107.70376,38.58226],[-107.70129,38.58214]]]},"properties":{"cell":"89269dc8e23ffff","res":9,"coarsened":false,"count":1,"hv":1,"mp":0,"y0":2024,"y1":2024,"sp":[[29,1,1,0,2024,2024]]}},{"type":"Feature","geometry":{"type":"Polygon","coordinates":[[[-107.66858,38.52859],[-107.66722,38.53015],[-107.66831,38.53183],[-107.67078,38.53195],[-107.67214,38.53039],[-107.67104,38.52871],[-107.66858,38.52859]]]},"properties":{"cell":"89269dcd2d3ffff","res":9,"coarsened":false,"count":1,"hv":1,"mp":0,"y0":2024,"y1":2024,"sp":[[29,1,1,0,2024,2024]]}},{"type":"Feature","geometry":{"type":"Polygon","coordinates":[[[-107.71277,38.57783],[-107.71141,38.57939],[-107.71251,38.58106],[-107.71497,38.58118],[-107.71634,38.57962],[-107.71524,38.57795],[-107.71277,38.57783]]]},"properties":{"cell":"89269dc8e6fffff","res":9,"coarsened":false,"count":2,"hv":2,"mp":0,"y0":2023,"y1":2025,"sp":[[2,1,1,0,2023,2023],[47,1,1,0,2025,2025]]}},{"type":"Feature","geometry":{"type":"Polygon","coordinates":[[[-107.73415,38.5886],[-107.73279,38.59016],[-107.73389,38.59183],[-107.73635,38.59195],[-107.73772,38.59039],[-107.73662,38.58872],[-107.73415,38.5886]]]},"properties":{"cell":"89269dc9d9bffff","res":9,"coarsened":false,"count":1,"hv":1,"mp":0,"y0":2024,"y1":2024,"sp":[[36,1,1,0,2024,2024]]}},{"type":"Feature","geometry":{"type":"Polygon","coordinates":[[[-107.70842,38.58573],[-107.70706,38.58729],[-107.70816,38.58897],[-107.71062,38.58909],[-107.71198,38.58753],[-107.71088,38.58585],[-107.70842,38.58573]]]},"properties":{"cell":"89269dc8e0fffff","res":9,"coarsened":false,"count":1,"hv":1,"mp":0,"y0":2024,"y1":2024,"sp":[[10,1,1,0,2024,2024]]}},{"type":"Feature","geometry":{"type":"Polygon","coordinates":[[[-107.66264,38.55591],[-107.66128,38.55747],[-107.66237,38.55915],[-107.66484,38.55927],[-107.6662,38.55771],[-107.6651,38.55603],[-107.66264,38.55591]]]},"properties":{"cell":"89269dc8963ffff","res":9,"coarsened":false,"count":2,"hv":2,"mp":0,"y0":2024,"y1":2024,"sp":[[74,1,1,0,2024,2024],[4,1,1,0,2024,2024]]}},{"type":"Feature","geometry":{"type":"Polygon","coordinates":[[[-107.66646,38.55447],[-107.6651,38.55603],[-107.6662,38.55771],[-107.66866,38.55783],[-107.67003,38.55627],[-107.66893,38.55459],[-107.66646,38.55447]]]},"properties":{"cell":"89269dc896bffff","res":9,"coarsened":false,"count":1,"hv":1,"mp":0,"y0":2024,"y1":2024,"sp":[[4,1,1,0,2024,2024]]}},{"type":"Feature","geometry":{"type":"Polygon","coordinates":[[[-107.67794,38.55016],[-107.67658,38.55172],[-107.67768,38.5534],[-107.68014,38.55352],[-107.6815,38.55196],[-107.6804,38.55028],[-107.67794,38.55016]]]},"properties":{"cell":"89269dc8b33ffff","res":9,"coarsened":false,"count":1,"hv":1,"mp":0,"y0":2024,"y1":2024,"sp":[[16,1,1,0,2024,2024]]}},{"type":"Feature","geometry":{"type":"Polygon","coordinates":[[[-107.74642,38.57458],[-107.74505,38.57613],[-107.74615,38.57781],[-107.74862,38.57793],[-107.74998,38.57637],[-107.74888,38.57469],[-107.74642,38.57458]]]},"properties":{"cell":"89269dc9d4fffff","res":9,"coarsened":false,"count":1,"hv":1,"mp":0,"y0":2017,"y1":2017,"sp":[[1,1,1,0,2017,2017]]}},{"type":"Feature","geometry":{"type":"Polygon","coordinates":[[[-107.69061,38.57676],[-107.68924,38.57831],[-107.69034,38.57999],[-107.69281,38.58011],[-107.69417,38.57855],[-107.69307,38.57687],[-107.69061,38.57676]]]},"properties":{"cell":"89269dc8857ffff","res":9,"coarsened":false,"count":1,"hv":1,"mp":0,"y0":2024,"y1":2024,"sp":[[48,1,1,0,2024,2024]]}},{"type":"Feature","geometry":{"type":"Polygon","coordinates":[[[-107.7034,38.55627],[-107.70204,38.55783],[-107.70314,38.5595],[-107.7056,38.55962],[-107.70696,38.55806],[-107.70586,38.55639],[-107.7034,38.55627]]]},"properties":{"cell":"89269dc8a2fffff","res":9,"coarsened":false,"count":1,"hv":1,"mp":0,"y0":2025,"y1":2025,"sp":[[4,1,1,0,2025,2025]]}},{"type":"Feature","geometry":{"type":"Polygon","coordinates":[[[-107.71225,38.5843],[-107.71088,38.58585],[-107.71198,38.58753],[-107.71445,38.58765],[-107.71581,38.58609],[-107.71471,38.58441],[-107.71225,38.5843]]]},"properties":{"cell":"89269dc8e73ffff","res":9,"coarsened":false,"count":1,"hv":1,"mp":0,"y0":2024,"y1":2024,"sp":[[92,1,1,0,2024,2024]]}},{"type":"Feature","geometry":{"type":"Polygon","coordinates":[[[-107.70182,38.57567],[-107.70046,38.57723],[-107.70156,38.57891],[-107.70402,38.57903],[-107.70538,38.57747],[-107.70428,38.57579],[-107.70182,38.57567]]]},"properties":{"cell":"89269dc8a97ffff","res":9,"coarsened":false,"count":2,"hv":2,"mp":0,"y0":2022,"y1":2025,"sp":[[1,1,1,0,2025,2025],[36,1,1,0,2022,2022]]}},{"type":"Feature","geometry":{"type":"Polygon","coordinates":[[[-107.72372,38.57998],[-107.72236,38.58154],[-107.72346,38.58321],[-107.72592,38.58333],[-107.72729,38.58177],[-107.72619,38.5801],[-107.72372,38.57998]]]},"properties":{"cell":"89269dc9da3ffff","res":9,"coarsened":false,"count":3,"hv":3,"mp":0,"y0":2025,"y1":2025,"sp":[[13,1,1,0,2025,2025],[10,1,1,0,2025,2025],[9,1,1,0,2025,2025]]}},{"type":"Feature","geometry":{"type":"Polygon","coordinates":[[[-107.73085,38.58357],[-107.72949,38.58513],[-107.73059,38.5868],[-107.73305,38.58692],[-107.73441,38.58536],[-107.73331,38.58369],[-107.73085,38.58357]]]},"properties":{"cell":"89269dc9d8fffff","res":9,"coarsened":false,"count":1,"hv":1,"mp":0,"y0":2025,"y1":2025,"sp":[[14,1,1,0,2025,2025]]}},{"type":"Feature","geometry":{"type":"Polygon","coordinates":[[[-107.7199,38.58142],[-107.71854,38.58298],[-107.71964,38.58465],[-107.7221,38.58477],[-107.72346,38.58321],[-107.72236,38.58154],[-107.7199,38.58142]]]},"properties":{"cell":"89269dc9db7ffff","res":9,"coarsened":false,"count":2,"hv":2,"mp":0,"y0":2025,"y1":2025,"sp":[[1,1,1,0,2025,2025],[46,1,1,0,2025,2025]]}},{"type":"Feature","geometry":{"type":"Polygon","coordinates":[[[-107.68111,38.60227],[-107.67974,38.60383],[-107.68084,38.6055],[-107.68331,38.60562],[-107.68467,38.60406],[-107.68357,38.60239],[-107.68111,38.60227]]]},"properties":{"cell":"89269dc8c13ffff","res":9,"coarsened":false,"count":1,"hv":1,"mp":0,"y0":2025,"y1":2025,"sp":[[29,1,1,0,2025,2025]]}},{"type":"Feature","geometry":{"type":"Polygon","coordinates":[[[-107.69733,38.53973],[-107.69597,38.54129],[-107.69707,38.54297],[-107.69953,38.54309],[-107.70089,38.54153],[-107.69979,38.53985],[-107.69733,38.53973]]]},"properties":{"cell":"89269d525dbffff","res":9,"coarsened":false,"count":1,"hv":1,"mp":0,"y0":2025,"y1":2025,"sp":[[15,1,1,0,2025,2025]]}},{"type":"Feature","geometry":{"type":"Polygon","coordinates":[[[-107.71739,38.56669],[-107.71602,38.56824],[-107.71712,38.56992],[-107.71959,38.57004],[-107.72095,38.56848],[-107.71985,38.5668],[-107.71739,38.56669]]]},"properties":{"cell":"89269dc8a57ffff","res":9,"coarsened":false,"count":2,"hv":2,"mp":0,"y0":2025,"y1":2025,"sp":[[32,1,1,0,2025,2025],[6,1,1,0,2025,2025]]}},{"type":"Feature","geometry":{"type":"Polygon","coordinates":[[[-107.73006,38.59327],[-107.7287,38.59483],[-107.7298,38.59651],[-107.73226,38.59662],[-107.73363,38.59507],[-107.73253,38.59339],[-107.73006,38.59327]]]},"properties":{"cell":"89269dc832bffff","res":9,"coarsened":false,"count":1,"hv":1,"mp":0,"y0":2011,"y1":2011,"sp":[[3,1,1,0,2011,2011]]}},{"type":"Feature","geometry":{"type":"Polygon","coordinates":[[[-107.7838,38.61694],[-107.78243,38.6185],[-107.78353,38.62018],[-107.786,38.62029],[-107.78736,38.61874],[-107.78626,38.61706],[-107.7838,38.61694]]]},"properties":{"cell":"89269dc9567ffff","res":9,"coarsened":false,"count":1,"hv":1,"mp":0,"y0":2024,"y1":2024,"sp":[[47,1,1,0,2024,2024]]}},{"type":"Feature","geometry":{"type":"Polygon","coordinates":[[[-107.72755,38.57854],[-107.72619,38.5801],[-107.72729,38.58177],[-107.72975,38.58189],[-107.73111,38.58034],[-107.73001,38.57866],[-107.72755,38.57854]]]},"properties":{"cell":"89269dc9dabffff","res":9,"coarsened":false,"count":1,"hv":1,"mp":0,"y0":2024,"y1":2024,"sp":[[9,1,1,0,2024,2024]]}},{"type":"Feature","geometry":{"type":"Polygon","coordinates":[[[-107.70287,38.56274],[-107.70151,38.56429],[-107.70261,38.56597],[-107.70507,38.56609],[-107.70644,38.56453],[-107.70534,38.56286],[-107.70287,38.56274]]]},"properties":{"cell":"89269dc8a33ffff","res":9,"coarsened":false,"count":1,"hv":1,"mp":0,"y0":2026,"y1":2026,"sp":[[29,1,1,0,2026,2026]]}},{"type":"Feature","geometry":{"type":"Polygon","coordinates":[[[-107.70314,38.5595],[-107.70177,38.56106],[-107.70287,38.56274],[-107.70534,38.56286],[-107.7067,38.5613],[-107.7056,38.55962],[-107.70314,38.5595]]]},"properties":{"cell":"89269dc8a23ffff","res":9,"coarsened":false,"count":1,"hv":1,"mp":0,"y0":2026,"y1":2026,"sp":[[47,1,1,0,2026,2026]]}},{"type":"Feature","geometry":{"type":"Polygon","coordinates":[[[-107.82458,38.61726],[-107.82322,38.61882],[-107.82432,38.62049],[-107.82679,38.62061],[-107.82815,38.61905],[-107.82705,38.61737],[-107.82458,38.61726]]]},"properties":{"cell":"89269dc905bffff","res":9,"coarsened":false,"count":1,"hv":1,"mp":0,"y0":2026,"y1":2026,"sp":[[6,1,1,0,2026,2026]]}},{"type":"Feature","geometry":{"type":"Polygon","coordinates":[[[-107.82102,38.61547],[-107.81965,38.61702],[-107.82076,38.6187],[-107.82322,38.61882],[-107.82458,38.61726],[-107.82348,38.61558],[-107.82102,38.61547]]]},"properties":{"cell":"89269dc9043ffff","res":9,"coarsened":false,"count":1,"hv":1,"mp":0,"y0":2026,"y1":2026,"sp":[[53,1,1,0,2026,2026]]}},{"type":"Feature","geometry":{"type":"Polygon","coordinates":[[[-107.81719,38.61691],[-107.81583,38.61847],[-107.81693,38.62014],[-107.81939,38.62026],[-107.82076,38.6187],[-107.81965,38.61702],[-107.81719,38.61691]]]},"properties":{"cell":"89269dc9057ffff","res":9,"coarsened":false,"count":1,"hv":1,"mp":0,"y0":2026,"y1":2026,"sp":[[61,1,1,0,2026,2026]]}},{"type":"Feature","geometry":{"type":"Polygon","coordinates":[[[-107.71198,38.58753],[-107.71062,38.58909],[-107.71172,38.59076],[-107.71418,38.59088],[-107.71555,38.58933],[-107.71445,38.58765],[-107.71198,38.58753]]]},"properties":{"cell":"89269dc8e0bffff","res":9,"coarsened":false,"count":1,"hv":1,"mp":0,"y0":2026,"y1":2026,"sp":[[4,1,1,0,2026,2026]]}},{"type":"Feature","geometry":{"type":"Polygon","coordinates":[[[-107.76031,38.63205],[-107.75895,38.63361],[-107.76005,38.63528],[-107.76252,38.6354],[-107.76388,38.63384],[-107.76278,38.63217],[-107.76031,38.63205]]]},"properties":{"cell":"89269dc8673ffff","res":9,"coarsened":false,"count":2,"hv":2,"mp":0,"y0":2012,"y1":2023,"sp":[[97,1,1,0,2023,2023],[115,1,1,0,2012,2012]]}},{"type":"Feature","geometry":{"type":"Polygon","coordinates":[[[-107.69826,38.57388],[-107.6969,38.57544],[-107.69799,38.57711],[-107.70046,38.57723],[-107.70182,38.57567],[-107.70072,38.574],[-107.69826,38.57388]]]},"properties":{"cell":"89269dc884bffff","res":9,"coarsened":false,"count":1,"hv":1,"mp":0,"y0":2022,"y1":2022,"sp":[[6,1,1,0,2022,2022]]}},{"type":"Feature","geometry":{"type":"Polygon","coordinates":[[[-107.71525,38.50162],[-107.71389,38.50318],[-107.71499,38.50485],[-107.71745,38.50497],[-107.71881,38.50341],[-107.71772,38.50174],[-107.71525,38.50162]]]},"properties":{"cell":"89269d52313ffff","res":9,"coarsened":false,"count":1,"hv":1,"mp":0,"y0":2025,"y1":2025,"sp":[[11,1,1,0,2025,2025]]}},{"type":"Feature","geometry":{"type":"Polygon","coordinates":[[[-107.6546,38.51817],[-107.65324,38.51972],[-107.65434,38.5214],[-107.6568,38.52152],[-107.65816,38.51996],[-107.65706,38.51829],[-107.6546,38.51817]]]},"properties":{"cell":"89269dcd2abffff","res":9,"coarsened":false,"count":1,"hv":1,"mp":0,"y0":2025,"y1":2025,"sp":[[21,1,1,0,2025,2025]]}},{"type":"Feature","geometry":{"type":"Polygon","coordinates":[[[-107.75642,38.54258],[-107.75506,38.54414],[-107.75616,38.54582],[-107.75862,38.54593],[-107.75998,38.54438],[-107.75888,38.5427],[-107.75642,38.54258]]]},"properties":{"cell":"89269dc9b33ffff","res":9,"coarsened":false,"count":44,"hv":44,"mp":0,"y0":2023,"y1":2023,"sp":[[46,3,3,0,2023,2023],[36,2,2,0,2023,2023],[23,2,2,0,2023,2023],[110,2,2,0,2023,2023],[16,1,1,0,2023,2023],[99,1,1,0,2023,2023],[100,1,1,0,2023,2023],[101,1,1,0,2023,2023],[55,1,1,0,2023,2023],[70,1,1,0,2023,2023],[50,1,1,0,2023,2023],[102,1,1,0,2023,2023],[103,1,1,0,2023,2023],[5,1,1,0,2023,2023],[104,1,1,0,2023,2023],[38,1,1,0,2023,2023],[105,1,1,0,2023,2023],[85,1,1,0,2023,2023],[79,1,1,0,2023,2023],[106,1,1,0,2023,2023],[2,1,1,0,2023,2023],[107,1,1,0,2023,2023],[13,1,1,0,2023,2023],[108,1,1,0,2023,2023],[78,1,1,0,2023,2023],[4,1,1,0,2023,2023],[109,1,1,0,2023,2023],[111,1,1,0,2023,2023],[10,1,1,0,2023,2023],[30,1,1,0,2023,2023],[112,1,1,0,2023,2023],[45,1,1,0,2023,2023],[40,1,1,0,2023,2023],[65,1,1,0,2023,2023],[113,1,1,0,2023,2023],[81,1,1,0,2023,2023],[11,1,1,0,2023,2023],[14,1,1,0,2023,2023],[76,1,1,0,2023,2023]]}},{"type":"Feature","geometry":{"type":"Polygon","coordinates":[[[-107.64695,38.52104],[-107.64559,38.5226],[-107.64669,38.52428],[-107.64915,38.5244],[-107.65051,38.52284],[-107.64941,38.52116],[-107.64695,38.52104]]]},"properties":{"cell":"89269dcd2b7ffff","res":9,"coarsened":false,"count":1,"hv":1,"mp":0,"y0":2022,"y1":2022,"sp":[[13,1,1,0,2022,2022]]}},{"type":"Feature","geometry":{"type":"Polygon","coordinates":[[[-107.68929,38.59293],[-107.68792,38.59448],[-107.68902,38.59616],[-107.69149,38.59628],[-107.69285,38.59472],[-107.69175,38.59304],[-107.68929,38.59293]]]},"properties":{"cell":"89269dc8c7bffff","res":9,"coarsened":false,"count":1,"hv":1,"mp":0,"y0":2019,"y1":2019,"sp":[[70,1,1,0,2019,2019]]}},{"type":"Feature","geometry":{"type":"Polygon","coordinates":[[[-107.72567,38.51024],[-107.72431,38.5118],[-107.72541,38.51348],[-107.72787,38.5136],[-107.72923,38.51204],[-107.72813,38.51036],[-107.72567,38.51024]]]},"properties":{"cell":"89269d522a7ffff","res":9,"coarsened":false,"count":3,"hv":3,"mp":0,"y0":2018,"y1":2018,"sp":[[11,2,2,0,2018,2018],[70,1,1,0,2018,2018]]}}],"park":"black_canyon_of_the_gunnison","h3_res":9,"species_index":[{"n":"Odocoileus hemionus","c":"Mule Deer","k":"Mammalia"},{"n":"Callospermophilus lateralis","c":"Common Golden-mantled Ground Squirrel","k":"Mammalia"},{"n":"Buteo jamaicensis","c":"Red-tailed Hawk","k":"Aves"},{"n":"Dendragapus obscurus","c":"Dusky Grouse","k":"Aves"},{"n":"Aphelocoma woodhouseii","c":"Woodhouse's Scrub-Jay","k":"Aves"},{"n":"Poecile atricapillus","c":"Black-capped Chickadee","k":"Aves"},{"n":"Otospermophilus variegatus","c":"Rock Squirrel","k":"Mammalia"},{"n":"Troglodytes aedon","c":"Northern House Wren","k":"Aves"},{"n":"Setophaga aestiva","c":"Northern Yellow Warbler","k":"Aves"},{"n":"Pipilo chlorurus","c":"Green-tailed Towhee","k":"Aves"},{"n":"Spizella passerina","c":"Chipping Sparrow","k":"Aves"},{"n":"Sialia currucoides","c":"Mountain Bluebird","k":"Aves"},{"n":"Polioptila caerulea","c":"Blue-gray Gnatcatcher","k":"Aves"},{"n":"Pipilo maculatus","c":"Spotted Towhee","k":"Aves"},{"n":"Turdus migratorius","c":"American Robin","k":"Aves"},{"n":"Vireo swainsoni","c":"Western Warbling Vireo","k":"Aves"},{"n":"Cathartes aura","c":"Turkey Vulture","k":"Aves"},{"n":"Haliaeetus leucocephalus","c":"Bald Eagle","k":"Aves"},{"n":"Selasphorus platycercus","c":"Broad-tailed Hummingbird","k":"Aves"},{"n":"Falco peregrinus","c":"Peregrine Falcon","k":"Aves"},{"n":"Molothrus ater","c":"Brown-headed Cowbird","k":"Aves"},{"n":"Leiothlypis virginiae","c":"Virginia's Warbler","k":"Aves"},{"n":"Sylvilagus nuttallii","c":"Mountain Cottontail","k":"Mammalia"},{"n":"Junco hyemalis","c":"Gray-headed Junco","k":"Aves"},{"n":"Astur cooperii","c":"Cooper's Hawk","k":"Aves"},{"n":"Ammospermophilus leucurus","c":"White-tailed Antelope Squirrel","k":"Mammalia"},{"n":"Canis latrans","c":"Coyote","k":"Mammalia"},{"n":"Neotamias minimus","c":"Least Chipmunk","k":"Mammalia"},{"n":"Baeolophus ridgwayi","c":"Juniper Titmouse","k":"Aves"},{"n":"Ursus americanus","c":"American Black Bear","k":"Mammalia"},{"n":"Poecile gambeli","c":"Mountain Chickadee","k":"Aves"},{"n":"Catharus guttatus","c":"Hermit Thrush","k":"Aves"},{"n":"Piranga ludoviciana","c":"Western Tanager","k":"Aves"},{"n":"Meleagris gallopavo","c":"Wild Turkey","k":"Aves"},{"n":"Empidonax oberholseri","c":"Dusky Flycatcher","k":"Aves"},{"n":"Archilochus alexandri","c":"Black-chinned Hummingbird","k":"Aves"},{"n":"Corvus corax","c":"Common Raven","k":"Aves"},{"n":"Tachycineta thalassina","c":"Violet-green Swallow","k":"Aves"},{"n":"Sitta carolinensis","c":"White-breasted Nuthatch","k":"Aves"},{"n":"Alces alces","c":"Moose","k":"Mammalia"},{"n":"Haemorhous cassinii","c":"Cassin's Finch","k":"Aves"},{"n":"Pheucticus melanocephalus","c":"Black-headed Grosbeak","k":"Aves"},{"n":"Setophaga nigrescens","c":"Black-throated Gray Warbler","k":"Aves"},{"n":"Dumetella carolinensis","c":"Gray Catbird","k":"Aves"},{"n":"Salpinctes obsoletus","c":"Rock Wren","k":"Aves"},{"n":"Cyanocitta stelleri","c":"Steller's Jay","k":"Aves"},{"n":"Colaptes auratus","c":"Northern Flicker","k":"Aves"},{"n":"Ovis canadensis","c":"Bighorn Sheep","k":"Mammalia"},{"n":"Sylvilagus audubonii","c":"Desert Cottontail","k":"Mammalia"},{"n":"Aeronautes saxatalis","c":"White-throated Swift","k":"Aves"},{"n":"Nucifraga columbiana","c":"Clark's Nutcracker","k":"Aves"},{"n":"Contopus cooperi","c":"Olive-sided Flycatcher","k":"Aves"},{"n":"Cardellina pusilla","c":"Wilson's Warbler","k":"Aves"},{"n":"Cinclus mexicanus","c":"American Dipper","k":"Aves"},{"n":"Puma concolor","c":"Mountain Lion","k":"Mammalia"},{"n":"Pica hudsonia","c":"Black-billed Magpie","k":"Aves"},{"n":"Corvus","c":"Crows and Ravens","k":"Aves"},{"n":"Myadestes townsendi","c":"Townsend's Solitaire","k":"Aves"},{"n":"Vireo plumbeus","c":"Plumbeous Vireo","k":"Aves"},{"n":"Mustela richardsonii","c":"American Ermine","k":"Mammalia"},{"n":"Leucosticte atrata","c":"Black Rosy-Finch","k":"Aves"},{"n":"Catherpes mexicanus","c":"Canyon Wren","k":"Aves"},{"n":"Aegolius funereus","c":"Boreal Owl","k":"Aves"},{"n":"Perisoreus canadensis","c":"Canada Jay","k":"Aves"},{"n":"Pinicola enucleator","c":"Pine Grosbeak","k":"Aves"},{"n":"Aquila chrysaetos","c":"Golden Eagle","k":"Aves"},{"n":"Psaltriparus minimus","c":"Bushtit","k":"Aves"},{"n":"Leuconotopicus villosus","c":"Hairy Woodpecker","k":"Aves"},{"n":"Neotamias rufus","c":"Hopi Chipmunk","k":"Mammalia"},{"n":"Lynx rufus","c":"Bobcat","k":"Mammalia"},{"n":"Falco sparverius","c":"American Kestrel","k":"Aves"},{"n":"Hesperiphona vespertina","c":"Evening Grosbeak","k":"Aves"},{"n":"Leiothlypis celata","c":"Orange-crowned Warbler","k":"Aves"},{"n":"Contopus sordidulus","c":"Western Wood-Pewee","k":"Aves"},{"n":"Spizella breweri","c":"Brewer's Sparrow","k":"Aves"},{"n":"Empidonax wrightii","c":"Gray Flycatcher","k":"Aves"},{"n":"Sayornis saya","c":"Say's Phoebe","k":"Aves"},{"n":"Vireo vicinior","c":"Gray Vireo","k":"Aves"},{"n":"Picoides dorsalis","c":"American Three-toed Woodpecker","k":"Aves"},{"n":"Sitta canadensis","c":"Red-breasted Nuthatch","k":"Aves"},{"n":"Empidonax hammondii","c":"Hammond's Flycatcher","k":"Aves"},{"n":"Dryobates pubescens","c":"Downy Woodpecker","k":"Aves"},{"n":"Neotamias quadrivittatus","c":"Colorado Chipmunk","k":"Mammalia"},{"n":"Cervus canadensis","c":"Wapiti","k":"Mammalia"},{"n":"Cynomys leucurus","c":"White-tailed Prairie Dog","k":"Mammalia"},{"n":"Sialia mexicana","c":"Western Bluebird","k":"Aves"},{"n":"Neogale frenata","c":"Long-tailed Weasel","k":"Mammalia"},{"n":"Pandion haliaetus","c":"Osprey","k":"Aves"},{"n":"Leiothlypis ruficapilla","c":"Nashville Warbler","k":"Aves"},{"n":"Oreoscoptes montanus","c":"Sage Thrasher","k":"Aves"},{"n":"Tamiasciurus fremonti","c":"Fremont's Squirrel","k":"Mammalia"},{"n":"Passerella iliaca","c":"Fox Sparrow","k":"Aves"},{"n":"Aegolius acadicus","c":"Northern Saw-whet Owl","k":"Aves"},{"n":"Branta canadensis","c":"Canada Goose","k":"Aves"},{"n":"Corthylio calendula","c":"Ruby-crowned Kinglet","k":"Aves"},{"n":"Buteo platypterus","c":"Broad-winged Hawk","k":"Aves"},{"n":"Cynomys gunnisoni","c":"Gunnison's Prairie Dog","k":"Mammalia"},{"n":"Euderma maculatum","c":"Spotted Bat","k":"Mammalia"},{"n":"Passerella schistacea","c":"Slate-colored Fox Sparrow","k":"Aves"},{"n":"Regulus calendula","c":"Ruby-crowned Kinglet","k":"Aves"},{"n":"Melospiza lincolnii","c":"Lincoln's Sparrow","k":"Aves"},{"n":"Sturnus vulgaris","c":"Common Starling","k":"Aves"},{"n":"Zenaida macroura","c":"Mourning Dove","k":"Aves"},{"n":"Accipiter cooperii","c":"Cooper's Hawk","k":"Aves"},{"n":"Haemorhous mexicanus","c":"House Finch","k":"Aves"},{"n":"Passer domesticus","c":"House Sparrow","k":"Aves"},{"n":"Sturnella neglecta","c":"Western Meadowlark","k":"Aves"},{"n":"Spinus psaltria","c":"Lesser Goldfinch","k":"Aves"},{"n":"Agelaius phoeniceus","c":"Red-winged Blackbird","k":"Aves"},{"n":"Bombycilla cedrorum","c":"Cedar Waxwing","k":"Aves"},{"n":"Spinus pinus","c":"Pine Siskin","k":"Aves"},{"n":"Gymnorhinus cyanocephalus","c":"Pinyon Jay","k":"Aves"},{"n":"Corvus brachyrhynchos","c":"American Crow","k":"Aves"},{"n":"Setophaga coronata","c":"Myrtle Warbler","k":"Aves"},{"n":"Circus cyaneus","c":"Northern Harrier","k":"Aves"},{"n":"Centrocercus minimus","c":"Gunnison Grouse","k":"Aves"}],"entry":["species_index","count","human_verified","model_predicted","first_year","last_year"],"suppressed":{"excluded":{},"coarsened":{"Haliaeetus leucocephalus":2,"Puma concolor":1}},"merged_names":{"Odocoileus hemionus hemionus":"Odocoileus hemionus","Junco hyemalis caniceps":"Junco hyemalis","Vireo swainsoni brewsteri":"Vireo swainsoni","Callospermophilus lateralis lateralis":"Callospermophilus lateralis","Meleagris gallopavo merriami":"Meleagris gallopavo","Passerella iliaca schistacea":"Passerella iliaca","Ovis canadensis canadensis":"Ovis canadensis","Ursus americanus cinnamomum":"Ursus americanus","Colaptes auratus cafer":"Colaptes auratus","Polioptila caerulea amoenissima":"Polioptila caerulea","Pipilo maculatus montanus":"Pipilo maculatus","Sayornis saya saya":"Sayornis saya"}}