{"type":"Feature","geometry":{"type":"Polygon","coordinates":[[[-124.0183,41.4454],[-124.0197,41.4345],[-124.0163,41.4302],[-123.996,41.4226],[-123.9961,41.4178],[-124.0009,41.4137],[-124.0008,41.4086],[-123.9923,41.4016],[-123.9926,41.3926],[-123.9945,41.3918],[-123.9934,41.3904],[-123.9946,41.3858],[-123.9899,41.3765],[-123.9827,41.3731],[-123.9803,41.3692],[-123.9784,41.3635],[-123.98,41.3614],[-123.9802,41.3563],[-123.9675,41.3519],[-123.9689,41.3509],[-123.9666,41.3476],[-123.969,41.345],[-123.9656,41.342],[-123.9657,41.3352],[-123.9605,41.3348],[-123.9551,41.3285],[-123.9484,41.3289],[-123.9495,41.3167],[-123.9623,41.3074],[-123.9614,41.302],[-123.9662,41.2971],[-123.965,41.2917],[-123.9674,41.2861],[-123.9768,41.2755],[-123.9855,41.2729],[-123.9855,41.2701],[-123.9877,41.2691],[-123.9873,41.2612],[-123.9893,41.2582],[-123.9856,41.2571],[-123.9864,41.2508],[-123.9832,41.2474],[-123.9834,41.2421],[-123.981,41.2356],[-123.9765,41.2303],[-123.9627,41.2272],[-123.9571,41.2199],[-123.957,41.2094],[-123.9471,41.2037],[-123.9408,41.195],[-123.929,41.1877],[-123.9171,41.1672],[-123.9046,41.1636],[-123.8882,41.1637],[-123.8883,41.1565],[-123.8784,41.1562],[-123.8787,41.1491],[-123.8644,41.1488],[-123.8642,41.1412],[-123.8603,41.1412],[-123.8602,41.1304],[-123.8495,41.1304],[-123.8504,41.119],[-123.8585,41.122],[-123.8585,41.1238],[-123.879,41.1237],[-123.8791,41.1279],[-123.8839,41.1279],[-123.8839,41.1317],[-123.8886,41.1316],[-123.8886,41.1343],[-123.8987,41.1344],[-123.8987,41.1318],[-123.9031,41.1317],[-123.903,41.127],[-123.9078,41.1269],[-123.9079,41.1318],[-123.9132,41.1318],[-123.9123,41.1236],[-123.9172,41.1172],[-123.9395,41.1079],[-123.9385,41.1016],[-123.942,41.088],[-123.9486,41.0837],[-123.9595,41.0808],[-123.9638,41.0814],[-123.9773,41.1004],[-123.9776,41.1047],[-123.9835,41.1113],[-123.9909,41.1167],[-123.9957,41.1169],[-124.0025,41.1258],[-124.0116,41.1316],[-124.0127,41.1352],[-124.0211,41.1444],[-124.0201,41.1467],[-124.022,41.1512],[-124.034,41.1595],[-124.0474,41.1618],[-124.0668,41.1746],[-124.0688,41.177],[-124.0679,41.1798],[-124.071,41.1822],[-124.0673,41.1834],[-124.0742,41.1899],[-124.0721,41.198],[-124.0629,41.2044],[-124.0616,41.2091],[-124.0622,41.2181],[-124.0662,41.2238],[-124.0732,41.2291],[-124.0794,41.2471],[-124.0781,41.2593],[-124.0827,41.2592],[-124.0822,41.2667],[-124.084,41.274],[-124.0825,41.2764],[-124.0763,41.2782],[-124.0784,41.2807],[-124.0745,41.2788],[-124.0746,41.2774],[-124.0653,41.2774],[-124.0588,41.2796],[-124.0585,41.2823],[-124.0554,41.2842],[-124.0508,41.2926],[-124.0415,41.3033],[-124.0411,41.3057],[-124.0455,41.3111],[-124.0405,41.3164],[-124.0393,41.3214],[-124.0308,41.3282],[-124.0314,41.3371],[-124.0347,41.3403],[-124.0295,41.3466],[-124.0357,41.3402],[-124.0321,41.3368],[-124.0321,41.3293],[-124.04,41.3265],[-124.039,41.3236],[-124.041,41.3211],[-124.0395,41.3221],[-124.0399,41.3209],[-124.0461,41.3119],[-124.0464,41.3061],[-124.0484,41.306],[-124.0476,41.3045],[-124.0661,41.3001],[-124.08,41.3096],[-124.0835,41.3086],[-124.0873,41.3045],[-124.0879,41.2906],[-124.0943,41.2691],[-124.0936,41.259],[-124.1059,41.259],[-124.106,41.2668],[-124.0994,41.2834],[-124.0904,41.329],[-124.0785,41.3741],[-124.069,41.4401],[-124.0723,41.4525],[-124.0713,41.4659],[-124.0783,41.4884],[-124.0811,41.4926],[-124.0817,41.5002],[-124.0871,41.5093],[-124.0881,41.5209],[-124.0909,41.5241],[-124.088,41.5326],[-124.0883,41.5453],[-124.0981,41.5524],[-124.1077,41.5702],[-124.1082,41.5786],[-124.1042,41.5852],[-124.1084,41.5894],[-124.1156,41.59],[-124.1183,41.592],[-124.1172,41.5958],[-124.108,41.598],[-124.1066,41.6014],[-124.1153,41.6104],[-124.1215,41.6133],[-124.12,41.6172],[-124.1212,41.6261],[-124.125,41.6316],[-124.1256,41.6381],[-124.134,41.6498],[-124.1376,41.6537],[-124.1467,41.6547],[-124.1501,41.6568],[-124.1498,41.6589],[-124.1447,41.6638],[-124.1448,41.6694],[-124.1471,41.6722],[-124.1442,41.6773],[-124.1463,41.6842],[-124.1488,41.6863],[-124.1478,41.6928],[-124.1494,41.6952],[-124.1477,41.6985],[-124.1505,41.7054],[-124.1493,41.7088],[-124.1602,41.7284],[-124.1386,41.729],[-124.1385,41.758],[-124.1503,41.758],[-124.1481,41.758],[-124.1479,41.7653],[-124.1431,41.7653],[-124.143,41.787],[-124.1382,41.787],[-124.1399,41.7989],[-124.143,41.7989],[-124.1429,41.8004],[-124.1382,41.8057],[-124.1358,41.8059],[-124.1363,41.8165],[-124.1346,41.8169],[-124.1347,41.8194],[-124.1367,41.8223],[-124.1335,41.8223],[-124.1335,41.8196],[-124.1252,41.8197],[-124.1252,41.8224],[-124.1233,41.8224],[-124.1233,41.8325],[-124.1191,41.8325],[-124.1191,41.8381],[-124.1114,41.8381],[-124.1114,41.8398],[-124.1072,41.8374],[-124.1053,41.829],[-124.1003,41.8235],[-124.1097,41.8236],[-124.1097,41.8206],[-124.1053,41.8206],[-124.1017,41.8148],[-124.0764,41.8143],[-124.0761,41.8098],[-124.0797,41.8098],[-124.0777,41.8118],[-124.0789,41.8108],[-124.0822,41.8121],[-124.0802,41.8027],[-124.0811,41.7954],[-124.0761,41.7954],[-124.0742,41.7894],[-124.0674,41.7884],[-124.0659,41.7869],[-124.0655,41.7744],[-124.0377,41.7733],[-124.0376,41.7703],[-124.0324,41.7704],[-124.0323,41.7667],[-124.0274,41.7667],[-124.0274,41.756],[-124.0468,41.7556],[-124.0467,41.7589],[-124.0897,41.7583],[-124.09,41.7403],[-124.1195,41.7399],[-124.1195,41.7436],[-124.1291,41.7435],[-124.129,41.7258],[-124.1288,41.7216],[-124.1196,41.7221],[-124.1196,41.715],[-124.124,41.7146],[-124.1242,41.7075],[-124.1001,41.7076],[-124.1002,41.715],[-124.0905,41.7148],[-124.0904,41.7001],[-124.0856,41.7001],[-124.0856,41.6931],[-124.1,41.6929],[-124.1002,41.6675],[-124.1097,41.6673],[-124.1086,41.6264],[-124.1059,41.6264],[-124.1059,41.6173],[-124.1003,41.6173],[-124.0995,41.5966],[-124.0917,41.5868],[-124.089,41.5858],[-124.0889,41.5824],[-124.0937,41.5825],[-124.0942,41.5682],[-124.0896,41.5603],[-124.0843,41.5609],[-124.0873,41.5572],[-124.0905,41.5584],[-124.0806,41.5505],[-124.0806,41.5468],[-124.0762,41.5397],[-124.076,41.5361],[-124.0709,41.5338],[-124.0667,41.5354],[-124.0582,41.5329],[-124.0492,41.5283],[-124.0453,41.523],[-124.0525,41.5202],[-124.0677,41.5101],[-124.073,41.5097],[-124.0703,41.5085],[-124.0697,41.5041],[-124.0668,41.5005],[-124.0638,41.4915],[-124.0643,41.4853],[-124.0589,41.473],[-124.0523,41.472],[-124.0522,41.4683],[-124.0474,41.4684],[-124.0474,41.4646],[-124.0433,41.4667],[-124.0416,41.4699],[-124.039,41.4692],[-124.0323,41.4588],[-124.0183,41.4454]]]},"properties":{"park":"redwood","name":"Redwood National Park","source":"iNaturalist place","place_id":6021,"source_url":"https://www.inaturalist.org/places/6021"}}