{"type":"Feature","geometry":{"type":"Polygon","coordinates":[[[-111.7042,36.7099],[-111.7567,36.6453],[-111.7624,36.5983],[-111.8045,36.5683],[-111.852,36.5029],[-111.8358,36.4947],[-111.8305,36.4536],[-111.8775,36.3987],[-111.8415,36.3907],[-111.8859,36.372],[-111.8543,36.3374],[-111.853,36.2969],[-111.8212,36.2639],[-111.7944,36.193],[-111.7626,36.1987],[-111.7623,36.0067],[-111.9046,35.9993],[-111.9582,35.963],[-112.0122,35.963],[-112.0122,35.9773],[-112.0479,35.9773],[-112.0479,35.9918],[-112.1369,35.9918],[-112.1369,36.0209],[-112.2443,36.021],[-112.2443,36.0418],[-112.3387,36.102],[-112.4707,36.1503],[-112.4961,36.208],[-112.5566,36.2238],[-112.5643,36.3271],[-112.4878,36.3435],[-112.5478,36.3404],[-112.573,36.3579],[-112.5727,36.3282],[-112.6058,36.3276],[-112.5841,36.3132],[-112.6093,36.2978],[-112.5845,36.2836],[-112.6101,36.2775],[-112.6134,36.2527],[-112.6592,36.2848],[-112.6714,36.274],[-112.7394,36.289],[-112.8041,36.2362],[-112.8445,36.234],[-112.8391,36.2042],[-112.8724,36.1529],[-112.8765,36.2775],[-112.8909,36.2566],[-112.9222,36.2575],[-112.9659,36.2323],[-113.0187,36.2363],[-113.1345,36.166],[-113.1618,36.1718],[-113.2007,36.1495],[-113.2006,36.1191],[-113.2248,36.0906],[-113.3175,36.0978],[-113.3533,36.0415],[-113.3397,35.9867],[-113.3144,35.9679],[-113.3348,35.9145],[-113.3096,35.8929],[-113.3097,35.8619],[-113.3376,35.7916],[-113.3862,35.7529],[-113.5135,35.7667],[-113.6055,35.8489],[-113.6324,35.8183],[-113.6506,35.8228],[-113.6703,35.866],[-113.721,35.8867],[-113.715,35.9291],[-113.7705,35.9706],[-113.7857,36.0223],[-113.8145,36.0458],[-113.8864,36.0558],[-113.8999,36.0895],[-113.9038,35.9734],[-113.9437,35.9881],[-113.9795,36.0251],[-113.9799,36.1129],[-113.9391,36.128],[-113.9391,36.1453],[-113.8378,36.1456],[-113.791,36.1713],[-113.7666,36.1618],[-113.7617,36.1402],[-113.73,36.1517],[-113.7228,36.1481],[-113.7389,36.1333],[-113.729,36.1392],[-113.7321,36.0994],[-113.7162,36.0899],[-113.7209,36.1093],[-113.7063,36.1077],[-113.7202,36.1154],[-113.7055,36.1169],[-113.7201,36.1187],[-113.7179,36.1256],[-113.6903,36.1325],[-113.6954,36.1087],[-113.6653,36.1198],[-113.6864,36.1015],[-113.6899,36.0717],[-113.6343,36.1284],[-113.647,36.0478],[-113.6356,36.0539],[-113.6213,36.0134],[-113.6478,35.9845],[-113.6449,35.9746],[-113.5943,36.0192],[-113.6133,36.0213],[-113.6002,36.0385],[-113.6175,36.0207],[-113.6229,36.025],[-113.6152,36.0388],[-113.6268,36.0444],[-113.5911,36.063],[-113.6258,36.0703],[-113.5981,36.0766],[-113.6225,36.0836],[-113.6031,36.0907],[-113.5771,36.0706],[-113.5998,36.0917],[-113.5989,36.0952],[-113.6044,36.0984],[-113.6064,36.101],[-113.6059,36.1023],[-113.5843,36.0888],[-113.5761,36.1029],[-113.5762,36.0844],[-113.5577,36.0892],[-113.5505,36.0666],[-113.5431,36.0798],[-113.5406,36.0786],[-113.5409,36.0629],[-113.5584,36.0578],[-113.5382,36.003],[-113.5175,36.0187],[-113.539,36.0228],[-113.5381,36.0528],[-113.5232,36.0381],[-113.5185,36.0642],[-113.5063,36.0477],[-113.4853,36.0844],[-113.4729,36.0949],[-113.4595,36.0711],[-113.4773,36.0698],[-113.4876,36.0315],[-113.475,36.0275],[-113.4755,35.9906],[-113.4893,35.9921],[-113.4828,35.9598],[-113.4983,35.9495],[-113.4958,35.9732],[-113.541,35.9628],[-113.5514,35.9402],[-113.5324,35.9567],[-113.5322,35.9434],[-113.5199,35.9488],[-113.5135,35.9452],[-113.5267,35.9382],[-113.5109,35.9274],[-113.5223,35.914],[-113.4899,35.9179],[-113.4846,35.9362],[-113.4763,35.8987],[-113.4346,35.8997],[-113.4466,35.8644],[-113.4627,35.875],[-113.4468,35.8544],[-113.4667,35.8553],[-113.4721,35.8362],[-113.454,35.8332],[-113.4522,35.845],[-113.4214,35.8321],[-113.4109,35.8415],[-113.4227,35.8716],[-113.4015,35.9104],[-113.3775,35.916],[-113.3974,35.941],[-113.4142,35.9301],[-113.4115,35.9118],[-113.4379,35.9046],[-113.4526,35.9145],[-113.452,35.9313],[-113.4392,35.927],[-113.4385,35.93],[-113.4562,35.9891],[-113.4332,35.9745],[-113.423,35.9878],[-113.4413,36.0417],[-113.4284,36.0635],[-113.409,36.0536],[-113.4042,36.08],[-113.3378,36.0964],[-113.3483,36.1106],[-113.3662,36.0943],[-113.3836,36.0943],[-113.3572,36.126],[-113.3709,36.1404],[-113.3848,36.1325],[-113.3696,36.1499],[-113.3911,36.1538],[-113.3916,36.1625],[-113.3683,36.1572],[-113.4133,36.1909],[-113.3662,36.1767],[-113.329,36.1134],[-113.2922,36.1103],[-113.3062,36.1317],[-113.2825,36.1364],[-113.276,36.1084],[-113.2315,36.1051],[-113.2428,36.1192],[-113.2232,36.1136],[-113.2228,36.1394],[-113.192,36.175],[-113.1818,36.1643],[-113.1777,36.1799],[-113.1426,36.1825],[-113.1467,36.2234],[-113.1675,36.2276],[-113.1789,36.2746],[-113.1694,36.3239],[-113.093,36.325],[-113.093,36.2959],[-113.0484,36.2959],[-113.0395,36.354],[-113.0216,36.3685],[-113.0216,36.3829],[-113.0395,36.3829],[-113.026,36.4119],[-112.7084,36.4119],[-112.7085,36.4554],[-112.5927,36.5022],[-112.5396,36.4506],[-112.4486,36.4508],[-112.4326,36.4465],[-112.4406,36.4306],[-112.4042,36.4265],[-112.3843,36.4375],[-112.3501,36.4119],[-112.3699,36.4046],[-112.3402,36.3941],[-112.3623,36.3827],[-112.3033,36.3738],[-112.3423,36.3522],[-112.0463,36.3377],[-112.0308,36.309],[-112.0073,36.3009],[-111.8811,36.3211],[-111.895,36.3529],[-111.9435,36.343],[-111.8909,36.3855],[-111.9186,36.3973],[-111.9166,36.4097],[-111.8815,36.4145],[-111.891,36.4293],[-111.8603,36.4435],[-111.8761,36.4533],[-111.8492,36.4656],[-111.8571,36.4837],[-111.8845,36.4904],[-111.9239,36.458],[-111.9307,36.4601],[-111.8938,36.5017],[-111.911,36.5155],[-111.8628,36.5101],[-111.8274,36.5668],[-111.7789,36.5944],[-111.7697,36.6252],[-111.7904,36.6093],[-111.8047,36.6068],[-111.8241,36.6122],[-111.7821,36.6181],[-111.7489,36.6695],[-111.7821,36.6521],[-111.7972,36.6483],[-111.7991,36.6487],[-111.7995,36.6524],[-111.8,36.6502],[-111.8043,36.6495],[-111.7644,36.6755],[-111.7447,36.6773],[-111.7176,36.6983],[-111.7039,36.7378],[-111.7383,36.7299],[-111.7276,36.7369],[-111.7388,36.7442],[-111.7111,36.7386],[-111.6683,36.7564],[-111.6595,36.7732],[-111.6783,36.7812],[-111.6518,36.7797],[-111.6529,36.8039],[-111.616,36.8495],[-111.587,36.8656],[-111.6152,36.8482],[-111.6501,36.7711],[-111.7042,36.7099]]]},"properties":{"park":"grand_canyon","name":"Grand Canyon National Park","source":"iNaturalist place","place_id":69216,"source_url":"https://www.inaturalist.org/places/69216"}}