{"type":"Feature","geometry":{"type":"MultiPolygon","coordinates":[[[[-105.5336,40.3],[-105.5242,40.2994],[-105.5228,40.2919],[-105.5159,40.2866],[-105.512,40.2758],[-105.5117,40.2746],[-105.5234,40.275],[-105.5232,40.2679],[-105.5279,40.2681],[-105.5283,40.2856],[-105.5235,40.2854],[-105.5236,40.2889],[-105.533,40.2894],[-105.5336,40.3]]],[[[-105.5338,40.3035],[-105.5336,40.3],[-105.5529,40.3005],[-105.5523,40.2934],[-105.5617,40.2934],[-105.5613,40.2863],[-105.5566,40.2863],[-105.5566,40.2827],[-105.5613,40.2827],[-105.5611,40.2756],[-105.5564,40.2756],[-105.5562,40.2686],[-105.5609,40.2685],[-105.5608,40.2615],[-105.5421,40.2614],[-105.5421,40.2251],[-105.5326,40.2251],[-105.5327,40.2194],[-105.5353,40.2185],[-105.5327,40.2168],[-105.5328,40.2105],[-105.5423,40.2106],[-105.5424,40.1905],[-105.5697,40.1759],[-105.5719,40.1689],[-105.5711,40.1658],[-105.5785,40.1612],[-105.5896,40.1612],[-105.5951,40.1583],[-105.6028,40.1581],[-105.6112,40.1616],[-105.6217,40.1616],[-105.6457,40.1679],[-105.6546,40.1677],[-105.6633,40.1701],[-105.6684,40.1697],[-105.6714,40.1665],[-105.6838,40.1687],[-105.6988,40.1618],[-105.7041,40.1627],[-105.7071,40.1671],[-105.711,40.1689],[-105.7168,40.1686],[-105.7185,40.1743],[-105.7282,40.1794],[-105.7408,40.1757],[-105.7441,40.1676],[-105.7525,40.1642],[-105.7711,40.1674],[-105.7805,40.1761],[-105.7878,40.1749],[-105.7987,40.1697],[-105.8103,40.1695],[-105.8172,40.1674],[-105.8173,40.1695],[-105.82,40.1695],[-105.8202,40.1712],[-105.8176,40.1727],[-105.8151,40.1792],[-105.8218,40.1841],[-105.8208,40.1877],[-105.826,40.1915],[-105.8265,40.195],[-105.8362,40.2003],[-105.8378,40.2034],[-105.837,40.2051],[-105.84,40.2073],[-105.8423,40.2144],[-105.8413,40.2166],[-105.8367,40.2186],[-105.8357,40.2212],[-105.8369,40.2274],[-105.8353,40.2345],[-105.802,40.2339],[-105.8013,40.238],[-105.7969,40.2381],[-105.7968,40.2457],[-105.8018,40.2453],[-105.8014,40.249],[-105.8061,40.2489],[-105.806,40.2526],[-105.8015,40.2526],[-105.7991,40.2562],[-105.8159,40.2564],[-105.8163,40.2575],[-105.8165,40.2564],[-105.8223,40.2565],[-105.8222,40.2587],[-105.8246,40.2587],[-105.8332,40.258],[-105.8332,40.2566],[-105.8434,40.2566],[-105.8433,40.2714],[-105.8521,40.272],[-105.8499,40.2732],[-105.8518,40.2742],[-105.8499,40.2739],[-105.8509,40.2759],[-105.8483,40.2806],[-105.8492,40.2859],[-105.8509,40.286],[-105.8474,40.2869],[-105.8471,40.2886],[-105.8509,40.2927],[-105.85,40.2937],[-105.8538,40.2941],[-105.8534,40.2964],[-105.8582,40.2967],[-105.8566,40.2994],[-105.8599,40.3003],[-105.8584,40.3019],[-105.8603,40.3016],[-105.8594,40.3039],[-105.8579,40.3038],[-105.8591,40.3042],[-105.8576,40.3052],[-105.8593,40.3098],[-105.8577,40.3104],[-105.8596,40.3112],[-105.8581,40.3115],[-105.8584,40.3131],[-105.8609,40.3138],[-105.8585,40.3143],[-105.8715,40.3146],[-105.8709,40.3447],[-105.8684,40.3447],[-105.8686,40.3719],[-105.8697,40.3697],[-105.8703,40.3706],[-105.8746,40.367],[-105.8748,40.3693],[-105.8777,40.3687],[-105.8776,40.3736],[-105.8793,40.3719],[-105.8795,40.3735],[-105.8879,40.373],[-105.893,40.3707],[-105.9035,40.3735],[-105.9137,40.3729],[-105.9061,40.3792],[-105.907,40.3872],[-105.9034,40.3903],[-105.9049,40.3929],[-105.9039,40.3967],[-105.905,40.3989],[-105.9018,40.4063],[-105.9022,40.4128],[-105.8978,40.4177],[-105.8987,40.4268],[-105.9034,40.4319],[-105.897,40.4486],[-105.8999,40.4542],[-105.8983,40.4574],[-105.8992,40.4658],[-105.8972,40.4693],[-105.8942,40.4697],[-105.8916,40.4767],[-105.8862,40.4774],[-105.8814,40.476],[-105.8728,40.4783],[-105.8696,40.4808],[-105.8626,40.48],[-105.855,40.4862],[-105.8468,40.4828],[-105.8375,40.4828],[-105.8348,40.48],[-105.8228,40.4768],[-105.8161,40.4827],[-105.8159,40.4849],[-105.8104,40.4867],[-105.8048,40.4912],[-105.7851,40.4982],[-105.7794,40.4976],[-105.7791,40.4989],[-105.7729,40.4998],[-105.7698,40.5059],[-105.7652,40.5088],[-105.7638,40.5129],[-105.7586,40.5145],[-105.7514,40.5224],[-105.7479,40.5238],[-105.7502,40.5307],[-105.753,40.5314],[-105.753,40.535],[-105.7502,40.5387],[-105.7349,40.5475],[-105.7263,40.5471],[-105.7222,40.5492],[-105.7083,40.5486],[-105.6985,40.5538],[-105.6814,40.5495],[-105.6748,40.5404],[-105.6709,40.5392],[-105.6704,40.5355],[-105.6668,40.5335],[-105.6636,40.5288],[-105.6565,40.5279],[-105.6444,40.5331],[-105.6412,40.5309],[-105.636,40.5318],[-105.6236,40.5354],[-105.6232,40.5393],[-105.62,40.5404],[-105.6002,40.5378],[-105.5971,40.5319],[-105.5934,40.5301],[-105.5927,40.5261],[-105.5902,40.5256],[-105.5889,40.5214],[-105.5848,40.5191],[-105.5776,40.5185],[-105.5661,40.5109],[-105.5624,40.5065],[-105.5586,40.5055],[-105.5427,40.5087],[-105.5321,40.5153],[-105.5222,40.5159],[-105.5174,40.5192],[-105.5129,40.4339],[-105.4936,40.4336],[-105.4938,40.4263],[-105.4986,40.4264],[-105.4986,40.4228],[-105.4938,40.4226],[-105.4946,40.4047],[-105.5041,40.4048],[-105.5043,40.4],[-105.5066,40.4],[-105.5067,40.3982],[-105.5114,40.3982],[-105.5117,40.393],[-105.5227,40.391],[-105.5236,40.3869],[-105.5292,40.388],[-105.5382,40.387],[-105.538,40.3825],[-105.5438,40.384],[-105.5439,40.3854],[-105.5482,40.3854],[-105.552,40.3834],[-105.5518,40.3943],[-105.5566,40.3942],[-105.5564,40.3979],[-105.5656,40.3978],[-105.5654,40.4015],[-105.5795,40.4012],[-105.5795,40.4048],[-105.5889,40.4047],[-105.5888,40.3976],[-105.5796,40.3977],[-105.5797,40.3942],[-105.5657,40.3942],[-105.5661,40.3801],[-105.5615,40.3801],[-105.5614,40.3836],[-105.5553,40.381],[-105.5554,40.3798],[-105.552,40.3798],[-105.552,40.3761],[-105.5662,40.3764],[-105.5664,40.3694],[-105.5476,40.3636],[-105.5443,40.3643],[-105.5439,40.363],[-105.55,40.3603],[-105.5508,40.3636],[-105.5569,40.3652],[-105.5573,40.3597],[-105.5668,40.3599],[-105.567,40.3545],[-105.5718,40.3545],[-105.5724,40.3501],[-105.5712,40.3486],[-105.5767,40.3454],[-105.5858,40.3456],[-105.5917,40.3434],[-105.5918,40.3325],[-105.587,40.3325],[-105.5869,40.3361],[-105.5819,40.3361],[-105.5821,40.3253],[-105.558,40.3253],[-105.558,40.3218],[-105.5534,40.3218],[-105.5533,40.3253],[-105.5485,40.3253],[-105.5487,40.3182],[-105.5438,40.3183],[-105.5436,40.3112],[-105.5389,40.3108],[-105.539,40.3143],[-105.5351,40.3141],[-105.5372,40.3071],[-105.534,40.307],[-105.5338,40.3035]]]]},"properties":{"park":"rocky_mountain","name":"Rocky Mountain National Park","source":"iNaturalist place","place_id":49676,"source_url":"https://www.inaturalist.org/places/49676"}}