{"type":"Feature","geometry":{"type":"Polygon","coordinates":[[[-111.0971,44.4873],[-111.0968,45.0221],[-111.156,45.0537],[-111.1347,45.0616],[-111.132,45.1012],[-111.1036,45.109],[-111.0565,45.0664],[-111.0096,45.0984],[-110.9425,45.0756],[-110.9097,45.0296],[-110.8419,45.0296],[-110.8262,45.0541],[-110.7722,45.0668],[-110.7122,45.0298],[-110.0772,45.0296],[-110.0096,45.0534],[-110.0018,44.9741],[-109.97,44.9728],[-109.9273,44.9318],[-109.9402,44.8553],[-109.9281,44.8371],[-109.9589,44.8167],[-109.9579,44.8011],[-109.8242,44.7081],[-109.908,44.6378],[-110.0096,44.6164],[-110.0246,44.6279],[-110.0336,44.6078],[-110.0643,44.6059],[-110.0797,44.5756],[-110.1725,44.5438],[-110.1224,44.4733],[-110.0012,44.5041],[-110.0012,44.4606],[-110.0745,44.3981],[-110.0715,44.3421],[-110.0273,44.3203],[-110.0011,44.3241],[-110.0011,44.1326],[-111.098,44.1328],[-111.0971,44.4873]]]},"properties":{"park":"yellowstone","name":"Yellowstone National Park","source":"iNaturalist place","place_id":10211,"source_url":"https://www.inaturalist.org/places/10211"}}