{"type":"Feature","geometry":{"type":"MultiPolygon","coordinates":[[[[-109.562,38.6047],[-109.5635,38.6033],[-109.5643,38.6032],[-109.5662,38.6034],[-109.5671,38.6038],[-109.5708,38.6049],[-109.5787,38.605],[-109.5809,38.6066],[-109.5822,38.607],[-109.5852,38.6068],[-109.588,38.6071],[-109.5957,38.6056],[-109.6013,38.606],[-109.6026,38.6067],[-109.6031,38.6072],[-109.6062,38.6105],[-109.6077,38.6115],[-109.6117,38.6135],[-109.615,38.6157],[-109.6183,38.616],[-109.6208,38.615],[-109.6221,38.6139],[-109.6233,38.6137],[-109.6251,38.614],[-109.6275,38.615],[-109.6287,38.6161],[-109.6314,38.6168],[-109.635,38.6185],[-109.6351,38.6335],[-109.6397,38.6335],[-109.6397,38.6444],[-109.6443,38.6444],[-109.6442,38.6664],[-109.6534,38.6664],[-109.6534,38.688],[-109.635,38.6881],[-109.6351,38.7388],[-109.6536,38.7387],[-109.6536,38.7448],[-109.672,38.7449],[-109.6723,38.7593],[-109.6854,38.7593],[-109.6855,38.7738],[-109.6947,38.7738],[-109.6947,38.8028],[-109.6854,38.8027],[-109.6854,38.8246],[-109.6946,38.8246],[-109.6946,38.8318],[-109.7039,38.8319],[-109.7039,38.8391],[-109.7132,38.8392],[-109.7132,38.8469],[-109.6667,38.8469],[-109.6669,38.8317],[-109.6354,38.8317],[-109.6354,38.8245],[-109.617,38.8245],[-109.617,38.8173],[-109.5984,38.8173],[-109.5984,38.8101],[-109.5799,38.8101],[-109.5799,38.7955],[-109.5628,38.7956],[-109.5632,38.7961],[-109.563,38.7964],[-109.5594,38.7961],[-109.5589,38.7961],[-109.5584,38.7964],[-109.5559,38.7963],[-109.554,38.797],[-109.5525,38.7972],[-109.5516,38.7987],[-109.5518,38.8],[-109.5514,38.8015],[-109.5537,38.8022],[-109.5535,38.803],[-109.5542,38.8032],[-109.5546,38.8035],[-109.5547,38.8042],[-109.5538,38.8047],[-109.5547,38.8063],[-109.5549,38.807],[-109.5548,38.8101],[-109.5492,38.8101],[-109.5496,38.8095],[-109.5494,38.8084],[-109.5497,38.8075],[-109.5486,38.806],[-109.5483,38.8051],[-109.5483,38.8043],[-109.5476,38.8029],[-109.5472,38.8015],[-109.5472,38.8012],[-109.5479,38.8],[-109.5479,38.7996],[-109.547,38.7986],[-109.5465,38.7984],[-109.5441,38.7983],[-109.5432,38.7981],[-109.5419,38.7998],[-109.5416,38.8004],[-109.5417,38.8011],[-109.5413,38.8021],[-109.541,38.8023],[-109.54,38.8027],[-109.5398,38.8031],[-109.5398,38.8033],[-109.5404,38.804],[-109.5405,38.8049],[-109.5409,38.8056],[-109.5409,38.806],[-109.5399,38.8072],[-109.5398,38.8079],[-109.54,38.8083],[-109.5398,38.8087],[-109.5403,38.809],[-109.5407,38.8097],[-109.5409,38.8102],[-109.5407,38.8106],[-109.541,38.8109],[-109.5409,38.8113],[-109.5385,38.8113],[-109.5387,38.8104],[-109.5385,38.8099],[-109.5378,38.8104],[-109.5372,38.8104],[-109.5367,38.8102],[-109.5371,38.8099],[-109.5373,38.8087],[-109.5376,38.8085],[-109.5376,38.8083],[-109.5372,38.8077],[-109.5374,38.8076],[-109.5375,38.8073],[-109.5372,38.807],[-109.5371,38.8062],[-109.5372,38.8048],[-109.5368,38.8043],[-109.5367,38.8037],[-109.5353,38.803],[-109.5342,38.8018],[-109.5334,38.8017],[-109.5325,38.8019],[-109.5323,38.8021],[-109.5319,38.8036],[-109.5309,38.8041],[-109.5304,38.804],[-109.5301,38.8038],[-109.5299,38.8034],[-109.5298,38.8028],[-109.5296,38.8027],[-109.528,38.8027],[-109.5274,38.8025],[-109.5274,38.802],[-109.5283,38.8008],[-109.5285,38.7999],[-109.5291,38.7998],[-109.5308,38.8001],[-109.5329,38.7996],[-109.5331,38.7992],[-109.5328,38.7988],[-109.5331,38.798],[-109.5348,38.7968],[-109.5349,38.7962],[-109.5356,38.7959],[-109.5364,38.7958],[-109.5368,38.7953],[-109.5381,38.7949],[-109.5383,38.7944],[-109.5381,38.7936],[-109.5366,38.7944],[-109.5349,38.7949],[-109.5346,38.7948],[-109.5336,38.794],[-109.5323,38.7937],[-109.5319,38.7932],[-109.5349,38.7927],[-109.5358,38.7923],[-109.5363,38.7917],[-109.5369,38.7915],[-109.5369,38.7913],[-109.5358,38.7911],[-109.5348,38.7914],[-109.5341,38.7912],[-109.5335,38.7908],[-109.533,38.7901],[-109.5309,38.7904],[-109.5299,38.7903],[-109.529,38.7898],[-109.5288,38.7893],[-109.529,38.7888],[-109.5303,38.7881],[-109.531,38.7874],[-109.5304,38.7863],[-109.5297,38.786],[-109.5287,38.7866],[-109.5276,38.7869],[-109.5264,38.7864],[-109.5259,38.786],[-109.5257,38.7857],[-109.5258,38.7851],[-109.5257,38.7849],[-109.5247,38.7852],[-109.5242,38.7851],[-109.5238,38.7844],[-109.5238,38.7833],[-109.5245,38.782],[-109.5244,38.7801],[-109.5245,38.7788],[-109.5231,38.7797],[-109.5222,38.7806],[-109.5189,38.7848],[-109.5186,38.7878],[-109.5191,38.7898],[-109.5187,38.7912],[-109.5187,38.7915],[-109.5191,38.7923],[-109.5188,38.7928],[-109.5178,38.7934],[-109.5179,38.7942],[-109.5176,38.7946],[-109.5169,38.7949],[-109.5169,38.7958],[-109.5165,38.7961],[-109.5165,38.7968],[-109.5102,38.7968],[-109.5105,38.7966],[-109.5114,38.7955],[-109.5115,38.7951],[-109.5109,38.7954],[-109.5093,38.7959],[-109.5078,38.796],[-109.5059,38.7964],[-109.5052,38.7964],[-109.5045,38.7958],[-109.504,38.7958],[-109.5032,38.7962],[-109.5026,38.7963],[-109.5017,38.7968],[-109.5007,38.797],[-109.5003,38.7975],[-109.4987,38.7983],[-109.4976,38.7997],[-109.4967,38.8],[-109.4954,38.7999],[-109.4947,38.8005],[-109.4938,38.8005],[-109.4935,38.8004],[-109.4933,38.8001],[-109.4935,38.7996],[-109.4953,38.7986],[-109.4961,38.7976],[-109.4963,38.7972],[-109.4954,38.796],[-109.4954,38.7954],[-109.4957,38.795],[-109.497,38.7949],[-109.4987,38.7957],[-109.5004,38.7956],[-109.5018,38.7947],[-109.5033,38.794],[-109.503,38.7931],[-109.5038,38.7924],[-109.5039,38.7918],[-109.5041,38.7915],[-109.5054,38.7912],[-109.5081,38.7917],[-109.5088,38.7919],[-109.5096,38.7925],[-109.5102,38.7924],[-109.5105,38.7921],[-109.5096,38.7917],[-109.5095,38.7913],[-109.51,38.79],[-109.5099,38.789],[-109.5091,38.7886],[-109.5087,38.7875],[-109.5088,38.7869],[-109.5092,38.7864],[-109.5102,38.7859],[-109.5094,38.7856],[-109.5068,38.786],[-109.5066,38.7862],[-109.5064,38.7867],[-109.506,38.7872],[-109.5041,38.7878],[-109.5039,38.7877],[-109.5037,38.7873],[-109.5031,38.7869],[-109.5029,38.7865],[-109.5025,38.7871],[-109.5021,38.7873],[-109.5009,38.7875],[-109.5006,38.7875],[-109.5,38.7871],[-109.4993,38.787],[-109.4972,38.7875],[-109.4959,38.7874],[-109.4946,38.7876],[-109.4927,38.7876],[-109.4918,38.7875],[-109.4915,38.7866],[-109.4918,38.7861],[-109.4922,38.786],[-109.4937,38.786],[-109.4942,38.7857],[-109.4941,38.7849],[-109.4934,38.7846],[-109.4933,38.7842],[-109.4934,38.783],[-109.494,38.782],[-109.4941,38.7815],[-109.494,38.7813],[-109.4933,38.7809],[-109.4922,38.7812],[-109.4914,38.7818],[-109.4892,38.7817],[-109.4888,38.7811],[-109.4888,38.7798],[-109.4892,38.7792],[-109.4915,38.779],[-109.4949,38.7776],[-109.496,38.7776],[-109.4982,38.7782],[-109.4992,38.7787],[-109.5001,38.7789],[-109.5003,38.7792],[-109.5006,38.7806],[-109.501,38.7807],[-109.5017,38.7806],[-109.5033,38.7823],[-109.5035,38.7824],[-109.5041,38.7821],[-109.5046,38.7826],[-109.5054,38.7826],[-109.5059,38.7823],[-109.5061,38.7821],[-109.5048,38.7817],[-109.5043,38.7811],[-109.5034,38.7806],[-109.5035,38.7803],[-109.5033,38.7799],[-109.5034,38.7798],[-109.5047,38.78],[-109.5057,38.7799],[-109.5067,38.7794],[-109.5069,38.7781],[-109.5059,38.778],[-109.5053,38.7777],[-109.5045,38.7767],[-109.5064,38.7765],[-109.5077,38.7759],[-109.5075,38.7756],[-109.5067,38.7753],[-109.5047,38.7753],[-109.5034,38.7748],[-109.5017,38.7751],[-109.4998,38.7751],[-109.4994,38.7748],[-109.4976,38.7742],[-109.4975,38.774],[-109.4978,38.7736],[-109.4991,38.7732],[-109.5001,38.7731],[-109.5006,38.7736],[-109.5012,38.7734],[-109.5024,38.7727],[-109.5035,38.7726],[-109.5039,38.7725],[-109.5039,38.7721],[-109.5036,38.7714],[-109.504,38.7708],[-109.5048,38.7702],[-109.5052,38.7701],[-109.5059,38.7701],[-109.5063,38.7703],[-109.5071,38.7711],[-109.5081,38.7727],[-109.5094,38.7731],[-109.5119,38.7745],[-109.5128,38.7746],[-109.5142,38.7736],[-109.515,38.7737],[-109.5164,38.7744],[-109.5171,38.7746],[-109.5184,38.7744],[-109.5189,38.774],[-109.5181,38.7733],[-109.5165,38.7725],[-109.5158,38.7725],[-109.5143,38.7729],[-109.5131,38.7723],[-109.5116,38.7719],[-109.5109,38.7715],[-109.5106,38.771],[-109.5113,38.7707],[-109.5111,38.7704],[-109.5091,38.7692],[-109.5085,38.7686],[-109.5084,38.7683],[-109.5085,38.7677],[-109.5091,38.7674],[-109.5091,38.7665],[-109.5097,38.7657],[-109.5097,38.7606],[-109.482,38.7606],[-109.4817,38.7388],[-109.491,38.7388],[-109.4909,38.7243],[-109.514,38.7244],[-109.514,38.7172],[-109.5094,38.7171],[-109.5094,38.699],[-109.5048,38.699],[-109.5048,38.6918],[-109.5002,38.6918],[-109.5001,38.6707],[-109.5005,38.6695],[-109.5004,38.6682],[-109.5007,38.6646],[-109.5015,38.6612],[-109.5022,38.6603],[-109.5034,38.6592],[-109.5053,38.656],[-109.5057,38.6547],[-109.5072,38.6523],[-109.5067,38.649],[-109.5059,38.6462],[-109.5038,38.6444],[-109.5003,38.6434],[-109.4959,38.6448],[-109.4924,38.6462],[-109.4906,38.6474],[-109.4884,38.6482],[-109.4851,38.649],[-109.4841,38.6491],[-109.4833,38.6489],[-109.4805,38.6472],[-109.4799,38.6471],[-109.4794,38.6466],[-109.4781,38.6459],[-109.4777,38.6452],[-109.4779,38.6433],[-109.4791,38.6407],[-109.4813,38.6378],[-109.4849,38.635],[-109.489,38.6332],[-109.4945,38.6323],[-109.4994,38.6309],[-109.501,38.63],[-109.5049,38.6283],[-109.5068,38.6279],[-109.5123,38.6255],[-109.5145,38.6247],[-109.5164,38.6238],[-109.5181,38.6233],[-109.5201,38.6223],[-109.5268,38.6182],[-109.5318,38.6149],[-109.5374,38.6107],[-109.5388,38.61],[-109.5427,38.6092],[-109.5449,38.6097],[-109.5518,38.6145],[-109.5552,38.6153],[-109.5571,38.6149],[-109.5589,38.6137],[-109.5596,38.6126],[-109.5603,38.6084],[-109.5606,38.6074],[-109.5611,38.6067],[-109.5613,38.6061],[-109.562,38.6047]]]]},"properties":{"park":"arches","name":"Arches National Park","source":"iNaturalist place","place_id":53642,"source_url":"https://www.inaturalist.org/places/53642"}}