{"type":"Feature","geometry":{"type":"MultiPolygon","coordinates":[[[[-102.3023,43.5779],[-102.2774,43.5779],[-102.2775,43.5273],[-102.2875,43.5273],[-102.2876,43.4839],[-102.3075,43.4839],[-102.3075,43.4768],[-102.3771,43.477],[-102.3771,43.4841],[-102.4267,43.4844],[-102.4266,43.4988],[-102.4464,43.4989],[-102.4465,43.5278],[-102.3967,43.5276],[-102.3967,43.5347],[-102.3671,43.5346],[-102.3672,43.5636],[-102.3572,43.5636],[-102.3572,43.5708],[-102.3173,43.5707],[-102.3173,43.578],[-102.3023,43.5779]]],[[[-102.3434,43.9223],[-102.3384,43.9223],[-102.3384,43.9151],[-102.3184,43.915],[-102.3184,43.9114],[-102.2933,43.9113],[-102.2933,43.9077],[-102.2784,43.9077],[-102.2783,43.9004],[-102.2683,43.9004],[-102.2683,43.8931],[-102.2583,43.8931],[-102.2583,43.8859],[-102.2187,43.8859],[-102.2187,43.8786],[-102.1986,43.8786],[-102.1986,43.8641],[-102.1786,43.8641],[-102.1786,43.8569],[-102.1586,43.8569],[-102.1586,43.8206],[-102.1386,43.8206],[-102.1386,43.8137],[-102.1292,43.8136],[-102.1292,43.8062],[-102.0293,43.8064],[-102.0213,43.7976],[-102.0151,43.7955],[-102.0046,43.7955],[-101.9988,43.7996],[-101.9912,43.7992],[-101.9913,43.8023],[-101.9884,43.8027],[-101.9796,43.7981],[-101.9797,43.792],[-101.9696,43.792],[-101.9696,43.7848],[-101.9096,43.7848],[-101.9096,43.7921],[-101.8902,43.7922],[-101.8898,43.7488],[-101.8996,43.7487],[-101.8996,43.7415],[-101.9197,43.7414],[-101.9197,43.7342],[-101.9396,43.7323],[-101.9396,43.7341],[-101.9446,43.7341],[-101.9446,43.7413],[-101.9994,43.7412],[-101.9995,43.7484],[-102.0192,43.7484],[-102.0192,43.7629],[-102.0689,43.763],[-102.069,43.7557],[-102.099,43.7558],[-102.099,43.763],[-102.1386,43.7632],[-102.1386,43.7777],[-102.1586,43.7776],[-102.1586,43.792],[-102.1686,43.792],[-102.1686,43.7993],[-102.1786,43.7993],[-102.1787,43.8065],[-102.1887,43.8065],[-102.1887,43.8137],[-102.1987,43.8137],[-102.1987,43.8206],[-102.2287,43.8207],[-102.2287,43.8279],[-102.2583,43.8279],[-102.2584,43.8207],[-102.2982,43.8209],[-102.2984,43.7989],[-102.2934,43.7989],[-102.2934,43.7953],[-102.2884,43.7953],[-102.2885,43.7882],[-102.2935,43.7882],[-102.2935,43.7845],[-102.2984,43.7845],[-102.2984,43.7772],[-102.3385,43.7772],[-102.3385,43.7627],[-102.3777,43.7628],[-102.3777,43.7493],[-102.4225,43.7492],[-102.4225,43.771],[-102.4574,43.7709],[-102.4575,43.7492],[-102.4774,43.7492],[-102.4774,43.742],[-102.497,43.742],[-102.497,43.7347],[-102.527,43.7347],[-102.5269,43.7057],[-102.5369,43.7057],[-102.5356,43.6725],[-102.5406,43.6725],[-102.5406,43.6653],[-102.5555,43.6653],[-102.5555,43.6455],[-102.553,43.6455],[-102.553,43.6437],[-102.5555,43.6437],[-102.5555,43.6292],[-102.5654,43.6292],[-102.5655,43.651],[-102.5954,43.651],[-102.5954,43.6655],[-102.615,43.6655],[-102.615,43.6511],[-102.6249,43.6511],[-102.6249,43.6439],[-102.6399,43.6439],[-102.6399,43.6366],[-102.6349,43.6366],[-102.6349,43.6294],[-102.6299,43.6294],[-102.6299,43.6077],[-102.6249,43.6077],[-102.615,43.5932],[-102.5953,43.5931],[-102.5954,43.5496],[-102.5455,43.5497],[-102.5455,43.5352],[-102.5355,43.5352],[-102.5356,43.5208],[-102.4958,43.5207],[-102.4958,43.528],[-102.4763,43.5279],[-102.4762,43.5098],[-102.4958,43.5099],[-102.4958,43.5063],[-102.5952,43.5063],[-102.5952,43.499],[-102.615,43.4991],[-102.615,43.5063],[-102.6249,43.5063],[-102.6348,43.5135],[-102.6348,43.5389],[-102.6896,43.5389],[-102.6897,43.5498],[-102.6797,43.5498],[-102.6797,43.5606],[-102.7046,43.5606],[-102.7145,43.5498],[-102.7145,43.5462],[-102.7294,43.5353],[-102.7741,43.5353],[-102.7841,43.5426],[-102.804,43.5426],[-102.8039,43.5209],[-102.794,43.5209],[-102.7939,43.5109],[-102.81,43.4992],[-102.8138,43.4992],[-102.8145,43.4895],[-102.8215,43.4856],[-102.8328,43.4827],[-102.8495,43.4827],[-102.8537,43.4843],[-102.8619,43.4822],[-102.8789,43.4997],[-102.898,43.5159],[-102.897,43.5196],[-102.8862,43.5268],[-102.8835,43.5318],[-102.8735,43.5318],[-102.8735,43.5391],[-102.8785,43.5391],[-102.8785,43.5427],[-102.8835,43.5427],[-102.8834,43.5572],[-102.8934,43.5644],[-102.8934,43.5789],[-102.8884,43.5789],[-102.8884,43.6512],[-102.7941,43.6512],[-102.7941,43.6876],[-102.6066,43.6874],[-102.6067,43.7347],[-102.5569,43.7347],[-102.5569,43.7419],[-102.537,43.7419],[-102.537,43.7492],[-102.512,43.7492],[-102.5121,43.7673],[-102.502,43.7673],[-102.502,43.7781],[-102.497,43.7781],[-102.497,43.7853],[-102.4875,43.7853],[-102.4875,43.7889],[-102.4675,43.789],[-102.4675,43.7926],[-102.4178,43.7927],[-102.4176,43.8357],[-102.4475,43.8358],[-102.4476,43.8792],[-102.4377,43.8792],[-102.4376,43.9189],[-102.3776,43.9187],[-102.3776,43.9223],[-102.3434,43.9223]]]]},"properties":{"park":"badlands","name":"Badlands National Park","source":"iNaturalist place","place_id":72792,"source_url":"https://www.inaturalist.org/places/72792"}}