{"type":"Feature","geometry":{"type":"MultiPolygon","coordinates":[[[[-154.7266,59.274],[-154.6362,59.2263],[-154.6442,59.2096],[-154.7002,59.2035],[-154.742,59.1525],[-154.7176,59.1322],[-154.7386,59.0876],[-154.6951,59.0779],[-154.6951,58.9128],[-154.5283,58.9128],[-154.5283,58.9995],[-154.1547,58.9995],[-154.1618,59.0202],[-154.1097,59.0373],[-154.0656,59.0732],[-153.8531,59.0542],[-153.8,59.0733],[-153.756,59.053],[-153.7075,59.0765],[-153.6325,59.0158],[-153.6198,59.0075],[-153.5937,58.9963],[-153.6229,59.0111],[-153.5511,58.9859],[-153.4874,58.9995],[-153.4435,58.9733],[-153.4051,58.973],[-153.3753,58.9282],[-153.3248,58.9228],[-153.3221,58.8834],[-153.2857,58.8747],[-153.3574,58.8608],[-153.2641,58.8653],[-153.2504,58.8516],[-153.2808,58.8362],[-153.3159,58.8395],[-153.311,58.8454],[-153.3112,58.8498],[-153.3156,58.8522],[-153.3354,58.8514],[-153.3386,58.8533],[-153.3466,58.855],[-153.3537,58.8538],[-153.3356,58.851],[-153.33,58.8514],[-153.3176,58.8483],[-153.3154,58.8463],[-153.3412,58.8478],[-153.3634,58.8305],[-153.3667,58.8338],[-153.3729,58.8299],[-153.3617,58.8302],[-153.3951,58.7493],[-153.4442,58.7087],[-153.4808,58.7124],[-153.5095,58.691],[-153.5555,58.6858],[-153.5925,58.6326],[-153.6767,58.6112],[-153.7764,58.6063],[-153.7103,58.6195],[-153.7503,58.6212],[-153.7844,58.6057],[-153.8981,58.6072],[-153.9031,58.5797],[-153.8793,58.577],[-153.875,58.5697],[-153.9121,58.554],[-153.9242,58.5186],[-153.9566,58.5271],[-153.9445,58.5128],[-153.9082,58.5165],[-153.9219,58.5012],[-154.0528,58.4903],[-154.0776,58.4757],[-154.0669,58.4386],[-154.0735,58.4376],[-154.0792,58.4316],[-154.065,58.4347],[-154.0521,58.4044],[-153.9807,58.3913],[-154.001,58.3749],[-154.0453,58.3553],[-154.0984,58.3589],[-154.0946,58.343],[-154.1534,58.358],[-154.1995,58.3541],[-154.211,58.348],[-154.1729,58.3451],[-154.1761,58.3352],[-154.2122,58.3369],[-154.3517,58.2852],[-154.2878,58.2601],[-154.2565,58.2705],[-154.2614,58.295],[-154.2225,58.3017],[-154.2077,58.29],[-154.177,58.3215],[-154.1025,58.2799],[-154.1285,58.2658],[-154.2175,58.2636],[-154.2467,58.2481],[-154.2148,58.2613],[-154.1493,58.2363],[-154.1463,58.2089],[-154.1776,58.2127],[-154.1643,58.1975],[-154.1782,58.1883],[-154.282,58.2],[-154.2649,58.1772],[-154.2999,58.1941],[-154.2723,58.1607],[-154.2124,58.1348],[-154.2748,58.128],[-154.3352,58.1581],[-154.3391,58.1233],[-154.3099,58.09],[-154.339,58.0802],[-154.3404,58.0939],[-154.3824,58.0964],[-154.3661,58.1034],[-154.4369,58.1471],[-154.4356,58.1741],[-154.4925,58.2031],[-154.5006,58.1953],[-154.4688,58.1774],[-154.4567,58.1487],[-154.4709,58.1461],[-154.4482,58.0912],[-154.4635,58.0789],[-154.5257,58.1039],[-154.5441,58.0919],[-154.5321,58.1057],[-154.6084,58.1231],[-154.5892,58.1067],[-154.6053,58.1049],[-154.5976,58.0967],[-154.5682,58.1028],[-154.5417,58.086],[-154.5598,58.0841],[-154.5372,58.0651],[-154.567,58.0232],[-154.645,58.0323],[-154.6443,58.0579],[-154.6758,58.0625],[-154.7198,58.0521],[-154.7281,58.0161],[-154.7694,58.0019],[-154.8091,57.9987],[-154.832,58.0177],[-154.8885,58.024],[-154.9572,58.0055],[-154.9489,57.9995],[-155.0204,57.9921],[-155.019,57.9976],[-155.0298,58.0029],[-155.0416,57.9545],[-155.0756,57.9542],[-155.0884,57.9475],[-155.1057,57.9448],[-155.119,57.9467],[-155.1214,57.9454],[-155.0619,57.9043],[-155.0839,57.8733],[-155.2564,57.9226],[-155.3465,57.9286],[-155.3437,57.9457],[-155.2975,57.9489],[-155.3502,57.978],[-155.3524,58.016],[-155.4629,58.016],[-155.5481,58.0593],[-155.6489,58.045],[-155.674,58.017],[-155.7076,58.0091],[-155.8019,58.0355],[-155.7956,58.0569],[-155.8133,58.0756],[-155.897,58.1017],[-156.0928,58.2074],[-156.2736,58.3788],[-156.2654,58.4931],[-156.2151,58.5575],[-156.4588,58.5588],[-156.459,58.6094],[-156.5143,58.6094],[-156.5146,58.6527],[-156.5284,58.6527],[-156.5147,58.7322],[-156.4737,58.7394],[-156.4738,58.7538],[-156.446,58.7683],[-156.3349,58.7827],[-156.335,58.8008],[-156.3142,58.8044],[-156.1139,58.7877],[-155.9769,58.8661],[-155.9641,58.8912],[-156.0427,58.9177],[-155.9957,58.9687],[-156.0291,58.985],[-156.0291,59.003],[-155.8857,59.0099],[-155.8484,59.0202],[-155.838,59.0539],[-155.7586,59.0513],[-155.7431,59.0824],[-155.6752,59.0894],[-155.6753,59.1439],[-155.6191,59.1584],[-155.6191,59.1728],[-155.5071,59.2306],[-155.4789,59.2306],[-155.479,59.2451],[-155.4508,59.2451],[-155.4508,59.2595],[-155.4226,59.2595],[-155.4226,59.274],[-155.1704,59.274],[-155.1139,59.2667],[-155.1139,59.2523],[-155.0857,59.2523],[-155.0582,59.2306],[-155.0018,59.2306],[-154.9878,59.2523],[-154.9314,59.274],[-154.7266,59.274]],[[-153.3298,58.8532],[-153.3322,58.8536],[-153.333,58.8529],[-153.3298,58.8532]]],[[[-153.2739,58.7615],[-153.2765,58.7613],[-153.273,58.7622],[-153.2739,58.7615]]],[[[-153.3135,58.8505],[-153.3143,58.8507],[-153.314,58.8512],[-153.3135,58.8505]]],[[[-153.3145,58.8509],[-153.3174,58.8519],[-153.3146,58.8515],[-153.3145,58.8509]]],[[[-153.3598,58.8308],[-153.3566,58.83],[-153.3581,58.8294],[-153.3598,58.8308]]],[[[-153.3753,59.0069],[-153.3846,59.0002],[-153.3956,59.0031],[-153.3936,59.0057],[-153.3753,59.0069]]],[[[-153.558,58.6116],[-153.5498,58.5975],[-153.5782,58.5973],[-153.5659,58.6031],[-153.558,58.6116]]],[[[-153.7202,59.0859],[-153.7046,59.0839],[-153.7026,59.0777],[-153.7303,59.0855],[-153.7202,59.0859]]],[[[-153.7164,58.5749],[-153.713,58.5749],[-153.7147,58.5699],[-153.7167,58.5705],[-153.7164,58.5749]]],[[[-153.7181,58.5687],[-153.7203,58.5687],[-153.7181,58.5694],[-153.7181,58.5687]]],[[[-153.7253,58.5651],[-153.7265,58.5649],[-153.7262,58.5661],[-153.7247,58.5659],[-153.7253,58.5651]]],[[[-153.7305,58.5541],[-153.7316,58.5546],[-153.7316,58.5568],[-153.73,58.5553],[-153.7305,58.5541]]],[[[-153.7419,59.0888],[-153.7426,59.0887],[-153.7411,59.0889],[-153.7419,59.0888]]],[[[-153.7861,59.0781],[-153.7524,59.0734],[-153.7476,59.0738],[-153.7716,59.0689],[-153.7861,59.0781]]],[[[-153.7771,58.6034],[-153.7781,58.6033],[-153.7777,58.6044],[-153.7767,58.6042],[-153.7771,58.6034]]],[[[-153.8677,59.1175],[-153.8689,59.1176],[-153.8676,59.1181],[-153.8677,59.1175]]],[[[-153.8746,59.1083],[-153.8701,59.1081],[-153.8713,59.1076],[-153.8746,59.1083]]],[[[-153.8712,59.1177],[-153.874,59.1176],[-153.8703,59.118],[-153.8712,59.1177]]],[[[-153.8781,59.1082],[-153.8799,59.1083],[-153.879,59.1091],[-153.8781,59.1082]]],[[[-153.9622,58.3909],[-153.9561,58.3913],[-153.9521,58.3894],[-153.966,58.3905],[-153.9622,58.3909]]],[[[-153.9731,58.3917],[-153.9723,58.3903],[-153.98,58.3911],[-153.9742,58.3921],[-153.9731,58.3917]]],[[[-153.9801,58.459],[-153.9823,58.4585],[-153.9816,58.4592],[-153.9801,58.459]]],[[[-153.989,58.4586],[-153.9846,58.4579],[-154.0152,58.4503],[-154.0088,58.4577],[-153.989,58.4586]]],[[[-154.0144,58.4674],[-154.0141,58.4683],[-154.0122,58.4687],[-154.0144,58.4674]]],[[[-154.0259,58.4422],[-154.0256,58.4412],[-154.0288,58.44],[-154.0281,58.4414],[-154.0259,58.4422]]],[[[-154.1006,58.2861],[-154.1011,58.2863],[-154.0997,58.2871],[-154.1006,58.2861]]],[[[-154.1003,58.2919],[-154.1007,58.2923],[-154.0998,58.2921],[-154.1003,58.2919]]],[[[-154.1257,58.3478],[-154.122,58.3468],[-154.1301,58.346],[-154.1277,58.3464],[-154.1257,58.3478]]],[[[-154.1393,58.2322],[-154.1399,58.2326],[-154.139,58.2327],[-154.1393,58.2322]]],[[[-154.1488,58.1936],[-154.1474,58.1927],[-154.1499,58.1935],[-154.1488,58.1936]]],[[[-154.1639,58.343],[-154.1608,58.3356],[-154.1748,58.3341],[-154.1685,58.3426],[-154.1639,58.343]]],[[[-154.1923,58.3154],[-154.1932,58.3155],[-154.1919,58.316],[-154.1923,58.3154]]],[[[-154.1977,58.3194],[-154.1956,58.3103],[-154.2136,58.3108],[-154.2031,58.3205],[-154.1977,58.3194]]],[[[-154.263,58.1883],[-154.2637,58.1884],[-154.2619,58.1894],[-154.263,58.1883]]],[[[-154.2627,58.2913],[-154.2633,58.2916],[-154.2622,58.2919],[-154.2627,58.2913]]],[[[-154.2654,58.2941],[-154.266,58.2945],[-154.2649,58.295],[-154.2654,58.2941]]],[[[-154.2683,58.1892],[-154.2683,58.1885],[-154.2696,58.1887],[-154.2683,58.1892]]],[[[-154.2714,58.2883],[-154.2723,58.2884],[-154.2697,58.2894],[-154.2714,58.2883]]],[[[-154.272,58.2949],[-154.2759,58.2855],[-154.2964,58.2852],[-154.286,58.2933],[-154.272,58.2949]]],[[[-154.2899,58.2651],[-154.2911,58.2653],[-154.2882,58.2664],[-154.2899,58.2651]]],[[[-154.3255,58.0787],[-154.3263,58.0793],[-154.3252,58.0799],[-154.3255,58.0787]]],[[[-154.3358,58.1319],[-154.3341,58.135],[-154.332,58.1361],[-154.3358,58.1319]]],[[[-154.4168,58.0587],[-154.4181,58.0592],[-154.4171,58.0604],[-154.4163,58.0589],[-154.4168,58.0587]]],[[[-154.4195,58.0806],[-154.4213,58.0803],[-154.4216,58.0816],[-154.4195,58.0806]]],[[[-154.4215,58.0758],[-154.4212,58.075],[-154.4227,58.0751],[-154.4225,58.0759],[-154.4215,58.0758]]],[[[-154.4328,58.0594],[-154.4227,58.0584],[-154.4462,58.0557],[-154.4344,58.0613],[-154.4328,58.0594]]],[[[-154.4265,58.082],[-154.4235,58.0809],[-154.4275,58.0815],[-154.4265,58.082]]],[[[-154.4246,58.0763],[-154.4246,58.0757],[-154.4269,58.0762],[-154.4261,58.0772],[-154.4246,58.0763]]],[[[-154.4364,58.0814],[-154.4317,58.0804],[-154.4281,58.0775],[-154.4396,58.0778],[-154.4364,58.0814]]],[[[-154.4294,58.0513],[-154.4286,58.051],[-154.4303,58.0511],[-154.4294,58.0513]]],[[[-154.4318,58.0505],[-154.4329,58.0497],[-154.4329,58.0504],[-154.4318,58.0505]]],[[[-154.4349,58.0492],[-154.436,58.0494],[-154.435,58.0498],[-154.4349,58.0492]]],[[[-154.4401,58.153],[-154.4408,58.153],[-154.4404,58.1537],[-154.4401,58.153]]],[[[-154.443,58.1682],[-154.4409,58.167],[-154.4426,58.1642],[-154.4452,58.1666],[-154.443,58.1682]]],[[[-154.4473,58.0532],[-154.4467,58.0527],[-154.4483,58.0534],[-154.4473,58.0532]]],[[[-154.4481,58.055],[-154.449,58.0539],[-154.4506,58.0546],[-154.449,58.0555],[-154.4481,58.055]]],[[[-154.4494,58.1157],[-154.4505,58.1156],[-154.449,58.116],[-154.4494,58.1157]]],[[[-154.4503,58.1805],[-154.4508,58.1814],[-154.4498,58.1813],[-154.4503,58.1805]]],[[[-154.4524,58.058],[-154.453,58.058],[-154.4523,58.0585],[-154.4524,58.058]]],[[[-154.4585,58.0663],[-154.458,58.0656],[-154.4628,58.0672],[-154.4616,58.0676],[-154.4585,58.0663]]],[[[-154.4582,58.0577],[-154.46,58.059],[-154.4599,58.0607],[-154.4586,58.0596],[-154.4582,58.0577]]],[[[-154.4961,58.0697],[-154.4812,58.0617],[-154.4655,58.064],[-154.4607,58.0591],[-154.4889,58.0562],[-154.5015,58.0476],[-154.5164,58.065],[-154.4961,58.0697]]],[[[-154.4817,58.063],[-154.4827,58.0639],[-154.4822,58.0645],[-154.481,58.0635],[-154.4817,58.063]]],[[[-154.4821,58.0504],[-154.4849,58.052],[-154.4849,58.0528],[-154.4833,58.0523],[-154.4821,58.0504]]],[[[-154.4824,58.0822],[-154.4835,58.0831],[-154.4824,58.083],[-154.4824,58.0822]]],[[[-154.4905,58.0695],[-154.4847,58.0666],[-154.484,58.0651],[-154.4895,58.0669],[-154.4905,58.0695]]],[[[-154.4851,58.0825],[-154.4859,58.0833],[-154.4843,58.0847],[-154.4851,58.0825]]],[[[-154.4877,58.0844],[-154.4917,58.0851],[-154.4917,58.0877],[-154.487,58.0858],[-154.4877,58.0844]]],[[[-154.4905,58.0814],[-154.4919,58.0819],[-154.4917,58.0837],[-154.4898,58.0828],[-154.4905,58.0814]]],[[[-154.4935,58.07],[-154.4952,58.0708],[-154.4922,58.0696],[-154.4935,58.07]]],[[[-154.4958,58.0877],[-154.4933,58.0881],[-154.4932,58.0821],[-154.4984,58.0899],[-154.4958,58.0877]]],[[[-154.4943,58.09],[-154.4963,58.0906],[-154.4937,58.0905],[-154.4943,58.09]]],[[[-154.5026,58.0879],[-154.5053,58.0894],[-154.5043,58.0916],[-154.5003,58.0896],[-154.5026,58.0879]]],[[[-154.5082,58.0819],[-154.5082,58.0813],[-154.5091,58.0817],[-154.5082,58.0819]]],[[[-154.5136,58.0894],[-154.5095,58.0887],[-154.5091,58.0871],[-154.5153,58.0893],[-154.5136,58.0894]]],[[[-154.5099,58.0817],[-154.5122,58.0817],[-154.5136,58.0833],[-154.5099,58.0817]]],[[[-154.5296,58.0852],[-154.5181,58.0821],[-154.5133,58.0788],[-154.5296,58.0787],[-154.5296,58.0852]]],[[[-154.5139,58.0852],[-154.5138,58.0842],[-154.5152,58.085],[-154.5139,58.0852]]],[[[-154.5143,58.0873],[-154.5151,58.0876],[-154.5142,58.0878],[-154.5143,58.0873]]],[[[-154.5153,58.086],[-154.5178,58.0843],[-154.5196,58.0855],[-154.5184,58.0865],[-154.5153,58.086]]],[[[-154.516,58.0901],[-154.5191,58.0897],[-154.5198,58.0911],[-154.5185,58.0916],[-154.516,58.0901]]],[[[-154.5165,58.0912],[-154.5196,58.093],[-154.5166,58.0921],[-154.5165,58.0912]]],[[[-154.52,58.0881],[-154.5206,58.087],[-154.5224,58.0875],[-154.52,58.0881]]],[[[-154.5205,58.0855],[-154.5217,58.0845],[-154.5229,58.0869],[-154.5206,58.0865],[-154.5205,58.0855]]],[[[-154.5232,58.0307],[-154.5237,58.0297],[-154.5249,58.0307],[-154.5232,58.0307]]],[[[-154.527,58.027],[-154.5296,58.0269],[-154.5305,58.028],[-154.5261,58.0302],[-154.527,58.027]]],[[[-154.5281,58.0889],[-154.5268,58.0889],[-154.5274,58.0878],[-154.5281,58.0879],[-154.5281,58.0889]]],[[[-154.5308,58.0775],[-154.5321,58.0783],[-154.5317,58.0795],[-154.5306,58.0791],[-154.5308,58.0775]]],[[[-154.5329,58.0771],[-154.5347,58.078],[-154.5334,58.0821],[-154.5315,58.081],[-154.5329,58.0771]]],[[[-154.5431,58.0462],[-154.5445,58.046],[-154.5439,58.0468],[-154.5431,58.0462]]],[[[-154.5485,58.1029],[-154.5504,58.1033],[-154.5474,58.1043],[-154.5485,58.1029]]],[[[-154.5501,58.1043],[-154.5492,58.104],[-154.5509,58.1045],[-154.5501,58.1043]]],[[[-154.5602,58.1046],[-154.5516,58.1044],[-154.5512,58.0972],[-154.5654,58.1034],[-154.5602,58.1046]]],[[[-154.5765,58.1087],[-154.5751,58.1082],[-154.578,58.1086],[-154.5765,58.1087]]],[[[-154.5846,58.1095],[-154.5773,58.1075],[-154.5898,58.1095],[-154.5846,58.1095]]],[[[-154.9402,58.0014],[-154.9382,58.0051],[-154.9382,58.0035],[-154.9402,58.0014]]]]},"properties":{"park":"katmai","name":"Katmai National Park","source":"iNaturalist place","place_id":95257,"source_url":"https://www.inaturalist.org/places/95257"}}